name,longitude,latitude,address,category,vha,phone,lastColumn
Beitbridge,29.98760986330,-22.20458000000,"Beitbridge, Matabeleland South Province, ZW",District Hospital,FALSE,,
Chamunangana,29.60194015500,-21.60719000000,"Sitauzis, Gwanda, Matabeleland South Province, ZW",Clinic,FALSE,,
Chasvingo,30.50114059450,-22.05558000000,"Beitbridge, Matabeleland South Province, ZW",Clinic,FALSE,,
Chikwarakwara,31.09124946590,-22.31725000000,"Beitbridge, Matabeleland South Province, ZW",Rural Health Centre,FALSE,,
Chituripasi,30.78753089900,-22.20064000000,"Tshiturapadsi, Beitbridge, Matabeleland South Province, ZW",Rural Health Centre,FALSE,,
Dite,30.39002990720,-22.22214000000,"Sinyoni, Beitbridge, Matabeleland South Province, ZW",Rural Health Centre,FALSE,,
Dulibadzimu,29.98372077940,-22.20681000000,"Shop number 6, Tsumbo Complex Dulivadzimu, Beitbridge, ZW",Clinic,FALSE,,
Majini,29.69067001340,-21.50331000000,"Makado, Gwanda, Matabeleland South Province, ZW",Rural Health Centre,FALSE,,
Makakabule,29.93680953980,-22.13792000000,"Beitbridge, Matabeleland South Province, ZW",Rural Health Centre,FALSE,,
Zezane,29.50341987610,-21.62461000000,"Sitauzis, Gwanda, Matabeleland South Province, ZW",Clinic,FALSE,,
ZRP,30.00518989560,-22.21992000000,"Beitbridge, Matabeleland South Province, ZW",Clinic,FALSE,,
Masera,29.58650016780,-21.93431000000,"Makado, Beitbridge, Matabeleland South Province, ZW",Clinic,FALSE,,
Nottingham,29.63697052000,-22.12217000000,"Beitbridge, Matabeleland South Province, ZW",Rural Health Centre,FALSE,,
NRZ,30.00781059270,-22.22078000000,"Beitbridge, Matabeleland South Province, ZW",Clinic,FALSE,,
Prison,29.98527908330,-22.22269000000,"Beitbridge, Matabeleland South Province, ZW",Clinic,FALSE,,
Shabwe,30.22278022770,-22.10489000000,"Nuli, Beitbridge, Matabeleland South Province, ZW",Rural Health Centre,FALSE,,
Shashe,29.32243919370,-22.10292000000,"Maramani, Beitbridge, Matabeleland South Province, ZW",Clinic,FALSE,,
Swereki,29.40386009220,-21.87125000000,"Masole, Beitbridge, Matabeleland South Province, ZW",Clinic,FALSE,,
Tongwe,30.04042053220,-21.93567000000,"Beitbridge, Matabeleland South Province, ZW",Clinic,FALSE,,
Mtetengwe,29.92830000000,-21.99529000000,"Beitbridge, Matabeleland South Province, ZW",Clinic,FALSE,,
Mazunga,29.86923000000,-21.73450000000,"Mazunga, Beitbridge, Matabeleland South Province, ZW",Clinic(Not Open),FALSE,,
Makombe,30.54910000000,-21.90371000000,"Beitbridge, Matabeleland South Province, ZW",Clinic (construction),FALSE,,
Bikita,31.60647010800,-20.06703000000,"Bikita, Masvingo Province, ZW",Rural Hospital,FALSE,,
Chikuku,31.86856079100,-20.00050000000,"Village 14 Devure Resettlement Area, Bikita, Masvingo Province, ZW",Clinic,FALSE,,
Chirorwe,31.91802978520,-19.88528000000,"Gutu, Masvingo Province, ZW",Clinic,FALSE,,
Chitasa,31.85453033450,-20.20817000000,"Bikita, Masvingo Province, ZW",Clinic,FALSE,,
Devure 1,32.12055969240,-19.95322000000,"Buhera, Masvingo Province, ZW",Clinic,FALSE,,
Hozvi,31.53725051880,-20.05172000000,"Nyika Growth Point, Bikita, Masvingo Province, ZW",Clinic,FALSE,,
Marozva,31.52099990840,-20.00053000000,"Nyika Growth Point, Bikita, Masvingo Province, ZW",Clinic,FALSE,,
Mashoko,31.75057983400,-20.50519000000,"Matsai Twp, Bikita, Masvingo Province, ZW",Hospital,FALSE,,
Mkanga,31.72113990780,-20.43703000000,"Matsai Twp, Bikita, Masvingo Province, ZW",Rural Hospital,FALSE,,
Murwira,31.65306091310,-19.94133000000,"Muvuti, Gutu, Masvingo Province, ZW",Clinic,FALSE,,
Ngorima,31.68431091310,-20.28881000000,"Bikita, Masvingo Province, ZW",Clinic,FALSE,,
Nyika,31.58885955810,-20.00586000000,"Nyika Growth Point, Bikita, Masvingo Province, ZW",Rural Health Centre,FALSE,,
Odzi,31.85753059390,-20.42022000000,"Matsai Twp, Bikita, Masvingo Province, ZW",Clinic,FALSE,,
Pfupajena,31.61775016780,-20.18919000000,"Bikita, Masvingo Province, ZW",Clinic,FALSE,,
Silveira,31.68678092960,-20.02347000000,"Bikita, Masvingo Province, ZW",Mission Hospital,FALSE,,
Mukore,31.84224000000,-20.14081000000,"Village 14 Devure Resettlement Area, Bikita, Masvingo Province, ZW",Rural Health Centre,FALSE,,
Mutikizizi,31.71084000000,-20.20992000000,"Bikita, Masvingo Province, ZW",Rural Health Centre,FALSE,,
Gangare,31.81698000000,-19.91530000000,"Gutu, Masvingo Province, ZW",Rural Health Centre,FALSE,,
Masarasa,31.42301000000,-19.95815000000,"Glencova, Masvingo, Masvingo Province, ZW",Clinic,FALSE,,
Mungezi,31.52096000000,-19.91393000000,"Glencova, Masvingo, Masvingo Province, ZW",Rural Health Centre,FALSE,,
Negovano,31.72709000000,-20.12917000000,"Bikita, Masvingo Province, ZW",Rural Health Centre,FALSE,,
Gava,31.80962000000,-20.53792000000,"Matsai Twp, Chiredzi, Masvingo Province, ZW",Rural Health Centre,FALSE,,
Bindura,31.32876968380,-17.29005000000,"Bindura, Mashonaland Central Province, ZW",Provincial Hospital,FALSE,,
Bindura Polyclinic,31.33197975160,-17.30967000000,"Bindura, Mashonaland Central Province, ZW",Clinic,FALSE,,
Chipadze,31.35515022280,-17.31758000000,"Shamva-Bindura Rd, Bindura, ZW",Clinic,FALSE,,
Chiriseri,31.16135025020,-17.45422000000,"Chigiji Road, ZW",Clinic,FALSE,,
Chiveso,31.34956932070,-17.46283000000,"Chikupo, Goromonzi, Mashonaland Central Province, ZW",Clinic,FALSE,,
Chiwaridzo,31.35922050480,-17.32222000000,"Bindura, Mashonaland Central Province, ZW",Clinic,FALSE,,
Farm H.Centre,31.35577964780,-17.31998000000,"Bindura, Mashonaland Central Province, ZW",Clinic,FALSE,,
Foothills,31.27804946900,-17.21320000000,"Bindura, Mashonaland Central Province, ZW",Clinic,FALSE,,
Freda Rebecca,31.33197975160,-17.30967000000,"Bindura, Mashonaland Central Province, ZW",Mine Clinic,FALSE,,
Manhenga,31.31217002870,-17.39605000000,"Manhenga, Mashonaland Central Province, ZW",Clinic,FALSE,,
ZRP Bindura,31.32880020140,-17.29583000000,"Bindura, Mashonaland Central Province, ZW",Clinic,FALSE,,
Muonwe,31.25351905820,-17.52205000000,"Chinamhora, Goromonzi, Mashonaland East Province, ZW",Clinic,FALSE,,
Nyava,31.36051940920,-17.56392000000,"Melfort, Goromonzi, Mashonaland Central Province, ZW",Clinic,FALSE,,
Rusununguko,31.28075027470,-17.06137000000,"Mtepatepa, Bindura, Mashonaland Central Province, ZW",Clinic,FALSE,,
Rutope,31.56554985050,-17.55588000000,"Mhembere, Goromonzi, Mashonaland East Province, ZW",Clinic,FALSE,,
Trojan,31.28507995610,-17.33128000000,"Bindura, Mashonaland Central Province, ZW",Mine Clinic,FALSE,,
ZRP,31.32885000000,-17.29495000000,"Bindura, Mashonaland Central Province, ZW",Clinic Private Clinic,FALSE,,
Mupandira,31.30719000000,-17.45981600000,"Madziwa Road, ZW",Rural Health Centre,FALSE,,
Ponai Medical Centre,31.33509000000,-17.30905000000,"Bindura, Mashonaland Central Province, ZW",Private Hospital,FALSE,,
PSMI Shashi,31.32199000000,-17.30241000000,"Bindura, Mashonaland Central Province, ZW",Private Hospital,FALSE,,
Premier Medical Centre,31.33340000000,-17.30767000000,"Bindura, Mashonaland Central Province, ZW",Clinic,FALSE,,
ZNFPC,31.33429000000,-17.31039000000,"Bindura, Mashonaland Central Province, ZW",Family Planning,FALSE,,
Bindura University,31.33306000000,-17.32484000000,"Bindura, Mashonaland Central Province, ZW",Clinic,FALSE,,
Zimbabwe Prison Services,31.32640000000,-17.29262000000,"Bindura, Mashonaland Central Province, ZW",Clinic,FALSE,,
Manga,31.25575000000,-16.88900000000,"Mtepatepa, Bindura, Mashonaland Central Province, ZW",,FALSE,,
Katanya,31.38008000000,-16.86920000000,"Mtepatepa, Bindura, Mashonaland Central Province, ZW",Rural Health Centre,FALSE,,
Takunda ,31.15220000000,-17.23160000000,"Bindura, Mashonaland Central Province, ZW",Rural Health Centre,FALSE,,
Busce ,31.33300000000,-17.32490000000,"Bindura, Mashonaland Central Province, ZW",Clinic,FALSE,,
Glamorgan,31.42360000000,-17.43940000000,"Pagariya Nelge Plaza, Pagariya Nelge Plaza pune nashik highway, NH50 Hereford Road, ZW",Clinic,FALSE,,
Binga,27.32666969300,-17.63944000000,"Binga, Matabeleland North Province, ZW",District Hospital,FALSE,,
Chinego,28.07500076290,-17.19472000000,"Chief Simupas Village, Binga, Matabeleland North Province, ZW",Clinic,FALSE,,
Chinego,28.07500076290,-17.19472000000,"Chief Simupas Village, Binga, Matabeleland North Province, ZW",Clinic,FALSE,,
Kariangwe,27.53499984740,-17.96972000000,"Kariyangwe Mission, Binga, Matabeleland North Province, ZW",Clinic,FALSE,,
Lubimbi,27.19194030760,-17.94944000000,"Mibizi, Binga, Matabeleland North Province, ZW",Clinic,FALSE,,
Lusulu,27.86222076420,-18.06833000000,"Lusulu, Binga, Matabeleland North Province, ZW",Rural Health centre,FALSE,,
Muchesu,27.68917083740,-17.94778000000,"Binga, Matabeleland North Province, ZW",Clinic,FALSE,,
Pashu,27.40056037900,-18.20806000000,"Pashu, Binga, Matabeleland North Province, ZW",Rural Health centre,FALSE,,
Siabuwa,28.04388999940,-17.47472000000,"Siabuwa, Binga, Matabeleland North Province, ZW",Clinic,FALSE,,
Siansundu,27.21916961670,-17.98333000000,"Mlibizi, Binga, Matabeleland North Province, ZW",Rural Health centre,FALSE,,
Sikomena,27.65647000000,-18.18549000000,"Binga, Matabeleland North Province, ZW",Council Clinic(Construction),FALSE,,
Tinde,27.18206000000,-18.26125000000,"Tinde, Hwange, Matabeleland North Province, ZW",Rural Health Centre,FALSE,,
Sinakoma,27.60401000000,-17.69109000000,"Impampa, Binga, Matabeleland North Province, ZW",Council Clinic,FALSE,,
Siabuwa Turn,27.43380000000,-17.69461000000,"Manjolo, Binga, Matabeleland North Province, ZW",Council Clinic,FALSE,,
Simatelele,27.25738000000,-17.78883000000,"James, Binga, Matabeleland North Province, ZW",Clinic,FALSE,,
Chibila,27.71811000000,-18.17046000000,"Binga, Matabeleland North Province, ZW",Council (Construction),FALSE,,
Siabuzuba,27.43390000000,-17.69480000000,"Manjolo, Binga, Matabeleland North Province, ZW",clinic,FALSE,,
Sinasengwe,27.82320000000,-17.56890000000,"Chief Sinasenkwe, Binga, Matabeleland North Province, ZW",Rural Health Centre,FALSE,,
Inyathi,28.85610961910,-19.68500000000,"Inyati, Bubi, Matabeleland North Province, ZW",District Hospital,FALSE,,
Isabella Mine,28.54944038390,-19.46111000000,"Eastnor, Bubi, Matabeleland North Province, ZW",Mine Clinic,FALSE,,
Lukala,28.41222000120,-19.26389000000,"Ngiki, Bubi, Matabeleland North Province, ZW",Rural Health Centre,FALSE,,
Mbembeswana,28.40193939210,-19.33056000000,"Ngiki, Bubi, Matabeleland North Province, ZW",Rural Health Centre,FALSE,,
PEHO,28.75250053410,-19.80333000000,"Queens Mine, Bubi, Matabeleland North Province, ZW",,FALSE,,
Sicanda,28.47528076170,-19.33583000000,"Ngiki, Bubi, Matabeleland North Province, ZW",Rural Health Centre,FALSE,,
Turk Mine,28.79388999940,-19.71306000000,"Turk Mine, Bubi, Matabeleland North Province, ZW",Mine Clinic,FALSE,,
Mdutshane,28.63129000000,-19.47221000000,"Eastnor, Bubi, Matabeleland North Province, ZW",Clinic,FALSE,,
Balanda,28.51540000000,-19.45220000000,"Eastnor, Bubi, Matabeleland North Province, ZW",Rural Health Centre,FALSE,,
Majiji,28.34680000000,-19.37740000000,"Dabula, Bubi, Matabeleland North Province, ZW",Clinic,FALSE,,
Raafs,28.64630000000,-19.88480000000,"Queens Mine, Bubi, Matabeleland North Province, ZW",Rural Health Centre,FALSE,,
Bangure,31.77325057980,-19.53564000000,"Buhera, Manicaland Province, ZW",Clinic,FALSE,,
Betera,32.00122070310,-19.37372000000,"Buhera, Manicaland Province, ZW",Rural Health Centre,FALSE,,
Birchenough,32.33853149410,-19.97181000000,"Birchenough Bridge, Chimanimani, Manicaland Province, ZW",Rural Hospital,FALSE,,
Buhera,31.43592071530,-19.33897000000,"Buhera, Manicaland Province, ZW",Rural Hospital,FALSE,,
Chabata,32.15781021120,-19.78603000000,"Baruru, Buhera, Manicaland Province, ZW",Clinic,FALSE,,
Chapanduka,32.16894149780,-19.68356000000,"Baruru, Buhera, Manicaland Province, ZW",Clinic,FALSE,,
Chapwanya,31.35243988040,-19.17197000000,"Buhera, Manicaland Province, ZW",Clinic,FALSE,,
Chimbudzi,31.80422019960,-19.47289000000,"Buhera, Manicaland Province, ZW",Clinic,FALSE,,
Chirozva,32.00093841550,-19.45672000000,"Buhera, Manicaland Province, ZW",Clinic,FALSE,,
Chiwenga,31.98941993710,-19.23839000000,"Buhera, Manicaland Province, ZW",Clinic,FALSE,,
Chiweshe,31.88455963130,-19.22269000000,"Buhera, Manicaland Province, ZW",Clinic,FALSE,,
Dorowa,31.76822090150,-19.05431000000,"Dorowa, Buhera, Manicaland Province, ZW",Clinic,FALSE,,
Garamwera,31.40218925480,-19.20661000000,"Buhera, Manicaland Province, ZW",Clinic,FALSE,,
Gombe,31.53335952760,-19.23786000000,"Murambinda, Buhera, Manicaland Province, ZW",Clinic,FALSE,,
Gunura,32.30699920650,-19.87439000000,"Birchenough Bridge, Chimanimani, Manicaland Province, ZW",Clinic,FALSE,,
Madzimbashuro,31.65630912780,-19.43503000000,"Murambinda, Buhera, Manicaland Province, ZW",Rural Health Centre,FALSE,,
Viriri,31.75628089900,-19.40594000000,"Buhera, Manicaland Province, ZW",Clinic,FALSE,,
Zangama,32.11957931520,-19.56878000000,"Baruru, Buhera, Manicaland Province, ZW",Rural Health Centre,FALSE,,
Mombeyarara,31.60378074650,-19.20428000000,"Murambinda, Buhera, Manicaland Province, ZW",Rural Health Centre,FALSE,,
Mudanda,31.71755981450,-19.39111000000,"Murambinda, Buhera, Manicaland Province, ZW",Clinic,FALSE,,
Munyanyi,31.73460960390,-19.15669000000,"Murambinda, Buhera, Manicaland Province, ZW",Clinic,FALSE,,
Murambinda,31.65555953980,-19.26678000000,"Murambinda, Buhera, Manicaland Province, ZW",District Hospital,FALSE,,
Murwira,31.83353042600,-19.53361000000,"Buhera, Manicaland Province, ZW",Rural Health Centre,FALSE,,
Mutepfe,31.96869087220,-19.76764000000,"Baruru, Buhera, Manicaland Province, ZW",Clinic,FALSE,,
Mutiusinazita,32.06731033330,-19.72489000000,"Baruru, Buhera, Manicaland Province, ZW",Clinic,FALSE,,
Muzokomba,31.97167015080,-19.58381000000,"Buhera, Manicaland Province, ZW",Clinic,FALSE,,
Nerutanga,31.35038948060,-19.28703000000,"Buhera, Manicaland Province, ZW",Clinic,FALSE,,
Nyashanu,31.53828048710,-19.28339000000,"Murambinda, Buhera, Manicaland Province, ZW",Clinic,FALSE,,
Rambanapasi,31.65449905400,-19.13994000000,"Murambinda, Buhera, Manicaland Province, ZW",Clinic,FALSE,,
Mudawose,32.09959000000,-19.47415000000,"Buhera, Manicaland Province, ZW",Clinic,FALSE,,
Berenyazvidzi,31.73770000000,-19.05373000000,"Dorowa, Buhera, Manicaland Province, ZW",Clinic,FALSE,,
Chawatama,31.59920000000,-19.13214000000,"Murambinda, Buhera, Manicaland Province, ZW",Rural Health Centre,FALSE,,
Nyashanu,31.87122000000,-19.28324000000,"Buhera, Manicaland Province, ZW",Rural Hosp,FALSE,,
Ndyarima,31.70484000000,-19.49465000000,"Buhera, Manicaland Province, ZW",Clinic,FALSE,,
Maburutse,31.24850000000,-19.24951000000,"Manicaland Province, ZW",Clinic,FALSE,,
Lady Stanley,27.58740000000,-20.00000000000,"Gempo, Bulilimamangwe, Matabeleland South Province, ZW",Mission Hospital,FALSE,,
Lady Barring,27.32830000000,-19.94806000000,"Siringa, Bulilimamangwe, Matabeleland South Province, ZW",Mission Hospital,FALSE,,
Brunapeg,28.03306007390,-21.16944000000,"Brunapeg, Bulilimamangwe, Matabeleland South Province, ZW",Mission Hospital,FALSE,,
Dingumuzi,27.80888938900,-20.50250000000,"Plumtree, Bulilimamangwe, Matabeleland South Province, ZW",Clinic,FALSE,,
Dombodema,27.62221908570,-20.40417000000,"Bulilimamangwe, Matabeleland South Province, ZW",Clinic,FALSE,,
Embakwe,27.82110977170,-20.77917000000,"Bulilimamangwe, Matabeleland South Province, ZW",Mission Hospital,FALSE,,
Empandeni,27.90278053280,-20.70778000000,"Matole, Bulilimamangwe, Matabeleland South Province, ZW",Clinic,FALSE,,
Hingwe,27.30167007450,-20.14500000000,"Hingwe, Bulilimamangwe, Matabeleland South Province, ZW",Clinic,FALSE,,
Huwana,27.46556091310,-19.89528000000,"Hlananisas, Tsholotsho, Matabeleland South Province, ZW",Clinic,FALSE,,
Ingwizi,27.87083053590,-21.11917000000,"Ngwesi, Bulilimamangwe, Matabeleland South Province, ZW",Clinic,FALSE,,
Madabe,27.75333023070,-20.81444000000,"Bulilimamangwe, Matabeleland South Province, ZW",Clinic,FALSE,,
Madlambuzi,27.44333076480,-20.15111000000,"Ndolwane, Bulilimamangwe, Matabeleland South Province, ZW",Clinic,FALSE,,
Makhuleka,27.26861000060,-19.90611000000,"Makvlela, Bulilimamangwe, Matabeleland South Province, ZW",Clinic,FALSE,,
Mambale,28.28471946720,-21.47833000000,"Bulilimamangwe, Matabeleland South Province, ZW",Clinic,FALSE,,
Marula,28.09361076350,-20.47250000000,"Marula, Bulilimamangwe, Matabeleland South Province, ZW",Clinic,FALSE,,
Matshinge,27.71916961670,-20.21028000000,"Bezha, Bulilimamangwe, Matabeleland South Province, ZW",Rural Health Centre,FALSE,,
Mayobodo,28.15155000000,-21.36330000000,"Bulilimamangwe, Matabeleland South Province, ZW",Rural Health Centre,FALSE,,
Ndiweni,27.75082969670,-20.36611000000,"Plumtree, Bulilimamangwe, Matabeleland South Province, ZW",Clinic,FALSE,,
Ndolwane,27.32832908630,-19.94806000000,"Siringa, Bulilimamangwe, Matabeleland South Province, ZW",Rural Health Centre,FALSE,,
Nswazwi,27.35250091550,-20.39194000000,"Malalume, Bulilimamangwe, Matabeleland South Province, ZW",Rural Health Centre,FALSE,,
Ntoli,27.58749961850,-20.00000000000,"Gempo, Bulilimamangwe, Matabeleland South Province, ZW",Rural Health Centre,FALSE,,
Plumtree,27.80888938900,-20.49667000000,"Plumtree, Bulilimamangwe, Matabeleland South Province, ZW",District Hospital,FALSE,,
Sikhatini,27.89916992190,-20.35278000000,"Mathole, Bulilimamangwe, Matabeleland South Province, ZW",Clinic,FALSE,,
Solusi,28.16028022770,-20.19278000000,"Bulilimamangwe, Matabeleland South Province, ZW",Clinic,FALSE,,
Tshitshi,27.74806022640,-21.00333000000,"Sheleni, Bulilimamangwe, Matabeleland South Province, ZW",Clinic,FALSE,,
Village 13,27.52388954160,-20.39056000000,"Malalume, Bulilimamangwe, Matabeleland South Province, ZW",Rural Health Centre,FALSE,,
Bango,28.13474000000,-21.25769000000,"Brunapeg, Bulilimamangwe, Matabeleland South Province, ZW",Clinic,FALSE,,
Masendu,27.53517000000,-20.13567000000,"Ndolwane, Bulilimamangwe, Matabeleland South Province, ZW",Clinic,FALSE,,
Bezu,27.87091000000,-20.23436000000,"Bezha, Bulilimamangwe, Matabeleland South Province, ZW",Clinic,FALSE,,
SANZUKWI,28.00213000000,-21.10654000000,"Brunapeg, Bulilimamangwe, Matabeleland South Province, ZW",Clinic,FALSE,,
Chadereka,31.20216941830,-16.16700000000,"Centenary, Mashonaland Central Province, ZW",Clinic,FALSE,,
Chawarura,31.11017036440,-16.51850000000,"Maclear, Centenary, Mashonaland Central Province, ZW",Clinic,FALSE,,
David Nelson,31.11667060850,-16.72950000000,"Centenary, Mashonaland Central Province, ZW",Clinic,FALSE,,
Hoya,31.30266952510,-16.35700000000,"Centenary, Mashonaland Central Province, ZW",Clinic,FALSE,,
Hwata,30.95999908450,-16.32367000000,"Centenary, Mashonaland Central Province, ZW",Clinic,FALSE,,
Machaya,31.16200065610,-16.35067000000,"Centenary, Mashonaland Central Province, ZW",Clinic,FALSE,,
Muzarabani,30.89249992370,-16.39250000000,"Centenary, Mashonaland Central Province, ZW",Clinic,FALSE,,
St Alberts,31.26667022710,-16.57083000000,"Maclear, Centenary, Mashonaland Central Province, ZW",Mission Hospital,FALSE,,
Chinyani,31.20588000000,-16.58268000000,"Maclear, Centenary, Mashonaland Central Province, ZW",Clinic,FALSE,,
Dambakurima,31.08856000000,-16.14613000000,"Centenary, Mashonaland Central Province, ZW",Rural Health Centre,FALSE,,
Chidikamwedzi,30.96166000000,-16.80012000000,"Taikoo, Guruve, Mashonaland Central Province, ZW",Clinic,FALSE,,
Always ,31.00230000000,-16.67360000000,"Centenary, Mashonaland Central Province, ZW",Clinic,FALSE,,
BHP,30.43416976930,-18.03611000000,"Selous, Chegutu, Mashonaland West Province, ZW",Private Clinic,FALSE,,
Chegutu,30.14944076540,-18.12861000000,"Chegutu, Mashonaland West Province, ZW",District Hospital,FALSE,,
Chegutu DC,30.14555931090,-18.13611000000,"Chegutu, Mashonaland West Province, ZW",Council Clinic,FALSE,,
Chegutu Urban,30.14193916320,-18.12083000000,"Chinengundu, Chegutu, Mashonaland West Province, ZW",Municipality-clinic,FALSE,,
Chibero,30.66139030460,-18.09583000000,"Matswaire, Chegutu, Mashonaland West Province, ZW",Clinic,FALSE,,
Chikara,30.70000076290,-18.47028000000,"mhondoro, Chegutu, Mashonaland West Province, ZW",Council Clinic,FALSE,,
Chikwava,30.76972007750,-18.45056000000,"Chakara, Chegutu, Mashonaland West Province, ZW",Private Clinic,FALSE,,
Chivero,30.60416984560,-18.17944000000,"Matswaire, Chegutu, Mashonaland West Province, ZW",Council Clinic,FALSE,,
David Whitehead,30.12888908390,-18.14167000000,"Chegutu, Mashonaland West Province, ZW",Private Clinic,FALSE,,
Doribwe,30.28083038330,-17.94361000000,"Makwiro, Chegutu, Mashonaland West Province, ZW",Council Clinic,FALSE,,
Gora,30.72999954220,-18.42417000000,"Chakara, Chegutu, Mashonaland West Province, ZW",Rural Health Centre,FALSE,,
Helenadrof,30.67610931400,-17.87361000000,"Norton, Chegutu, Mashonaland West Province, ZW",Clinic,FALSE,,
Hunyani,30.70000076290,-17.85778000000,"4PR2+X39, Galloway Rd, Norton, ZW",Private Clinic,FALSE,,
Katangautano,30.66832923890,-17.88250000000,"Bus and Taxi Station, Norton, ZW",Municipality,FALSE,,
Watyoka,30.68638992310,-18.32444000000,"Malube, Chegutu, Mashonaland West Province, ZW",Council Clinic,FALSE,,
Mbuyanehanda,30.21582984920,-17.92139000000,"36H8+F47, Mbuya Nehanda Rd, Chegutu, ZW",Rural Health Centre,FALSE,,
Mhondoro,30.58860969540,-18.31833000000,"mhondoro, Chegutu, Mashonaland West Province, ZW",Rural Hospital,FALSE,,
Mhondoro North,30.69388961790,-18.16944000000,"Marirangwe Rd, ZW",Council Clinic,FALSE,,
Monera,30.73193931580,-18.11389000000,"Marirangwe Rd, ZW",Council Clinic,FALSE,,
Msengezi,30.10250091550,-17.94944000000,"Gadzema, Chegutu, Mashonaland West Province, ZW",Council Clinic,FALSE,,
Msengezi,30.32305908200,-17.94944000000,"Makwiro, Chegutu, Mashonaland West Province, ZW",Mission Hospital,FALSE,,
Mupawose,30.50250053410,-18.48056000000,"Neuso Business Centre, Kadoma, Mashonaland West Province, ZW",Council Clinic,FALSE,,
Musinami,30.49888992310,-18.30306000000,"Chinengundu, Chegutu, Mashonaland West Province, ZW",Rural Health Centre,FALSE,,
Norton,30.68750000000,-17.88694000000,"4M7P+4X7, Galloway Rd, Norton, ZW",Municipality,FALSE,,
Pfupajena,30.13582992550,-18.12444000000,"Chegutu, Mashonaland West Province, ZW",Municipality-clinic,FALSE,,
Rwizi,30.63055992130,-18.44833000000,"Chakara, Chegutu, Mashonaland West Province, ZW",Council Clinic,FALSE,,
Sandringham,30.66167068480,-18.08361000000,"Matswaire, Chegutu, Mashonaland West Province, ZW",Mission Clinic,FALSE,,
Selous,30.44861030580,-18.06861000000,"Selous, Chegutu, Mashonaland West Province, ZW",Council Clinic,FALSE,,
Suri-Suri,29.97694015500,-18.15806000000,"Dodington, Kadoma, Mashonaland West Province, ZW",Airforce-clinic,FALSE,,
Brunswick,30.04442000000,-18.22281000000,"Chigwell, Kadoma, Mashonaland West Province, ZW",Clinic,FALSE,,
Homedale,30.48453000000,-18.18780000000,"Ngezi Turf, Chegutu, Mashonaland West Province, ZW",Clinic,FALSE,,
Shamrock,29.97025000000,-17.90262000000,"Chegutu, Mashonaland West Province, ZW",Under Construction,FALSE,,
Lizmore,29.96793000000,-18.02337000000,"Dodhill, Chegutu, Mashonaland West Province, ZW",Clinic,FALSE,,
Elvington Clinic,30.13703000000,-18.02175000000,"Gadzema, Chegutu, Mashonaland West Province, ZW",Gold Mine Clinic,FALSE,,
Bvumbura,31.27388954160,-19.13572000000,"Nharira, Buhera, Manicaland Province, ZW",Clinic,FALSE,,
Chambara,31.00464057920,-18.86886000000,"The Range, Chikomba, Mashonaland East Province, ZW",Clinic,FALSE,,
Chivhu,30.90271949770,-19.01814000000,"Chivhu, Chikomba, Mashonaland East Province, ZW",General Hospital,FALSE,,
Chivhu,30.90644073490,-19.00511000000,"Chivhu, Chikomba, Mashonaland East Province, ZW",Clinic,FALSE,,
Daramombe,31.32369041440,-19.10703000000,"Buhera, Mashonaland East Province, ZW",Mission Clinic,FALSE,,
Gandachibvuva,31.43643951420,-19.10203000000,"Buhera, Manicaland Province, ZW",Mission Hospital,FALSE,,
Gandami,31.26761054990,-18.72261000000,"Chikomba, Mashonaland East Province, ZW",Clinic,FALSE,,
Gokomere,31.35333061220,-19.05353000000,"Buhera, Mashonaland East Province, ZW",Clinic,FALSE,,
Lancashire,31.15356063840,-19.18906000000,"Nharira, Manicaland Province, ZW",Clinic,FALSE,,
Madamombe,31.10038948060,-19.11844000000,"Nharira, Manicaland Province, ZW",Clinic,FALSE,,
Masasa,31.25441932680,-18.90750000000,"Sadza, Chikomba, Mashonaland East Province, ZW",Clinic,FALSE,,
Wazvaremaka,31.23793983460,-19.00200000000,"Nharira, Manicaland Province, ZW",Clinic,FALSE,,
Wiltshire,31.17144012450,-18.87272000000,"Sadza, Chikomba, Mashonaland East Province, ZW",Clinic,FALSE,,
Mbiru,31.20158004760,-18.95808000000,"Nharira, Chikomba, Manicaland Province, ZW",Clinic,FALSE,,
Mufudziwakanaka,31.60444068910,-18.84150000000,"Chikomba, Mashonaland East Province, ZW",Rural Health Centre,FALSE,,
Murezi,31.05356025700,-19.20133000000,"Gutu, Mashonaland East Province, ZW",Clinic,FALSE,,
Mushipe,31.68363952640,-19.02072000000,"Buhera, Mashonaland East Province, ZW",Clinic,FALSE,,
Musuma,31.51968955990,-19.15311000000,"Buhera, Manicaland Province, ZW",Clinic,FALSE,,
Mutoro,31.08382987980,-18.85592000000,"Chikomba, Mashonaland East Province, ZW",Clinic,FALSE,,
Mwerahari,31.23664093020,-19.05522000000,"Nharira, Manicaland Province, ZW",Mission Clinic,FALSE,,
Nhangabwe,31.50555992130,-18.85081000000,"Rundu, Chikomba, Mashonaland East Province, ZW",Rural Health Centre,FALSE,,
Nharira,31.17119026180,-19.07433000000,"Nharira, Manicaland Province, ZW",Rural Hospital,FALSE,,
Nyamhere,31.00374984740,-18.81919000000,"New Featherstone, Chikomba, Mashonaland East Province, ZW",Clinic,FALSE,,
Popoteke,31.52386093140,-19.06781000000,"Buhera, Mashonaland East Province, ZW",Clinic,FALSE,,
Range,31.00064086910,-19.02097000000,"The Range, Chikomba, Mashonaland East Province, ZW",Rural Hospital,FALSE,,
Rutanhira,31.41953086850,-18.75014000000,"Rundu, Wedza, Mashonaland East Province, ZW",Clinic,FALSE,,
Sadza,31.40797042850,-18.83706000000,"Rundu, Wedza, Mashonaland East Province, ZW",District Hospital,FALSE,,
Shumba,31.56767082210,-18.92444000000,"Chikomba, Mashonaland East Province, ZW",Clinic,FALSE,,
Unyetu,31.30097007750,-18.97331000000,"Sadza, Chikomba, Mashonaland East Province, ZW",Clinic,FALSE,,
St Francis of Assisi,31.11675000000,-19.10157000000,"Nharira, Manicaland Province, ZW",Clinic,FALSE,,
Chivu Prison,30.89779000000,-19.01863000000,"Chivhu, Chikomba, Mashonaland East Province, ZW",Clinic,FALSE,,
Tavara,30.71906000000,-18.80102000000,"Featherstone, Chikomba, Mashonaland East Province, ZW",Clinic,FALSE,,
ZRP,30.88971000000,-19.02226000000,"Chivhu, Chikomba, Mashonaland East Province, ZW",Clinic,FALSE,,
Chivhu,30.90650000000,-19.00511000000,"Chivhu, Chikomba, Mashonaland East Province, ZW",Clinic,FALSE,,
Manyene ,30.99540000000,-18.86420000000,"Chikomba, Mashonaland East Province, ZW",Clinic,FALSE,,
ARDA Rusitu,32.78583145140,-20.03472000000,"Nyahode, Chimanimani, Manicaland Province, ZW",Clinic,FALSE,,
Biriwiri,32.67343902590,-19.79031000000,"Chimanimani, Manicaland Province, ZW",Mission Hospital,FALSE,,
Bumba,32.63581085210,-19.65556000000,"Mutambara, Chimanimani, Manicaland Province, ZW",Rural Health Centre,FALSE,,
Cashel,32.78836059570,-19.54161000000,"Cashel, Chimanimani, Manicaland Province, ZW",Clinic,FALSE,,
Chakohwa,32.51755905150,-19.55397000000,"Melsetter Junction, Chimanimani, Manicaland Province, ZW",Clinic,FALSE,,
Changazi,32.47256088260,-19.93394000000,"Birchenough Bridge, Chimanimani, Manicaland Province, ZW",Rural Health Centre,FALSE,,
Charter,32.80675125120,-19.83536000000,"Chimanimani, Manicaland Province, ZW",Clinic,FALSE,,
Chayamiti,32.55456161500,-19.66983000000,"Hot Springs, Chimanimani, Manicaland Province, ZW",Clinic,FALSE,,
Chikukwa,32.93732833860,-19.72056000000,"Charleswood, Chimanimani, Manicaland Province, ZW",Rural Health Centre,FALSE,,
Chikwakwa,32.57313919070,-19.85436000000,"Chimanimani, Manicaland Province, ZW",Clinic,FALSE,,
Chisengu,32.88586044310,-19.90414000000,"Chimanimani, Manicaland Province, ZW",Clinic,FALSE,,
Gudyanga,32.40428161620,-19.86911000000,"Nyanyadzi, Chimanimani, Manicaland Province, ZW",Clinic,FALSE,,
Gwindingwe,32.65383148190,-19.93850000000,"Chimanimani, Manicaland Province, ZW",Clinic,FALSE,,
Martin,32.93402862550,-19.76719000000,"Charleswood, Chimanimani, Manicaland Province, ZW",Clinic,FALSE,,
Mhakwe,32.63478088380,-19.82197000000,"Chimanimani, Manicaland Province, ZW",Clinic,FALSE,,
Muchadziya,32.94860839840,-20.01139000000,"Nyahode, Chimanimani, Manicaland Province, ZW",Clinic,FALSE,,
Mutambara,32.68603134160,-19.53492000000,"Mutambara, Chimanimani, Manicaland Province, ZW",Acting District Hospital,FALSE,,
Mutsvangwa,32.91249847410,-20.07528000000,"Nyahode, Chimanimani, Manicaland Province, ZW",Clinic,FALSE,,
Ngorima,32.85749816890,-20.05167000000,"Nyahode, Chimanimani, Manicaland Province, ZW",Clinic,FALSE,,
Nyahode,32.82271957400,-19.94106000000,"Chimanimani, Manicaland Province, ZW",Clinic,FALSE,,
Nyanyadzi,32.42192077640,-19.78694000000,"Nyanyadzi, Chimanimani, Manicaland Province, ZW",Rural Hospital,FALSE,,
Roscommon,32.81055831910,-20.02167000000,"Nyahode, Chimanimani, Manicaland Province, ZW",Clinic,FALSE,,
Rusitu,32.86471939090,-20.03361000000,"Nyahode, Chimanimani, Manicaland Province, ZW",Mission Clinic,FALSE,,
Shinja,32.60668945310,-19.75481000000,"Chimanimani, Manicaland Province, ZW",Clinic,FALSE,,
Tarka,32.93761062620,-19.97231000000,"Tilbury, Chimanimani, Manicaland Province, ZW",Clinic,FALSE,,
Tilbury,32.97296905520,-19.90747000000,"Tilbury, Chimanimani, Manicaland Province, ZW",Clinic,FALSE,,
Chimanimani Hospital,32.85760000000,-19.81937000000,"Chimanimani, Manicaland Province, ZW",Rural Hosp,FALSE,,
ARDA Estates,32.23221969600,-20.87639000000,"Chisumbanje, Chipinge, Manicaland Province, ZW",Clinic,FALSE,,
ARDA-Mid-Save,32.37889099120,-20.05167000000,"Birchenough Bridge, Chimanimani, Manicaland Province, ZW",Clinic,FALSE,,
Checheche,32.61000061040,-20.03722000000,"Chipinge, Manicaland Province, ZW",Clinic,FALSE,,
Chibuwe,32.30083084110,-20.46417000000,"Chibuwe, Chipinge, Manicaland Province, ZW",Clinic,FALSE,,
Chikore,32.49777984620,-20.43694000000,"Craigmore, Chipinge, Manicaland Province, ZW",Mission Hospital,FALSE,,
Chinyamukwaka,32.36082839970,-20.91722000000,"Chipinge, Manicaland Province, ZW",Clinic,FALSE,,
Chipangayi,32.35332870480,-20.26306000000,"Rupisi, Chipinge, Manicaland Province, ZW",Clinic,FALSE,,
Chipinge,32.61917114260,-20.19583000000,"Chipinge, Manicaland Province, ZW",District Hospital,FALSE,,
Chiringa,32.60749816890,-20.27611000000,"Babblespruit, Chipinge, Manicaland Province, ZW",Clinic,FALSE,,
Chisuma,32.36027908330,-21.05306000000,"Chipinge, Manicaland Province, ZW",Clinic,FALSE,,
Clear Water,32.72721862790,-20.10889000000,"Junction Gate, Chipinge, Manicaland Province, ZW",Clinic,FALSE,,
Gaza,32.63943862920,-20.19194000000,"Chipinge, Manicaland Province, ZW",Council Clinic,FALSE,,
Gumuka,32.28028106690,-20.60333000000,"Gumira, Chipinge, Manicaland Province, ZW",Clinic,FALSE,,
Gwenzi,32.66249847410,-20.53000000000,"Mount Selinda, Chipinge, Manicaland Province, ZW",Clinic,FALSE,,
Hwakata,32.48556137080,-20.82556000000,"Chipinge, Manicaland Province, ZW",Clinic,FALSE,,
Jersey,32.67972183230,-20.52528000000,"Mount Selinda, Chipinge, Manicaland Province, ZW",Clinic,FALSE,,
Junction Gate,32.78416824340,-20.16056000000,"Junction Gate, Chipinge, Manicaland Province, ZW",Clinic,FALSE,,
Kondo,32.38528060910,-20.39806000000,"Rupisi, Chipinge, Manicaland Province, ZW",Clinic,FALSE,,
Kopera,32.77000045780,-20.32139000000,"Dzorora, Chipinge, Manicaland Province, ZW",Clinic,FALSE,,
Mabeye,32.36027908330,-20.90194000000,"Chipinge, Manicaland Province, ZW",Clinic,FALSE,,
Madhuka,32.36333084110,-20.72111000000,"Chisumbanje, Chipinge, Manicaland Province, ZW",Rural Health Centre,FALSE,,
Mahenye,32.39278030400,-21.25000000000,"Chipinge, Manicaland Province, ZW",Clinic,FALSE,,
Manzvire,32.34027862550,-20.77556000000,"Chisumbanje, Chipinge, Manicaland Province, ZW",Clinic,FALSE,,
Zamchiya,32.47750091550,-20.69972000000,"Chipinge, Manicaland Province, ZW",Clinic,FALSE,,
Zona,32.73611068730,-20.43722000000,"Mount Selinda, Chipinge, Manicaland Province, ZW",Clinic,FALSE,,
ZRP-Chipinge,32.62221908570,-20.19917000000,"Chipinge, Manicaland Province, ZW",Clinic,FALSE,,
Mt. Selinda,32.70306015010,-20.42389000000,"Mount Selinda, Chipinge, Manicaland Province, ZW",Mission Hospital,FALSE,,
Muparadze,32.27666854860,-21.07389000000,"Rupangwana, Chipinge, Manicaland Province, ZW",Clinic,FALSE,,
Musani,32.40333175660,-20.08361000000,"Birchenough Bridge, Chimanimani, Manicaland Province, ZW",Clinic,FALSE,,
Musirwizi,32.58028030400,-20.46028000000,"Craigmore, Chipinge, Manicaland Province, ZW",Clinic,FALSE,,
Mutandahwe,32.19499969480,-21.01056000000,"Rupangwana, Manicaland Province, ZW",Clinic,FALSE,,
Mutema,32.36027908330,-20.13417000000,"Chimanimani, Manicaland Province, ZW",Clinic,FALSE,,
New Year Gift,32.57444000240,-20.09583000000,"Chipinge, Chimanimani, Manicaland Province, ZW",Clinic,FALSE,,
Ngaome,32.56972122190,-19.98972000000,"Chimanimani, Manicaland Province, ZW",Clinic,FALSE,,
Paidamoyo,32.80582809450,-20.11056000000,"Junction Gate, Chipinge, Manicaland Province, ZW",Clinic,FALSE,,
Ratelshoek,32.80611038210,-20.24639000000,"Junction Gate, Chipinge, Manicaland Province, ZW",Clinic,FALSE,,
Rimbi,32.39305877690,-20.54750000000,"Chibuwe, Chipinge, Manicaland Province, ZW",Clinic,FALSE,,
Silverstream,32.68444061280,-19.98972000000,"Chimanimani, Manicaland Province, ZW",Clinic,FALSE,,
Southern Hold.,32.82249832150,-20.26500000000,"Dzorora, Chipinge, Manicaland Province, ZW",Clinic,FALSE,,
St. Peters,32.21527862550,-20.77111000000,"Chisumbanje, Chipinge, Manicaland Province, ZW",Mission Hospital,FALSE,,
Tanganda,32.35055923460,-20.11056000000,"Birchenough Bridge, Chimanimani, Manicaland Province, ZW",Clinic,FALSE,,
Tongogara,32.30638885500,-20.34806000000,"Rupisi, Chipinge, Manicaland Province, ZW",Clinic,FALSE,,
Vheneka,32.15388870240,-20.93722000000,"Rupangwana, Manicaland Province, ZW",Clinic,FALSE,,
ZRP Birchnough Bridge,32.37463000000,-19.96033000000,"Birchenough Bridge, Chimanimani, Manicaland Province, ZW",Clinic,FALSE,,
Mahenye,32.39283000000,-21.25018000000,"Chipinge, Manicaland Province, ZW",Rural Health Centre,FALSE,,
Town Clinic,32.62535000000,-20.19118000000,"Chipinge, Manicaland Province, ZW",Clinic,FALSE,,
Tamandai,32.83279000000,-20.30563000000,"Dzorora, Chipinge, Manicaland Province, ZW",Clinic,FALSE,,
Chambuta,31.80488967900,-21.25369000000,"Chiredzi, Masvingo Province, ZW",Clinic,FALSE,,
Chikombedzi,31.33930969240,-21.67494000000,"Matibis, Chiredzi, Masvingo Province, ZW",Hospital,FALSE,,
Chilonga,31.65586090090,-21.22336000000,"Hippo Valley, Chiredzi, Masvingo Province, ZW",Clinic,FALSE,,
Chimbwedziva,31.79063987730,-21.35144000000,"Chiredzi, Masvingo Province, ZW",Clinic,FALSE,,
Chingele,31.61894035340,-21.41761000000,"Machendu, Chiredzi, Masvingo Province, ZW",Clinic,FALSE,,
Chipiwa,31.79128074650,-20.83600000000,"Chiredzi, Masvingo Province, ZW",Clinic,FALSE,,
Chiredzi,31.67321968080,-21.03600000000,"Chiredzi, Masvingo Province, ZW",Hospital,FALSE,,
Chitsa,32.15139007570,-21.10053000000,"Tshovani, Chiredzi, Masvingo Province, ZW",Clinic,FALSE,,
Chizvirizvi,32.01939010620,-20.98369000000,"Nandi, Chiredzi, Masvingo Province, ZW",Clinic,FALSE,,
Chomopani,31.29052925110,-21.53381000000,"Chikombedzi, Chiredzi, Masvingo Province, ZW",Clinic,FALSE,,
Damarakanaka,31.47324943540,-21.33969000000,"Chiredzi, Masvingo Province, ZW",Clinic,FALSE,,
Davata,31.23349952700,-22.26981000000,"Sengwe, Chiredzi, Masvingo Province, ZW",Clinic,FALSE,,
Dumisa,31.40394020080,-22.21711000000,"Chiredzi, Masvingo Province, ZW",Clinic,FALSE,,
Gezani,31.15553092960,-22.10286000000,"Chiredzi, Masvingo Province, ZW",Clinic,FALSE,,
Hippo Valley,31.65110969540,-21.07347000000,"Chiredzi, Masvingo Province, ZW",Clinic,FALSE,,
Mahlanguleni,31.50419044490,-21.53764000000,"Boli, Chiredzi, Masvingo Province, ZW",Clinic,FALSE,,
Makambe,31.34011077880,-21.45361000000,"Chiredzi, Masvingo Province, ZW",Clinic,FALSE,,
Malipati,31.42019081120,-22.07142000000,"Malipati, Chiredzi, Masvingo Province, ZW",Rural Health Centre,FALSE,,
ZRP,31.67328071590,-21.03814000000,"Chiredzi, Masvingo Province, ZW",Clinic,FALSE,,
ZSA,31.61693954470,-21.03806000000,"Chiredzi, Masvingo Province, ZW",Clinic,FALSE,,
Mkwasine,31.88460922240,-20.83886000000,"Chiredzi, Masvingo Province, ZW",Clinic,FALSE,,
Muteyo,32.12044143680,-20.93611000000,"Muteyo, Chiredzi, Masvingo Province, ZW",Clinic,FALSE,,
NRZ,31.46928024290,-21.02481000000,"Triangle, Chiredzi, Masvingo Province, ZW",Clinic,FALSE,,
Nyangambe,31.75230979920,-20.68347000000,"Glendevon, Chiredzi, Masvingo Province, ZW",Clinic,FALSE,,
Old Boli,31.45088958740,-21.42189000000,"Boli, Chiredzi, Masvingo Province, ZW",Clinic,FALSE,,
Pahlela,31.35771942140,-21.94103000000,"Mabalauta, Chiredzi, Masvingo Province, ZW",Clinic,FALSE,,
PMD Masvingo,30.83344078060,-20.09081000000,"Masvingo, Masvingo Province, ZW",PMD Offices,FALSE,,
Porepore,31.90518951420,-20.78747000000,"Chiredzi, Masvingo Province, ZW",Clinic,FALSE,,
Rapanguwana,32.15027999880,-21.00061000000,"Tshovani, Chiredzi, Masvingo Province, ZW",Clinic,FALSE,,
Rutandare,31.30443954470,-22.10658000000,"Malipati, Chiredzi, Masvingo Province, ZW",Clinic,FALSE,,
Samu,31.37443923950,-22.23522000000,"Dumisa Mission, Chiredzi, Masvingo Province, ZW",Clinic,FALSE,,
St Joseph,32.12078094480,-20.82314000000,"Muteyo, Chiredzi, Masvingo Province, ZW",Clinic,FALSE,,
Triangle,31.47485923770,-21.04056000000,"Triangle, Chiredzi, Masvingo Province, ZW",Hospital,FALSE,,
Tsovani,31.68841934200,-21.03900000000,"Chiredzi, Masvingo Province, ZW",Clinic,FALSE,,
Faversham,31.35101000000,-20.68621000000,"Bota, Zaka, Masvingo Province, ZW",Clinic,FALSE,,
Chaka,30.68914031980,-19.53636000000,"Gutu, Midlands Province, ZW",Clinic,FALSE,,
Chengwena,30.55322074890,-19.80483000000,"Gomba, Chirumhanzu, Midlands Province, ZW",Clinic,FALSE,,
Chizhou,30.50447082520,-19.55183000000,"Chirumhanzu, Midlands Province, ZW",Rural Health Centre,FALSE,,
Denhere,30.51683044430,-19.77036000000,"Gomba, Chirumhanzu, Midlands Province, ZW",Rural Health Centre,FALSE,,
Driefontein,30.70710945130,-19.41889000000,"Fairfield, Chirumhanzu, Midlands Province, ZW",T.B Hospital,FALSE,,
Guramatunhu,30.48756027220,-19.63519000000,"Gomba, Chirumhanzu, Midlands Province, ZW",Clinic,FALSE,,
Hama,30.62450027470,-19.85431000000,"Gomba, Chirumhanzu, Midlands Province, ZW",Clinic,FALSE,,
Holy Cross,30.59094047550,-19.56742000000,"Chirumhanzu, Midlands Province, ZW",Rural Health Centre,FALSE,,
Lalapanzi,30.18531036380,-19.33514000000,"Lalapansi, Chirumhanzu, Midlands Province, ZW",Clinic,FALSE,,
Lynwood,30.52421951290,-19.40619000000,"Fairfield, Chirumhanzu, Midlands Province, ZW",Rural Health Centre,FALSE,,
Mtao,30.62038993840,-19.35250000000,"Fairfield, Chirumhanzu, Midlands Province, ZW",Clinic,FALSE,,
Muwonde,30.70203018190,-19.42233000000,"Fairfield, Chirumhanzu, Midlands Province, ZW",Mission Hospital,FALSE,,
Mvuma,30.52086067200,-19.29036000000,"Mvuma, Chirumhanzu, Midlands Province, ZW",District Hospital,FALSE,,
Nyautonga,30.68371963500,-19.65475000000,"Rupepwe, Chirumhanzu, Midlands Province, ZW",Rural Health Centre,FALSE,,
Nyikavanhu,30.65077972410,-18.97053000000,"Chikomba, Mashonaland East Province, ZW",Rural Health Centre,FALSE,,
Siyahokwe,30.50431060790,-19.68994000000,"Gomba, Chirumhanzu, Midlands Province, ZW",Rural Health Centre,FALSE,,
St. Theresa,30.63485908510,-19.71856000000,"Rupepwe, Chirumhanzu, Midlands Province, ZW",Mission Hospital,FALSE,,
Tokwe 4,30.25167083740,-19.47556000000,"Shurugwi, Midlands Province, ZW",Clinic,FALSE,,
Central Estates,30.46363000000,-19.22110000000,"Mvuma, Chirumhanzu, Midlands Province, ZW",Clinic,FALSE,,
CITIMED,31.06990000000,-18.01360000000,"STAND 14656 HADZINANHANGA ROAD, ZENGEZA 4, Chitungwiza, ZW",Hospital,FALSE,,
Chitungwiza,31.06280000000,-18.01760000000,"Chitungwiza, Seke, Mashonaland East Province, ZW",Hospital,FALSE,,
Zengeza 3,31.05820000000,-18.00660000000,"Chitungwiza, Seke, Mashonaland East Province, ZW",clinic,FALSE,,
Seke North,31.09430000000,-18.01520000000,"Chitungwiza, Seke, Mashonaland East Province, ZW",clinic,FALSE,,
ZRP camp,31.11030000000,-18.01690000000,"Seke Rd, Chitungwiza, ZW",clinic,FALSE,,
Seke South,31.07630000000,-18.03140000000,"23305 Chitungwiza Rd, Harare, ZW",clinic,FALSE,,
St Mary's,31.04270000000,-17.99470000000,"Chitungwiza, Seke, Mashonaland East Province, ZW",clinic,FALSE,,
Manyame 24Hr,31.04270000000,-17.99080000000,"Chitungwiza, Seke, Mashonaland East Province, ZW",Maternity clinic,FALSE,,
Berejena,30.58960914610,-20.63389000000,"Chitofa, Chivi, Masvingo Province, ZW",Mission Clinic,FALSE,,
Chifedza,30.55810928340,-20.45081000000,"Nyaningwe Growth Point, Chivi, Masvingo Province, ZW",Clinic,FALSE,,
Chigwikwi,30.20046997070,-20.15394000000,"Chivi, Masvingo Province, ZW",Rural Health Centre,FALSE,,
Chivi,30.50655937190,-20.31897000000,"Nyaningwe Growth Point, Chivi, Masvingo Province, ZW",District Hospital,FALSE,,
Chivi,30.55755996700,-20.35531000000,"Nyaningwe Growth Point, Chivi, Masvingo Province, ZW",Mission Clinic,FALSE,,
Chivi,30.68786048890,-20.39058000000,"Ngomahuru, Masvingo, Masvingo Province, ZW",Rural Hospital,FALSE,,
Davira,30.43564033510,-20.47203000000,"Chivi, Masvingo Province, ZW",Clinic,FALSE,,
Kuranda,30.25668907170,-20.05147000000,"Mandamambge, Chivi, Masvingo Province, ZW",Clinic,FALSE,,
Madamombe,30.32361030580,-20.05228000000,"Mandamambge, Chivi, Masvingo Province, ZW",Rural Health Centre,FALSE,,
Masinire,30.37121963500,-20.40044000000,"Chivi, Masvingo Province, ZW",Clinic,FALSE,,
Mhandamabwe,30.37161064150,-20.11747000000,"Mandamambge, Chivi, Masvingo Province, ZW",Rural Health Centre,FALSE,,
Ngundu,30.80264091490,-20.80253000000,"Ngundu, Chivi, Masvingo Province, ZW",Rural Health Centre,FALSE,,
Nyahombe,30.98888969420,-20.82406000000,"Masvingo, Masvingo Province, ZW",Clinic,FALSE,,
Razi,30.65422058110,-20.71986000000,"Chivi, Masvingo Province, ZW",Rural Health Centre,FALSE,,
Shindi,30.85036087040,-20.87186000000,"Runde, Chivi, Masvingo Province, ZW",Clinic,FALSE,,
Takavarasha,30.30731010440,-20.33397000000,"Chivi, Masvingo Province, ZW",Rural Health Centre,FALSE,,
Utete,30.20657920840,-20.03928000000,"Chivi, Masvingo Province, ZW",Clinic,FALSE,,
Esibobvu,28.90357971190,-20.40247000000,"Esibomvu, Umzingwane, Matabeleland South Province, ZW",Clinic,FALSE,,
Esigodini,28.93678092960,-20.28347000000,"Esigodini, Umzingwane, Matabeleland South Province, ZW",District Hospital,FALSE,,
Habani,28.95606040950,-20.32064000000,"Esigodini, Umzingwane, Matabeleland South Province, ZW",Clinic,FALSE,,
How Mine,28.78455924990,-20.30364000000,"Esigodini, Umzingwane, Matabeleland South Province, ZW",Mine Clinic,FALSE,,
Irisvale,29.08530998230,-20.52311000000,"Irisvale Halt, Umzingwane, Matabeleland South Province, ZW",Rural Health Centre,FALSE,,
Kumbuzi,28.90706062320,-20.62233000000,"Matobo, Matabeleland South Province, ZW",Rural Health Centre,FALSE,,
Mawabeni,28.98513984680,-20.40653000000,"Mulungwane, Umzingwane, Matabeleland South Province, ZW",Clinic,FALSE,,
Mbizingwe,28.81893920900,-20.40375000000,"Esibomvu, Umzingwane, Matabeleland South Province, ZW",Rural Health Centre,FALSE,,
Mhlahlandlela,28.78556060790,-20.52142000000,"Matobo, Matabeleland South Province, ZW",Clinic,FALSE,,
Nhlangano,28.77243995670,-20.20519000000,"Bushtick, Umzingwane, Matabeleland South Province, ZW",Clinic,FALSE,,
Nswazi,28.98477935790,-20.55722000000,"Irisvale Halt, Umzingwane, Matabeleland South Province, ZW",Clinic,FALSE,,
Ntshamathe,28.79100036620,-20.15072000000,"Umzingwane, Matabeleland South Province, ZW",Clinic,FALSE,,
Chemahuro,29.11277961730,-18.21611000000,"Njelele, Gokwe South, Midlands Province, ZW",Clinic,FALSE,,
Chireya,28.59889030460,-17.54417000000,"Chereya, Gokwe North, Midlands Province, ZW",Rural Hospital,FALSE,,
Chitave,28.45111083980,-18.19778000000,"Chief Sai, Gokwe South, Midlands Province, ZW",Clinic,FALSE,,
Day & Night,28.93750000000,-18.55778000000,"Gokwe South, Midlands Province, ZW",Private Clinic,FALSE,,
Denda,28.82028007510,-17.78917000000,"Gorodema, Gokwe North, Midlands Province, ZW",Clinic,FALSE,,
Gawa,28.73389053340,-18.26167000000,"Gokwe South, Midlands Province, ZW",Clinic,FALSE,,
Gokwe,28.92499923710,-18.21139000000,"Gokwe, Gokwe South, Midlands Province, ZW",District Hospital,FALSE,,
Goredema,28.89694023130,-17.85194000000,"Gorodema, Gokwe North, Midlands Province, ZW",Clinic,FALSE,,
Gumunyu,28.90527915950,-17.40972000000,"Machihiri, Gokwe North, Midlands Province, ZW",Clinic,FALSE,,
Gwanyika,29.24167060850,-18.26278000000,"Njelele, Gokwe South, Midlands Province, ZW",Rural Health Centre,FALSE,,
Huchu,28.53249931340,-17.98611000000,"Gokwe South, Midlands Province, ZW",Clinic,FALSE,,
Jahana,28.95332908630,-18.01806000000,"Gokwe South, Midlands Province, ZW",Clinic,FALSE,,
Jiri,28.25749969480,-18.34500000000,"Malimasindi, Gokwe South, Midlands Province, ZW",Clinic,FALSE,,
Kadzidirire,28.93832969670,-17.50028000000,"Gokwe North, Midlands Province, ZW",Rural Health Centre,FALSE,,
Kahobo,28.76333045960,-17.73750000000,"Gokwe North, Midlands Province, ZW",Clinic,FALSE,,
Kana,28.51582908630,-18.55583000000,"Midlands Province, ZW",Mission Hospitals,FALSE,,
Krima,29.37194061280,-18.45028000000,"Empress Mine, Kwekwe, Midlands Province, ZW",Clinic,FALSE,,
Kuwirirana,29.03027915950,-17.90750000000,"Gorodema, Gokwe North, Midlands Province, ZW",Clinic,FALSE,,
Madzivazu,28.50583076480,-17.62972000000,"Madzivazido, Gokwe North, Midlands Province, ZW",Clinic,FALSE,,
Mangidi,28.35582923890,-18.12194000000,"Chief Sai, Gokwe South, Midlands Province, ZW",Clinic,FALSE,,
Manoti,28.37944030760,-18.45833000000,"Gokwe South, Midlands Province, ZW",Clinic,FALSE,,
Manyoni,28.60222053530,-18.14722000000,"Gokwe South, Midlands Province, ZW",Clinic,FALSE,,
Zhamba,28.06110954280,-18.22500000000,"Binga, Matabeleland North Province, ZW",Clinic,FALSE,,
Zhomba,28.31306076050,-17.44139000000,"Nenyunka School, Binga, Midlands Province, ZW",Clinic,FALSE,,
Mashame,28.79750061040,-17.27250000000,"Chireya road, PQHW+PF7, ZW",Rural Health Centre,FALSE,,
Masuka,28.40250015260,-18.00333000000,"Gokwe South, Midlands Province, ZW",Clinic,FALSE,,
Mateta,28.53306007390,-18.39250000000,"Gokwe South, Midlands Province, ZW",Rural Health Centre,FALSE,,
Msala,28.04528045650,-18.46500000000,"Mbungu Settlement, Lupane, Midlands Province, ZW",Clinic,FALSE,,
Mtora,29.00694084170,-17.72083000000,"Nembudziya, Gokwe North, Midlands Province, ZW",Rural Hospital,FALSE,,
Musita,28.57860946660,-17.84361000000,"Sessami, Gokwe South, Midlands Province, ZW",Clinic,FALSE,,
Mutange,29.24028015140,-18.20472000000,"Njelele, Gokwe South, Midlands Province, ZW",Clinic,FALSE,,
Mzadzi,29.05278015140,-17.47944000000,"Gokwe North, Midlands Province, ZW",Rural Health Centre,FALSE,,
Nenyunga,28.25305938720,-17.44139000000,"Nenyunka School, Binga, Midlands Province, ZW",Clinic,FALSE,,
Norah,29.16777992250,-17.51306000000,"Gokwe North, Midlands Province, ZW",Rural Health Centre,FALSE,,
Nyaje,28.79750061040,-18.55222000000,"Gokwe South, Midlands Province, ZW",Rural Health Centre,FALSE,,
Nyamunga,29.46249961850,-18.34667000000,"Empress Mine, Kwekwe, Midlands Province, ZW",Clinic,FALSE,,
Rubatsiro,29.09388923650,-17.77472000000,"Nembudziya, Gokwe North, Midlands Province, ZW",Clinic,FALSE,,
Sai,28.32860946660,-18.25861000000,"Chief Sai, Gokwe South, Midlands Province, ZW",Clinic,FALSE,,
Sesame,28.73500061040,-17.95472000000,"Sessami, Gokwe South, Midlands Province, ZW",Clinic,FALSE,,
Simchembu,28.23969078060,-17.68439000000,"Gokwe North, Midlands Province, ZW",Clinic,FALSE,,
Svisvi,28.77750015260,-18.06028000000,"Sessami, Gokwe South, Midlands Province, ZW",Rural Health Centre,FALSE,,
Tongwe,29.10388946530,-18.08111000000,"Gokwe South, Midlands Province, ZW",Clinic,FALSE,,
Tsungai,29.14249992370,-17.61306000000,"Nembudzia, Gokwe North, Midlands Province, ZW",Rural Health Centre,FALSE,,
Vumba,28.18426000000,-17.76407000000,"Gokwe North, Midlands Province, ZW",Clinic,FALSE,,
Nembudziya,29.01016000000,-17.72261000000,"Nembudziya, Gokwe North, Midlands Province, ZW",Hospital,FALSE,,
Nyamazengwe,29.05069000000,-17.81966000000,"Nembudziya, Gokwe North, Midlands Province, ZW",Clinic,FALSE,,
Nyamhara,28.85431000000,-17.59907000000,"Gokwe North, Midlands Province, ZW",Clinic,FALSE,,
Mateme,28.92017000000,-18.57530000000,"Gokwe South, Midlands Province, ZW",Clinic,FALSE,,
Acturus Mine,31.31681060790,-17.78800000000,"Arcturas, Goromonzi, Mashonaland East Province, ZW",Clinic,FALSE,,
Bosha,31.55306053160,-17.50075000000,"Goromonzi, Mashonaland East Province, ZW",Rural Health Centre,FALSE,,
Chikwaka,31.48586082460,-17.55206000000,"Juru, Goromonzi, Mashonaland East Province, ZW",Rural Hospital,FALSE,,
Chinamhora,31.18456077580,-17.57161000000,"Domboshawa Rd, Showground, ZW",Clinic,FALSE,,
Chinyika,31.35627937320,-17.83503000000,"Goromonzi, Mashonaland East Province, ZW",Clinic,FALSE,,
Cranborne Clinic,31.20742034910,-17.95506000000,"Ruwa, Goromonzi, Mashonaland East Province, ZW",Clinic,FALSE,,
Domboshava,31.13871955870,-17.60214000000,"Domboshawa, Goromonzi, Mashonaland East Province, ZW",Clinic,FALSE,,
John Reimer,31.38442039490,-17.72214000000,"Juru, Goromonzi, Mashonaland East Province, ZW",Clinic,FALSE,,
Kowoyo,31.48925018310,-17.67219000000,"Juru, Goromonzi, Mashonaland East Province, ZW",Clinic,FALSE,,
Kubatsirana,31.37047004700,-17.82031000000,"Goromonzi, Mashonaland East Province, ZW",Clinic,FALSE,,
Makumbe,31.27318954470,-17.54042000000,"Chinamhora, Goromonzi, Mashonaland East Province, ZW",District Hospital,FALSE,,
Masukandoro,31.15321922300,-17.54042000000,"Chigiji Road, ZW",Clinic,FALSE,,
Mwanza,31.48681068420,-17.76875000000,"Juru, Goromonzi, Mashonaland East Province, ZW",Rural Health Centre,FALSE,,
Nyaure,31.27144050600,-17.62294000000,"Showground, Goromonzi, Mashonaland East Province, ZW",Clinic,FALSE,,
Pote,31.12093925480,-17.57222000000,"Domboshawa, Goromonzi, Mashonaland East Province, ZW",Clinic,FALSE,,
Rusike,31.51822090150,-17.87261000000,"Goromonzi, Mashonaland East Province, ZW",Clinic,FALSE,,
Ruwa,31.23760986330,-17.89006000000,"465Q+JJJ, Chiremba Rd, Ruwa, ZW",Clinic,FALSE,,
Ruwa Rehab.,31.23513984680,-17.90167000000,"Ruwa, Goromonzi, Mashonaland East Province, ZW",Hospital,FALSE,,
Gejo raRuby,31.32380000000,-17.74040000000,"Arcturas, Goromonzi, Mashonaland East Province, ZW",RHC,FALSE,,
Goromonzi High ,31.35970000000,-17.86720000000,"Goromonzi, Mashonaland East Province, ZW",Clinic,FALSE,,
Joan Rankini ,31.38470000000,-17.72230000000,"Juru, Goromonzi, Mashonaland East Province, ZW",RHC,FALSE,,
Melfort ,31.32400000000,-17.99980000000,"Tullichewan, Goromonzi, Mashonaland East Province, ZW",RHC,FALSE,,
Rusununguko ,31.43310000000,-17.99160000000,"Goromonzi, Mashonaland East Province, ZW",RHC,FALSE,,
Ruwa ,31.23770000000,-17.89020000000,"465Q+JJJ, Chiremba Rd, Ruwa, ZW",DayCare RHC,FALSE,,
Ruwa ,31.24180000000,-17.89660000000,"Ruwa, Goromonzi, Mashonaland East Province, ZW",PolyClinic,FALSE,,
St Joseph's ,31.19640000000,-17.75140000000,"3 Chishawasha Rd, ZW",RHC,FALSE,,
Arcturus,31.31640000000,-17.77860000000,"Arcturas, Goromonzi, Mashonaland East Province, ZW",Clinic,FALSE,,
Angwa,30.30805969240,-16.10195000000,"Guruve, Mashonaland Central Province, ZW",Clinic,FALSE,,
Bakasa,30.69277954100,-16.52667000000,"Bakasa, Guruve, Mashonaland Central Province, ZW",Clinic,FALSE,,
Bepura,30.67250061040,-16.85667000000,"Mudhindo Township Stand Number 102, ZW",Clinic,FALSE,,
Bvochora,30.58551979060,-16.57822000000,"Guruve, Mashonaland Central Province, ZW",Clinic,FALSE,,
Chapoto,30.39763069150,-15.70058000000,"Kanyemba, Guruve, Mashonaland Central Province, ZW",Clinic,FALSE,,
Chidodo,31.05616950990,-16.02513000000,"Guruve, Mashonaland Central Province, ZW",Clinic,FALSE,,
Chikafa,30.56088066100,-16.00798000000,"Guruve, Mashonaland Central Province, ZW",Clinic,FALSE,,
Chipuriro,30.72571945190,-16.77972000000,"Chikakonya, Guruve, Mashonaland Central Province, ZW",Clinic,FALSE,,
Chitsungo,30.55571937560,-16.27722000000,"Mushumbi Pools, Guruve, Mashonaland Central Province, ZW",Clinic,FALSE,,
Gonono,30.83333015440,-16.08695000000,"Gonono road, Ward4, Mbire, ZW",Clinic,FALSE,,
Gota,30.65777969360,-16.58639000000,"Guruve, Mashonaland Central Province, ZW",Clinic,FALSE,,
Guruve,30.70222091670,-16.67111000000,"Guruve, Mashonaland Central Province, ZW",District Hospital,FALSE,,
Horseshoe,30.88666915890,-16.70306000000,"Horse Shoe Rd, ZW",Clinic,FALSE,,
Kachuta,30.50264930730,-16.63361000000,"Guruve, Mashonaland Central Province, ZW",Clinic,FALSE,,
Mahuwe,30.73527908330,-16.38389000000,"Bakasa, Guruve, Mashonaland Central Province, ZW",Clinic,FALSE,,
Mashumbi,30.55669975280,-16.17507000000,"Mushumbi Pools, Guruve, Mashonaland Central Province, ZW",Clinic,FALSE,,
Masoka,30.16666984560,-16.16667000000,"Guruve, Mashonaland Central Province, ZW",Clinic,FALSE,,
Masomo,30.89067077640,-16.31323000000,"Centenary, Mashonaland Central Province, ZW",Clinic,FALSE,,
Matsvitsi,30.61083030700,-16.67278000000,"Guruve, Mashonaland Central Province, ZW",Clinic,FALSE,,
Msengezi,31.11824989320,-16.11073000000,"Guruve, Mashonaland Central Province, ZW",Clinic,FALSE,,
Negomo,30.75917053220,-16.51056000000,"Bakasa, Guruve, Mashonaland Central Province, ZW",Clinic,FALSE,,
Nyakapupu,30.62805938720,-16.75167000000,"Guruve, Mashonaland Central Province, ZW",Clinic,FALSE,,
Nyamhondoro,30.75778007510,-16.85139000000,"Disi, Guruve, Mashonaland Central Province, ZW",Clinic,FALSE,,
Ruyamuro,30.79528045650,-16.71917000000,"Horse Shoe Rd, ZW",Clinic,FALSE,,
Shinje,30.72360992430,-16.70667000000,"Guruve, Mashonaland Central Province, ZW",Clinic,FALSE,,
Birkdale,30.71890000000,-16.96896600000,"Disi, Guruve, Mashonaland Central Province, ZW",Rural Health Centre,FALSE,,
Mugarakamwe,30.57957000000,-16.86427000000,"Disi, Guruve, Mashonaland Central Province, ZW",Rural Health Centre,FALSE,,
Kemutamba,30.44222000000,-16.63607000000,"Makonde, Mashonaland Central Province, ZW",Rural Health Centre,FALSE,,
Kamusasa,30.87209000000,-16.66756000000,"Horse Shoe Rd, ZW",Clinic,FALSE,,
Guruve ,30.70320000000,-16.66280000000,"Guruve, Mashonaland Central Province, ZW",Clinic,FALSE,,
Brandon ,30.58410000000,-16.96990000000,"Disi, Guruve, Mashonaland Central Province, ZW",Clinic,FALSE,,
Birkdale,30.71910000000,-16.96900000000,"Disi, Guruve, Mashonaland Central Province, ZW",Clinic,FALSE,,
Chepiri,31.88508033750,-19.80603000000,"Kubiko, Buhera, Masvingo Province, ZW",Clinic,FALSE,,
Chimombe,31.60614013670,-19.67189000000,"Gutu, Masvingo Province, ZW",Rural Hospital,FALSE,,
Chinyika,31.48505973820,-19.50567000000,"Chitsa, Gutu, Masvingo Province, ZW",Rural Health Centre,FALSE,,
Chitando,31.20241928100,-19.90722000000,"Gutu, Masvingo Province, ZW",Rural Health Centre,FALSE,,
Chitsa,31.61733055110,-19.50175000000,"Chitsa, Gutu, Masvingo Province, ZW",Rural Health Centre,FALSE,,
Chiwore,30.83930969240,-19.63397000000,"Chatsworth, Gutu, Masvingo Province, ZW",Clinic,FALSE,,
Dambara,31.28635978700,-19.37464000000,"Sote Source, Gutu, Masvingo Province, ZW",Clinic,FALSE,,
Denhere,31.18907928470,-19.28422000000,"Gutu, Masvingo Province, ZW",Clinic,FALSE,,
Devure,31.38666915890,-19.66761000000,"Gutu, Masvingo Province, ZW",Mission Clinic,FALSE,,
Guni,31.14068984990,-20.00739000000,"Rurgwe, Masvingo, Masvingo Province, ZW",Clinic,FALSE,,
Gutu,31.15007972720,-19.65761000000,"Gutu, Masvingo Province, ZW",Hospital,FALSE,,
Gutu,31.21805953980,-19.65678000000,"Gutu, Masvingo Province, ZW",Mission Hospital,FALSE,,
Magombedze,31.35021972660,-19.75803000000,"Gutu, Masvingo Province, ZW",Clinic,FALSE,,
Majarada,31.38452911380,-19.83931000000,"Glencova, Gutu, Masvingo Province, ZW",Rural Health Centre,FALSE,,
Zinhata,31.58646965030,-19.81789000000,"Muvuti, Gutu, Masvingo Province, ZW",Clinic,FALSE,,
Mataruse,31.77186012270,-19.61928000000,"Kubiko, Buhera, Masvingo Province, ZW",Clinic,FALSE,,
Matizha,30.96875000000,-19.47356000000,"Felixburg, Gutu, Masvingo Province, ZW",Clinic,FALSE,,
Mazura,31.64043998720,-19.60406000000,"Chitsa, Gutu, Masvingo Province, ZW",Clinic,FALSE,,
Mukaro,31.15789031980,-19.75686000000,"Gutu, Masvingo Province, ZW",Clinic,FALSE,,
Munyikwa,31.80521965030,-19.72236000000,"Kubiko, Buhera, Masvingo Province, ZW",Rural Health Centre,FALSE,,
Mushaviri,31.10091972350,-19.72333000000,"Gutu, Masvingo Province, ZW",Clinic,FALSE,,
Mutema,30.98797035220,-19.88822000000,"Masvingo, Masvingo Province, ZW",Clinic,FALSE,,
Mutero,31.43803024290,-19.63433000000,"Gutu, Masvingo Province, ZW",Mission Clinic,FALSE,,
Nemashakwe,31.68405914310,-19.83439000000,"Muvuti, Gutu, Masvingo Province, ZW",Clinic,FALSE,,
Nerupiri,31.03528022770,-19.85586000000,"Gutu, Masvingo Province, ZW",Clinic,FALSE,,
Nyazvidzi,31.36735916140,-19.40494000000,"Gutu, Masvingo Province, ZW",Clinic,FALSE,,
Serima,30.88368988040,-19.51861000000,"Felixburg, Gutu, Masvingo Province, ZW",Mission Hospital,FALSE,,
Soti Source,31.20718955990,-19.45097000000,"Sote Source, Gutu, Masvingo Province, ZW",Clinic,FALSE,,
Tirizi,31.45027923580,-19.75394000000,"Gutu, Masvingo Province, ZW",Clinic,FALSE,,
Zvavahera,31.35560989380,-19.57472000000,"Gutu, Masvingo Province, ZW",Clinic,FALSE,,
Blanket Mine,28.90613937380,-20.87447000000,"Vubachikwe, Gwanda, Matabeleland South Province, ZW",Mine Clinic,FALSE,,
Buvuma,29.20446968080,-21.46747000000,"Gwanda, Matabeleland South Province, ZW",Clinic,FALSE,,
Collen Bawn,29.22178077700,-21.00350000000,"Colleen Bawn, Gwanda, Matabeleland South Province, ZW",Mine Clinic,FALSE,,
Freda Mine,28.80032920840,-20.97178000000,"Matobo, Matabeleland South Province, ZW",Mine Clinic,FALSE,,
Gungwe,28.88731002810,-21.45617000000,"Mbizo, Gwanda, Matabeleland South Province, ZW",Rural Health Centre,FALSE,,
Gwanda Prison,29.00653076170,-20.95706000000,"Gwanda, Matabeleland South Province, ZW",Clinic,FALSE,,
Gwanda Prov. Hosp,29.00005912780,-20.95786000000,"Gwanda, Matabeleland South Province, ZW",Provincial Hospital,FALSE,,
Jessie Mine,29.32280921940,-21.05517000000,"West Nicholson, Gwanda, Matabeleland South Province, ZW",Mine Clinic,FALSE,,
JZ Moyo,29.37214088440,-20.99019000000,"Colleen Bawn, Insiza, Matabeleland South Province, ZW",School Clinic,FALSE,,
Kafusi,28.77222061160,-21.60386000000,"Mbizo, Gwanda, Matabeleland South Province, ZW",Clinic,FALSE,,
Makwe,28.75638961790,-20.96919000000,"Matobo, Matabeleland South Province, ZW",Rural Health Centre,FALSE,,
Manama,28.99114036560,-21.57014000000,"Mashaba, Gwanda, Matabeleland South Province, ZW",Mission Hospital,FALSE,,
Vumba-Chingwe,28.92378044130,-20.88653000000,"Vubachikwe, Gwanda, Matabeleland South Province, ZW",Clinic,FALSE,,
ZNFPC,29.01849937440,-20.94064000000,"Gwanda, Matabeleland South Province, ZW",Clinic,FALSE,,
Mashaba,28.95038986210,-21.66825000000,"Mashaba, Gwanda, Matabeleland South Province, ZW",Clinic,FALSE,,
Mtshabezi,28.90691947940,-20.70111000000,"Umzingwane, Matabeleland South Province, ZW",Mission Hospital,FALSE,,
Mzimuni,29.13558006290,-20.65025000000,"Umzingwane, Matabeleland South Province, ZW",Clinic,FALSE,,
Nhwali,29.20549964900,-21.70358000000,"Hwali, Gwanda, Matabeleland South Province, ZW",Rural Health Centre,FALSE,,
Ntalale,28.88607978820,-21.35731000000,"Gwanda, Matabeleland South Province, ZW",Clinic,FALSE,,
Pakama,29.02396965030,-20.93975000000,"Gwanda, Matabeleland South Province, ZW",Clinic,FALSE,,
Sengwezani,28.97450065610,-21.37139000000,"Guyu, Gwanda, Matabeleland South Province, ZW",Rural Health Centre,FALSE,,
Silonga,29.17406082150,-21.38333000000,"Guyu, Gwanda, Matabeleland South Province, ZW",Clinic,FALSE,,
Simbumbumbu,28.75761032100,-20.75217000000,"Matobo, Matabeleland South Province, ZW",Rural Health Centre,FALSE,,
Stanmore,29.03660964970,-20.66992000000,"Umzingwane, Matabeleland South Province, ZW",Clinic,FALSE,,
Dwala,29.71504000000,-21.08346000000,"Gwanda, Matabeleland South Province, ZW",Clinic,FALSE,,
Oakley Block,29.35371000000,-21.36520000000,"Gwanda, Matabeleland South Province, ZW",Clinic(Not Open),FALSE,,
Mapate,28.90015000000,-21.57018000000,"Mbizo, Gwanda, Matabeleland South Province, ZW",Cliniclinic,FALSE,,
Garanyemba,28.98773000000,-21.16676000000,"Gwanda, Matabeleland South Province, ZW",Clinic,FALSE,,
Joshua Mqabuko Nkomo,29.01290000000,-20.95247000000,"Gwanda, Matabeleland South Province, ZW",School Clinic,FALSE,,
Lushongwe,28.78025000000,-21.01852000000,"Matobo, Matabeleland South Province, ZW",Clinic,FALSE,,
ZRP,29.01240000000,-20.93730000000,"Gwanda, Matabeleland South Province, ZW",ZRP clinic,FALSE,,
West Nicolson,29.36890000000,-21.07090000000,"West Nicholson, Gwanda, Matabeleland South Province, ZW",Clinic,FALSE,,
Sitezi,28.80050000000,-20.82090000000,"Vubachikwe, Matobo, Matabeleland South Province, ZW",clinic,FALSE,,
Chikwingwizha,29.95642089840,-19.55550000000,"Guinea Fowl, Shurugwi, Midlands Province, ZW",Clinic,FALSE,,
Chiundura,29.95261001590,-19.23689000000,"Siwundula, Gweru, Midlands Province, ZW",Clinic,FALSE,,
Connemara,29.81996917720,-19.20722000000,"Connemara, Gweru, Midlands Province, ZW",Clinic,FALSE,,
Gunde,30.00278091430,-19.18781000000,"Siwundula, Gweru, Midlands Province, ZW",Clinic,FALSE,,
Gweru P.H,29.83908081050,-19.47222000000,"Plot 199 Senga Road, Gweru, ZW",Provincial Hospital,FALSE,,
Kabanga,30.07344055180,-19.13950000000,"Siwundula, Gweru, Midlands Province, ZW",Clinic,FALSE,,
Lower Gweru,29.54042053220,-19.38747000000,"Rosmalind, Gweru, Midlands Province, ZW",Mission Clinic,FALSE,,
Maboleni,29.43983078000,-19.29136000000,"Rosmalind, Gweru, Midlands Province, ZW",Clinic,FALSE,,
Madhikani,29.30513954160,-19.27042000000,"Mahlathini Rd, ZW",Clinic,FALSE,,
Makepesi,29.56883049010,-19.38919000000,"Insukmini, Gweru, Midlands Province, ZW",Clinic,FALSE,,
Mangwande,29.42280960080,-19.37181000000,"Lower Gwelo, Gweru, Midlands Province, ZW",Clinic,FALSE,,
Vungu,29.47228050230,-19.40322000000,"Rosmalind, Gweru, Midlands Province, ZW",Clinic,FALSE,,
Whahwa,30.02071952820,-19.35661000000,"Wha Wha, Gweru, Midlands Province, ZW",Prison Clinic,FALSE,,
Masvori,30.05999946590,-19.21278000000,"Siwundula, Gweru, Midlands Province, ZW",Clinic,FALSE,,
Mlezu,29.92036056520,-19.15614000000,"Siwundula, Gweru, Midlands Province, ZW",Rural Health Centre,FALSE,,
Nkululeko,29.65280914310,-19.20103000000,"Gweru, Midlands Province, ZW",Rural Health Centre,FALSE,,
Ntabamhlope,29.40489006040,-19.17239000000,"Gweru, Midlands Province, ZW",Rural Health Centre,FALSE,,
Somabula,29.66994094850,-19.70069000000,"Somabhula, Midlands Province, ZW",Clinic,FALSE,,
St Patricks,29.90280914310,-19.22369000000,"Connemara, Gweru, Midlands Province, ZW",Mission Clinic,FALSE,,
Dabuka,29.78063000000,-19.52241000000,"Dabuka Train Marshalling Yard, A5, Gweru, ZW",Clinic,FALSE,,
Railways,29.80665000000,-19.45662000000,"Gweru Railway Station, Tenth St, Gweru, ZW",Clinic,FALSE,,
Kariba,29.78741000000,-19.46933000000,"GQJQ+H4P Tile Factory, Bristol Rd, Gweru, ZW",Clinic,FALSE,,
Ivene,29.80070000000,-19.49625000000,"Gweru, Midlands Province, ZW",Clinic,FALSE,,
Totonga,29.82668000000,-19.42968000000,"11 Boundary Rd, Gweru, ZW",Clinic,FALSE,,
Monomutapa,29.80173000000,-19.44489000000,"HR33+R42, Chiwundura Rd, Gweru, ZW",Clinic,FALSE,,
Child Welfare,29.83183000000,-19.46832000000,"Simpson Rd, Gweru, ZW",Clinic,FALSE,,
Senga Poly,29.83814000000,-19.49622000000,"Senga Twp, Shurugwi, Midlands Province, ZW",Clinic,FALSE,,
Mkoba Poly,29.75082000000,-19.45900000000,"Mkoba Twp, Gweru, Midlands Province, ZW",Clinic,FALSE,,
Sino Zimbabwe,30.05050000000,-19.41840000000,"Wha Wha, Gweru, Midlands Province, ZW",Clinic,FALSE,,
Nyama,29.34163000000,-19.21865000000,"Lower Gwelo, Gweru, Midlands Province, ZW",Clinic,FALSE,,
Isolation,29.79211000000,-19.43009000000,"Gweru, Midlands Province, ZW",Hospital,FALSE,,
Zim alloys,29.79629000000,-19.46333000000,"Gweru, Midlands Province, ZW",clinic,FALSE,,
Zim Alloys,29.79629000000,-19.46333000000,"Gweru, Midlands Province, ZW",Clinic,FALSE,,
Zim Glass,29.79642000000,-19.45721000000,"Gweru, Midlands Province, ZW",Clinic,FALSE,,
Claybank,29.83327000000,-19.46829000000,"Simpson Rd, Gweru, ZW",Hospital,FALSE,,
ZIMCAST,29.79985000000,-19.46364000000,"2223 Portland Road, Gweru, ZW",Clinic,FALSE,,
Mkoba 1,29.76658000000,-19.46726000000,"Mkoba Twp, Gweru, Midlands Province, ZW",Clinic,FALSE,,
BATA,29.79553000000,-19.47412000000,"Gweru, Midlands Province, ZW",Clinic,FALSE,,
Highlands ,31.08560000000,-17.81870000000,"Boundary Rd, Harare, ZW",PC clinic,FALSE,,
Highlands ,31.08910000000,-17.79970000000,"Harare, Harare Province, ZW",FHS,FALSE,,
Greendale,31.12910000000,-17.81050000000,"Queen Elizabeth Rd, Harare, ZW",FHS,FALSE,,
Mabvuku,31.19710000000,-17.83570000000,"Harare, Harare Province, ZW",Poly clinic,FALSE,,
Tafara,31.21350000000,-17.83160000000,"Harare, Harare Province, ZW",clinic,FALSE,,
Caledonia,31.23480000000,-17.84510000000,"Ruwa, Goromonzi, Mashonaland East Province, ZW",clinic,FALSE,,
Mabvuku,31.18410000000,-17.83890000000,"Harare, Harare Province, ZW",FHS,FALSE,,
Hatfield,31.08640000000,-17.87870000000,"St Patricks Rd, Harare, ZW",clinic,FALSE,,
Matapi,31.04270000000,-17.85890000000,"Harare Rd, Harare, ZW",clinic,FALSE,,
Avondale,31.02910000000,-17.78830000000,"15 Cambridge Rd, Harare, ZW",clinic,FALSE,,
Mabelreign,30.99870000000,-17.79140000000,"382 Stortford Pde., Harare, ZW",satellite clinic,FALSE,,
Malborough,30.99810000000,-17.75680000000,"Elizabeth Windsor Rd, Harare, ZW",satellite clinic,FALSE,,
Hatcliffe ,31.10750000000,-17.69740000000,"Harare, Harare Province, ZW",Poly clinic,FALSE,,
Mufakose,30.92970000000,-17.86690000000,"Harare, Harare Province, ZW",Poly clinic,FALSE,,
Kambuzuma,30.96830000000,-17.85810000000,"Harare, Harare Province, ZW",Poly clinic,FALSE,,
Southerton,31.00890000000,-17.86630000000,"28 Britannia Rd, Harare, ZW",clinic,FALSE,,
Mbare ,31.03550000000,-17.85970000000,"42RP+45G, Third Ave, Harare, ZW",Poly clinic,FALSE,,
Mbare hostels,31.03930000000,-17.86660000000,"Harare, Harare Province, ZW",clinic,FALSE,,
Waterfalls,31.03080000000,-17.89030000000,"Harare, Harare Province, ZW",clinic,FALSE,,
Glen norah,30.96900000000,-17.90580000000,"Harare, Harare Province, ZW",Satellite clinic,FALSE,,
Western Triangle,30.98040000000,-17.89490000000,"Harare, Harare Province, ZW",clinic,FALSE,,
Glen view,30.95080000000,-17.90800000000,"Harare, Harare Province, ZW",Poly clinic,FALSE,,
Budiriro,30.93540000000,-17.89120000000,"5th Rd, Harare, ZW",Poly clinic,FALSE,,
Hopley,30.99000000000,-17.92490000000,"Harare, Harare Province, ZW",clinic,FALSE,,
Rutsanana,30.98610000000,-17.90650000000,"Harare, Harare Province, ZW",clinic,FALSE,,
Highfield,30.99450000000,-17.88460000000,"Harare, Harare Province, ZW",Poly clinic,FALSE,,
Beatrice Infectious,31.02820000000,-17.86010000000,"Infectious Diseases Hospital, 423 simon Maozorodze, Harare, ZW",Hospital,FALSE,,
Mt pleasant,31.04580000000,-17.76910000000,"Harare, Harare Province, ZW",clinic,FALSE,,
Harare,31.01280000000,-17.86090000000,"42Q6+PWF, Lobengula Rd, Harare, ZW",Hospital,FALSE,,
Parirenyatwa,30.04330000000,-17.81220000000,"Chababomera, Chegutu, Mashonaland West Province, ZW",Hospital,FALSE,,
Belvedere,31.02430000000,-17.82000000000,"52JF+2FH, Burton Rd, Harare, ZW",Poly clinic,FALSE,,
Kuwadzana ,30.92850000000,-17.83230000000,"Harare, Harare Province, ZW",Poly clinic,FALSE,,
Warren Park,30.97820000000,-17.83380000000,"3rd Ave, Harare, ZW",Poly clinic,FALSE,,
Sunningdale,31.05430000000,-17.86840000000,"43H3+7CP Sunningdale Community Centre, 2nd Rd, Harare, ZW",satellite clinic,FALSE,,
Arcadia,31.05460000000,-17.84680000000,"Harare, Harare Province, ZW",clinic,FALSE,,
Braeside,31.06570000000,-17.83990000000,"4 General Booth Rd, Harare, ZW",clinic,FALSE,,
Eastly,31.08610000000,-17.82560000000,"3 Worcester Rd, Harare, ZW",FHS,FALSE,,
Chidamoyo,29.19194030760,-17.14833000000,"Kanyonga Camp, Hurungwe, Mashonaland West Province, ZW",Mission Hospital,FALSE,,
Chikanziwe,29.69778060910,-16.80722000000,"Chikangwe Function Hall, Nematombo Road, Karoi, ZW",Council Clinic,FALSE,,
Chinhere,29.43693923950,-17.21556000000,"Badze, Hurungwe, Mashonaland West Province, ZW",Council Clinic,FALSE,,
Chirundu,28.86055946350,-16.04389000000,"Hurungwe, Mashonaland West Province, ZW",Gvt Clinic,FALSE,,
Chivende,29.34943962100,-17.31583000000,"Hurungwe, Mashonaland West Province, ZW",Gvt Clinic,FALSE,,
Chundu,29.64249992370,-16.39278000000,"Hurungwe, Mashonaland West Province, ZW",Council Clinic,FALSE,,
Dete,29.94249916080,-16.50056000000,"Kazangarare, Hurungwe, Mashonaland West Province, ZW",Council Clinic,FALSE,,
Hesketh,29.53778076170,-16.86944000000,"Magunje, Hurungwe, Mashonaland West Province, ZW",Council Clinic,FALSE,,
Hewiyai,29.67388916020,-16.56972000000,"CMJF+4H Ardingly, ZW",Council Clinic,FALSE,,
Kapfunde,29.40833091740,-17.06583000000,"Badze, Hurungwe, Mashonaland West Province, ZW",Council Clinic,FALSE,,
Karoi,29.68778038020,-16.81528000000,"5MMQ+98V, Chikangwe Road, Karoi, ZW",District Hospital,FALSE,,
Karuru,29.64278030400,-16.47806000000,"Hurungwe, Mashonaland West Province, ZW",Council (Construction),FALSE,,
Kasimube,29.87722015380,-17.03111000000,"Hurungwe, Mashonaland West Province, ZW",Rural Health Centre,FALSE,,
Kazangarare,29.83555984500,-16.55917000000,"Mwami, Hurungwe, Mashonaland West Province, ZW",Gvt Council,FALSE,,
Lynx,29.45083045960,-16.59806000000,"Vuti, Hurungwe, Mashonaland West Province, ZW",Clinic Private Clinic,FALSE,,
Magunje,29.41056060790,-16.85500000000,"Magunje, Hurungwe, Mashonaland West Province, ZW",Rural Hospital,FALSE,,
Magunje Army,29.42333030700,-16.86528000000,"Magunje, Hurungwe, Mashonaland West Province, ZW",Army Clinic,FALSE,,
Mana Pools,29.36194038390,-15.72139000000,"Hurungwe, Mashonaland West Province, ZW",National Park-clinic,FALSE,,
Marongora,29.16250038150,-16.22889000000,"Makuti, Hurungwe, Mashonaland West Province, ZW",National Park-clinic,FALSE,,
Masanga,29.22999954220,-16.73611000000,"Hurungwe, Mashonaland West Province, ZW",Gvt Clinic,FALSE,,
Mashongwe,29.54166984560,-16.44056000000,"Midlands Province, ZW",Council Clinic,FALSE,,
Mwami,29.77610969540,-16.67167000000,"Vuti, Hurungwe, Mashonaland West Province, ZW",clinic,FALSE,,
Nyama,29.76721954350,-16.40694000000,"Mwami, Hurungwe, Mashonaland West Province, ZW",Council,FALSE,,
Nyamakaze,29.43638992310,-16.40389000000,"Hurungwe, Mashonaland West Province, ZW",Gvt Clinic,FALSE,,
Nyamhunga,29.19528007510,-16.88500000000,"Vuti, Hurungwe, Mashonaland West Province, ZW",Council Clinic,FALSE,,
Nyangoma,29.92667007450,-16.86639000000,"Chiwakanyama, Hurungwe, Mashonaland West Province, ZW",Council Clinic,FALSE,,
Tenewe,29.61166954040,-17.29056000000,"Mormon Hill, Hurungwe, Mashonaland West Province, ZW",Council Clinic,FALSE,,
Zvipani,29.21027946470,-16.98306000000,"Makonde, Mashonaland West Province, ZW",Gvt Clinic,FALSE,,
Deve,29.03146000000,-17.02504000000,"Chiwakanyama, Hurungwe, Mashonaland West Province, ZW",Clinic(Not Open),FALSE,,
Chiedza,29.06433000000,-17.12012000000,"Hurungwe, Mashonaland West Province, ZW",Clinic(Not Open),FALSE,,
Lan lorry,29.46661000000,-16.75765000000,"Kanyonga Camp, Hurungwe, Mashonaland West Province, ZW",Clinic,FALSE,,
Doro,29.35702000000,-16.71696000000,"Magunje, Hurungwe, Mashonaland West Province, ZW",Clinic,FALSE,,
Chinotimba,25.82583045960,-17.94528000000,"Chambati, Hurungwe, Mashonaland West Province, ZW",Clinic,FALSE,,
Chisuma,25.95471954350,-18.01361000000,"Victoria Falls, Hwange, Matabeleland North Province, ZW",Rural Health Centre,FALSE,,
Dete,26.86778068540,-18.61583000000,"Victoria Falls, Hwange, Matabeleland North Province, ZW",Clinic,FALSE,,
Dinde,26.73749923710,-18.38000000000,"Dete, Hwange, Matabeleland North Province, ZW",Clinic,FALSE,,
Empumalanga,26.50082969670,-18.34972000000,"Hwange, Matabeleland North Province, ZW",Clinic,FALSE,,
Gwayi,27.18638992310,-18.61111000000,"Rhino Rd, Hwange, ZW",Clinic,FALSE,,
Jambezi,26.22750091550,-18.05222000000,"Gwayi River Farms, Hwange, Matabeleland North Province, ZW",Rural Health Centre,FALSE,,
Kamative,27.05971908570,-18.31500000000,"Hwange, Matabeleland North Province, ZW",Hospital,FALSE,,
Kanywambizi,26.31110954280,-18.01694000000,"Kamativi, Hwange, Matabeleland North Province, ZW",Rural Health Centre,FALSE,,
Lukosi,26.62778091430,-18.36056000000,"Hwange, Matabeleland North Province, ZW",Rural Hospital,FALSE,,
Lukunguni,26.22833061220,-18.04444000000,"Hwange, Matabeleland North Province, ZW",Mission Hospital,FALSE,,
Lupote,26.96417045590,-18.51278000000,"Hwange, Matabeleland North Province, ZW",Clinic,FALSE,,
Main Camp.,26.95222091670,-18.73167000000,"Dete, Hwange, Matabeleland North Province, ZW",Clinic,FALSE,,
Makwandara,27.20055961610,-18.31722000000,"Dete, Hwange, Matabeleland North Province, ZW",Rural Health Centre,FALSE,,
Wankie,26.50056076050,-18.35722000000,"Tinde, Hwange, Matabeleland North Province, ZW",Private Hospital,FALSE,,
Mwemba,26.56056022640,-18.18333000000,"Stadium Rd, Hwange, ZW",Rural Health Centre,FALSE,,
Ndlovu,25.98389053340,-18.10083000000,"Hwange, Matabeleland North Province, ZW",Rural Health centre,FALSE,,
Safari Lodge,26.97443962100,-18.65611000000,"Hwange, Matabeleland North Province, ZW",Clinic,FALSE,,
Simangani,26.72417068480,-18.11028000000,"Dete, Hwange, Matabeleland North Province, ZW",Rural Health centre,FALSE,,
Victoria Falls,25.82611083980,-17.94389000000,"Deka, Hwange, Matabeleland North Province, ZW",District Hospital,FALSE,,
Dete,26.85831000000,-18.62354000000,"Victoria Falls, Hwange, Matabeleland North Province, ZW",Railways-clinic,FALSE,,
Hwange District Hospital,26.57485000000,-18.34985000000,"Dete, Hwange, Matabeleland North Province, ZW",District Hospital,FALSE,,
No 1 Clinic,26.49204000000,-18.35426000000,"Hwange, Matabeleland North Province, ZW",Clinic,FALSE,,
No1 North,26.47342000000,-18.33347000000,"Stadium Rd, Hwange, ZW",Clinic,FALSE,,
No 5 Clinic,26.44014000000,-18.37726000000,"Hwange, Matabeleland North Province, ZW",Clinic,FALSE,,
No 2 Dressing Station,26.43633000000,-18.36078000000,"Hwange, Matabeleland North Province, ZW",Clinic,FALSE,,
No 2 Clinic,26.42891000000,-18.36407000000,"Hwange, Matabeleland North Province, ZW",Clinic,FALSE,,
Ingagula,26.46145000000,-18.38911000000,"Hwange, Matabeleland North Province, ZW",Clinic,FALSE,,
No 3 Clinic,26.40722000000,-18.41659000000,"Hwange, Matabeleland North Province, ZW",Clinic,FALSE,,
ZRP Hwange,26.51302000000,-18.34558000000,"Hwange, Matabeleland North Province, ZW",Clinic,FALSE,,
NRZ Surgery,26.48723000000,-18.37115000000,"Hwange, Matabeleland North Province, ZW",Railways-clinic,FALSE,,
Ngumija,26.49616000000,-18.37741000000,"Station Rd, Hwange, ZW",Railways-clinic,FALSE,,
No 1 Dressing Station,26.49264000000,-18.36288000000,"Hwange, Matabeleland North Province, ZW",Mine Clinic,FALSE,,
Zimbabwe Prison Services,26.53142000000,-18.34919000000,"JFPR+GPF, Soonga Rd, Hwange, ZW",Clinic,FALSE,,
Robbins Camp,25.98653000000,-18.62904000000,"Hwange, Matabeleland North Province, ZW",Clinic,FALSE,,
Elephant Hills,25.82613000000,-17.91214000000,"Hwange, Matabeleland North Province, ZW",Hotel Clinic,FALSE,,
Victoria Falls Clinic,25.84274000000,-17.93138000000,"Victoria Falls, Hwange, Matabeleland North Province, ZW",Industrial Clinic,FALSE,,
ZRP Victoria Falls,25.83730000000,-17.92907000000,"Victoria Falls, Hwange, Matabeleland North Province, ZW",ZRP Clinic,FALSE,,
Meheni,27.82312000000,-17.56870000000,"413 Clarke Rd, Victoria Falls, ZW",Conucil Not Open,FALSE,,
Milonga,26.21412000000,-18.13872000000,"Kadoma, Mashonaland West Province, ZW",Clinic(Not Open),FALSE,,
Mabale,27.07020000000,-18.57210000000,"Chief Sinasenkwe, Binga, Matabeleland North Province, ZW",Rural Health Centre,FALSE,,
Zesa Chibondo,26.51410000000,-18.33060000000,"Hwange, Matabeleland North Province, ZW",Clinic,FALSE,,
St Patricks,26.51220000000,-18.32890000000,"Gwayi River Farms, Hwange, Matabeleland North Province, ZW",Mission Hospital,FALSE,,
Hwange Colliery Hospital,26.50220000000,-18.35820000000,"Hwange, Matabeleland North Province, ZW",Mine Hospital,FALSE,,
Nguminja,26.49630000000,-18.37740000000,"Hwange, Matabeleland North Province, ZW",Mine clinic,FALSE,,
surgery,26.48740000000,-18.37130000000,"Stadium Rd, Hwange, ZW",Mine Clinic,FALSE,,
Dressing station,26.49270000000,-18.36290000000,"Hwange, Matabeleland North Province, ZW",Mine Clinic,FALSE,,
Chigondo,31.71972084050,-18.85983000000,"Station Rd, Hwange, ZW",Clinic,FALSE,,
Chikurumadziva,31.91749954220,-19.04894000000,"JFPR+GPF, Soonga Rd, Hwange, ZW",Rural Health Centre,FALSE,,
Garaba,31.53463935850,-18.70850000000,"Wedza, Mashonaland East Province, ZW",Rural Health Centre,FALSE,,
Goneso,31.90127944950,-18.89328000000,"Wedza, Mashonaland East Province, ZW",Rural Health Centre,FALSE,,
Goto,31.80672073360,-18.72842000000,"Rundu, Wedza, Mashonaland East Province, ZW",Clinic,FALSE,,
Makarara,31.83481025700,-19.02697000000,"Wedza, Mashonaland East Province, ZW",Clinic,FALSE,,
Wedza,31.56722068790,-18.62839000000,"Wedza, Mashonaland East Province, ZW",Rural Hospital,FALSE,,
Mt St Mary's,31.68358039860,-18.70842000000,"Wedza, Mashonaland East Province, ZW",Mission Hospital,FALSE,,
Mukamba,31.82132911680,-18.87653000000,"Wedza, Mashonaland East Province, ZW",Clinic,FALSE,,
Sengezi,31.48711013790,-18.74408000000,"Wedza, Mashonaland East Province, ZW",Clinic,FALSE,,
Zvidhuri,31.72294044490,-18.96144000000,"Wedza, Mashonaland East Province, ZW",Clinic,FALSE,,
Gotora,31.45557000000,-18.65151000000,"Rundu, Wedza, Mashonaland East Province, ZW",Rural Health Centre,FALSE,,
Idube,31.52172000000,-18.50209000000,"Wedza, Mashonaland East Province, ZW",Clinic,FALSE,,
Sango ,31.75050000000,-18.78240000000,"Rundu, Wedza, Mashonaland East Province, ZW",Clinic,FALSE,,
Avoca,29.50555992130,-20.83492000000,"Inoro, Wedza, Mashonaland East Province, ZW",Rural Hospital,FALSE,,
Epoch,29.27046966550,-20.43822000000,"Wedza, Mashonaland East Province, ZW",Mine Clinic,FALSE,,
Filabusi,29.28667068480,-20.54033000000,"Avoca, Matabeleland South Province, ZW",District Hospital,FALSE,,
Gwatemba,29.69050025940,-20.40542000000,"Filabusi, Insiza, Matabeleland South Province, ZW",Rural Health Centre,FALSE,,
Mabuze,29.45292091370,-20.93906000000,"Filabusi, Insiza, Matabeleland South Province, ZW",Rural Health Centre,FALSE,,
Wanezi,29.58552932740,-20.57447000000,"Pambuka, Mberengwa, Matabeleland South Province, ZW",Rural Hospital,FALSE,,
Zhulube,29.29006004330,-20.64019000000,"Mabuze, Insiza, Matabeleland South Province, ZW",Clinic,FALSE,,
Nkankezi,29.42378044130,-20.48781000000,"Insiza, Matabeleland South Province, ZW",Rural Health Centre,FALSE,,
Nyamime,29.30438995360,-20.90644000000,"Filabusi, Insiza, Matabeleland South Province, ZW",Rural Health Centre,FALSE,,
PBS,29.18581008910,-20.13897000000,"Filabusi, Insiza, Matabeleland South Province, ZW",Clinic,FALSE,,
Sanale,29.55517005920,-20.68947000000,"Colleen Bawn, Insiza, Matabeleland South Province, ZW",Rural Health Centre,FALSE,,
Shangani,29.22488975520,-19.68997000000,"Landcaster, Insiza, Matabeleland South Province, ZW",Mine Clinic,FALSE,,
Shangani,29.37375068660,-19.78414000000,"Avoca, Insiza, Matabeleland South Province, ZW",Rural Hospital,FALSE,,
Singwango,29.31760978700,-20.78678000000,"Insiza, Matabeleland South Province, ZW",Clinic,FALSE,,
Kombo,29.04724000000,-19.85475000000,"Shangani, Midlands Province, ZW",Clinic,FALSE,,
Montrose 7,29.49420000000,-20.33999000000,"Insiza, Matabeleland South Province, ZW",Under Construction,FALSE,,
Lambamai,29.70742000000,-20.10003000000,"42WW+2JM, Lochard, ZW",Under Construction,FALSE,,
Mplalawami,29.78944000000,-20.04728000000,"Insiza, Matabeleland South Province, ZW",(New Site),FALSE,,
Singwambizi,29.54654000000,-20.93315000000,"Matabeleland South Province, ZW",Clinic,FALSE,,
Saphila,29.38517000000,-20.84809000000,"Zvishavane, Matabeleland South Province, ZW",Council Clinic(Construction),FALSE,,
Annex,29.88166999820,-18.35528000000,"Mabuze, Insiza, Matabeleland South Province, ZW",Gvt Infections,FALSE,,
Battlefields,29.90583038330,-18.62444000000,"Mabuze, Insiza, Matabeleland South Province, ZW",Army Hospital,FALSE,,
Bumbe,30.41666984560,-18.59389000000,"Kadoma, Mashonaland West Province, ZW",Rural Health Centre,FALSE,,
Bururu,30.49056053160,-18.69722000000,"Battlefields, Kadoma, Mashonaland West Province, ZW",Council Clinic,FALSE,,
Chakari,29.84527969360,-18.07833000000,"Neuso Business Centre, Kadoma, Mashonaland West Province, ZW",Private Mine Clinic,FALSE,,
Chegutu 6,29.75499916080,-17.92028000000,"Chikomba, Mashonaland West Province, ZW",(New Site),FALSE,,
Chenjiri,29.40943908690,-17.86083000000,"Chakari, Kadoma, Mashonaland West Province, ZW",Council Clinic,FALSE,,
Chirikiti,29.42056083680,-17.97611000000,"Kadoma, Mashonaland West Province, ZW",Council Clinic,FALSE,,
Donain,29.62888908390,-18.50778000000,"Sanyati, Kadoma, Mashonaland West Province, ZW",Rural Health Centre,FALSE,,
Dondoshava,30.59693908690,-18.68278000000,"Sanyati, Kadoma, Mashonaland West Province, ZW",Gvt Clinic,FALSE,,
Eiffel Flat,29.98110961910,-18.31694000000,"Mamina, Kadoma, Mashonaland West Province, ZW",Mine Clinic,FALSE,,
Gena 1,29.32472038270,-17.87056000000,"Eiffel Flats Rd, ZW",Rural Health Centre,FALSE,,
Golden Valley,29.79306030270,-18.22306000000,"Sanyati, Kadoma, Mashonaland West Province, ZW",Private Mine Clinic,FALSE,,
Ingezi,29.85972023010,-18.37889000000,"Golden Valley, Kadoma, Mashonaland West Province, ZW",Municipality,FALSE,,
Jompani,29.44861030580,-18.06917000000,"Ngesi, Kadoma, Mashonaland West Province, ZW",Rural Health Centre,FALSE,,
Kadoma Clinic,29.89833068850,-18.34583000000,"Sanyati, Kadoma, Mashonaland West Province, ZW",Municipality,FALSE,,
Kadora,29.91167068480,-18.33083000000,"Marandu Rd, Kadoma, ZW",District Hosp,FALSE,,
Mafindifindi,30.51416969300,-18.74611000000,"Chakari Road, Kadoma, ZW",Council Clinic,FALSE,,
Manyewe,30.52305984500,-18.60722000000,"Mamina, Kadoma, Mashonaland West Province, ZW",Council Clinic,FALSE,,
Manyoni,30.46833038330,-18.81750000000,"Neuso Business Centre, Kadoma, Mashonaland West Province, ZW",Council Clinic,FALSE,,
Mukarati,30.48917007450,-18.55667000000,"Chikomba, Mashonaland West Province, ZW",Council Clinic,FALSE,,
Murambwa,30.72167015080,-18.58333000000,"Neuso Business Centre, Kadoma, Mashonaland West Province, ZW",Council clinic,FALSE,,
Muuyu,29.49193954470,-17.94722000000,"mhondoro, Chikomba, Mashonaland West Province, ZW",Council Clinic,FALSE,,
Muzvezve,30.58250045780,-18.54444000000,"Sanyati, Kadoma, Mashonaland West Province, ZW",Gvt Clinic,FALSE,,
Ngezi,30.63249969480,-18.65417000000,"Neuso Business Centre, Kadoma, Mashonaland West Province, ZW",Rural Hosp,FALSE,,
Nyabango,29.52721977230,-17.85306000000,"Mamina, Kadoma, Mashonaland West Province, ZW",Rural Health Centre,FALSE,,
Nyamatani,29.53471946720,-18.19917000000,"Kadoma, Mashonaland West Province, ZW",Rural Health Centre,FALSE,,
Nyaonde,29.43693923950,-17.73222000000,"Gambisa, Kadoma, Mashonaland West Province, ZW",Rural Health Centre,FALSE,,
Ordoff,29.84749984740,-18.28083000000,"Kadoma, Mashonaland West Province, ZW",Council Clinic,FALSE,,
Prisons,29.87556076050,-18.38917000000,"Kadoma, Mashonaland West Province, ZW",Gvt Clinic,FALSE,,
Rusvingo,29.41444015500,-17.60833000000,"Ngesi, Kadoma, Mashonaland West Province, ZW",Clinic (construction),FALSE,,
Sanyati,29.30916976930,-17.95278000000,"Kadoma, Mashonaland West Province, ZW",Mission Hospital,FALSE,,
Sanyati Area,29.24333000180,-17.99083000000,"Sanyati, Kadoma, Mashonaland West Province, ZW",Council Clinic,FALSE,,
St. Michaels,30.67889022830,-18.56667000000,"Sanyati, Kadoma, Mashonaland West Province, ZW",Mission Hospital,FALSE,,
Turf,30.27693939210,-18.67639000000,"mhondoro, Kadoma, Mashonaland West Province, ZW",Council Clinic,FALSE,,
Venice,29.77249908450,-18.50778000000,"Kadoma, Mashonaland West Province, ZW",Mine Clinic,FALSE,,
Venice,29.77249908450,-18.50778000000,"Battlefields, Kadoma, Mashonaland West Province, ZW",Mine Clinic,FALSE,,
Twin Tops,30.10364000000,-18.58832000000,"Battlefields, Kadoma, Mashonaland West Province, ZW",Clinic,FALSE,,
Black Movale,29.87599000000,-17.94313000000,"Kadoma, Mashonaland West Province, ZW",Clinic,FALSE,,
Gavhunga,30.55990000000,-18.72362000000,"Chakari, Kadoma, Mashonaland West Province, ZW",Clinic(Not Open),FALSE,,
Jairos Jiri,29.87825000000,-18.34778000000,"Mamina, Kadoma, Mashonaland West Province, ZW",Clinic,FALSE,,
Kadoma Pop.,29.88327000000,-18.34446000000,"Kadoma, Mashonaland West Province, ZW",Clinic,FALSE,,
PSI,29.89131000000,-18.34622000000,"Kadoma, Mashonaland West Province, ZW",Clinic,FALSE,,
Waverly,29.91910000000,-18.34768000000,"Mupamombe Road, Kadoma, ZW",Clinic,FALSE,,
Chingondo,30.35557000000,-18.44847000000,"Kadoma, Mashonaland West Province, ZW",,FALSE,,
Army,28.82638931270,-16.52639000000,"Kadoma, Mashonaland West, ZW",Clinic,FALSE,,
Chalala,28.30027961730,-16.84167000000,"Powerline Rd, ZW",Council Clinic,FALSE,,
Charara,28.96360969540,-16.55167000000,"Chalala Rd, ZW",Farm Clinic,FALSE,,
Gatse Gatse,28.86027908330,-16.78361000000,"Kariba, Mashonaland West Province, ZW",Gvt Clinic,FALSE,,
Kanyati,28.99527931210,-16.91528000000,"Kariba, Mashonaland West Province, ZW",Rural Health Centre,FALSE,,
Kariba,28.79166984560,-16.52028000000,"Kariba, Mashonaland West Province, ZW",District Hospital,FALSE,,
Mahombekombe,28.75806045530,-16.52611000000,"Kariba, Mashonaland West Province, ZW",Council Clinic,FALSE,,
Mola,28.29861068730,-16.92611000000,"Kariba, Mashonaland West Province, ZW",Rural Health Centre,FALSE,,
Msampakaruma,28.76778030400,-17.15861000000,"Bumi Hills, Kariba, Mashonaland West Province, ZW",Council Clinic,FALSE,,
Negande,28.24110984800,-17.19278000000,"Mashami, Kariba, Mashonaland West Province, ZW",Gvt Clinic,FALSE,,
Nyamhunga,28.84832954410,-16.51806000000,"Kariba, Mashonaland West Province, ZW",Council Clinic,FALSE,,
Siakobvu,28.36417007450,-17.13111000000,"Kariba, Mashonaland West Province, ZW",Rural Hospital,FALSE,,
Kasvisva,28.50133000000,-17.22925000000,"Chief Nebiris Village, Kariba, Mashonaland West Province, ZW",Rural Health Centre,FALSE,,
Mayovhe,28.18771000000,-17.02508000000,"Kariba, Mashonaland West Province, ZW",Rural Health Centre(construction),FALSE,,
Cambridge,29.12249946590,-19.10328000000,"Kariba, Mashonaland West Province, ZW",Clinic,FALSE,,
Dendera,29.10292053220,-18.70764000000,"Kwekwe, Midlands Province, ZW",Rural Hospital,FALSE,,
Don Juan,29.50744056700,-18.60700000000,"Kwekwe, Midlands Province, ZW",Clinic,FALSE,,
Donsa,28.90630912780,-18.76897000000,"Zhombe E Rd, ZW",Clinic,FALSE,,
Gomola,29.45247077940,-18.76839000000,"Kwekwe, Midlands Province, ZW",Clinic,FALSE,,
Jackson,29.25005912780,-19.10408000000,"Zhombe, Kwekwe, Midlands Province, ZW",Clinic,FALSE,,
Kwekwe,29.82374954220,-18.93572000000,"Silobela, Kwekwe, Midlands Province, ZW",District Hospital,FALSE,,
Malisa Josefa,29.12324905400,-19.00353000000,"3R7F+936 Kwekwe General Hospital, Kwekwe, ZW",Clinic,FALSE,,
Zhombe,29.38493919370,-18.70336000000,"X4WF+H7 Leopard, ZW",Mission clinic,FALSE,,
Majorca,29.60128021240,-18.77267000000,"Zhombe, Kwekwe, Midlands Province, ZW",Clinic,FALSE,,
Mazebe,29.00630950930,-18.93542000000,"Broomsgrove, Kwekwe, Midlands Province, ZW",Rural Health Centre,FALSE,,
Medical Centre,29.78668975830,-19.04047000000,"Kwekwe, Midlands Province, ZW",Clinic,FALSE,,
Melisa Zhombe,30.24221992490,-18.72167000000,"Redcliff, Kwekwe, Midlands Province, ZW",Clinic,FALSE,,
Mpinda,29.25160980220,-19.15281000000,"Mashonaland West Province, ZW",Clinic,FALSE,,
Msilahove,29.15613937380,-19.17339000000,"Lower Gwelo, Gweru, Midlands Province, ZW",Rural Hospital,FALSE,,
Munyati,29.78697013850,-18.67142000000,"Lower Gwelo, Gweru, Midlands Province, ZW",Clinic,FALSE,,
Ntabeni,29.33472061160,-18.80214000000,"Sanyati, Kwekwe, Midlands Province, ZW",Clinic,FALSE,,
Nyoni,29.33756065370,-18.96747000000,"Zhombe, Kwekwe, Midlands Province, ZW",Rural Health Centre,FALSE,,
Rio Tinto,29.43556022640,-18.46828000000,"Silobela, Kwekwe, Midlands Province, ZW",Mine Clinic,FALSE,,
Samambwa,29.45247077940,-18.33406000000,"Empress Mine, Kwekwe, Midlands Province, ZW",Clinic,FALSE,,
Sebakwe,30.12256050110,-18.98881000000,"Empress Mine, Kwekwe, Midlands Province, ZW",Clinic,FALSE,,
Senkwasi,29.43572044370,-18.58403000000,"Bemthree, Kwekwe, Midlands Province, ZW",Clinic,FALSE,,
Sherwood,29.80621910100,-18.82453000000,"Empress Mine, Kwekwe, Midlands Province, ZW",Clinic,FALSE,,
Sidakeni,29.46838951110,-18.43989000000,"Shamwari Rd, ZW",Clinic,FALSE,,
Silobela,29.30458068850,-19.00511000000,"Empress Mine, Kwekwe, Midlands Province, ZW",District Hospital,FALSE,,
Simana,29.11927986150,-18.92169000000,"Silobela, Kwekwe, Midlands Province, ZW",Clinic,FALSE,,
Torwood,29.73644065860,-19.02261000000,"34H9+8P Leopard, ZW",Hospital,FALSE,,
Redcliff,29.78238000000,-19.02260000000,"Redcliff, Kwekwe, Midlands Province, ZW",Clinic,FALSE,,
Rutendo,29.77346000000,-19.00840000000,"Redcliff, Kwekwe, Midlands Province, ZW",Clinic,FALSE,,
Zisco Works,29.75035000000,-19.01429000000,"Redcliff, Kwekwe, Midlands Province, ZW",Clinic,FALSE,,
Lancashire,29.82332000000,-18.91481000000,"Redcliff, Kwekwe, Midlands Province, ZW",Clinic,FALSE,,
Zim Wire and Rope,29.82460000000,-18.91316000000,"Kwekwe, Midlands Province, ZW",Clinic,FALSE,,
Aldavis,29.81286000000,-18.93640000000,"Kwekwe, Midlands Province, ZW",Clinic,FALSE,,
Amaveni,29.78466000000,-18.92453000000,"Kwekwe, Midlands Province, ZW",clinic,FALSE,,
Sable,29.79890000000,-18.80090000000,"Kwekwe, Midlands Province, ZW",Clinic,FALSE,,
Exchange,29.07592000000,-18.84766000000,"Kwekwe, Midlands Province, ZW",Clinic,FALSE,,
Mbizo 1,29.83498000000,-18.90588000000,"532G+W9 Leopard, ZW",Clinic,FALSE,,
Dandanda,27.86916923520,-18.44889000000,"Kwekwe, Midlands Province, ZW",Clinic,FALSE,,
Dongamuzi,27.44719000000,-18.40378000000,"Zikamanus, Binga, Matabeleland North Province, ZW",Clinic,FALSE,,
Gomoza,28.22360992430,-18.84139000000,"Binga, Matabeleland North Province, ZW",Rural Health Centre,FALSE,,
Jotsholo,27.55833053590,-18.73056000000,"St Pauls Mission, Lupane, Matabeleland North Province, ZW",Clinic,FALSE,,
Kanyandavu,27.97777938840,-18.30444000000,"Jotsholo, Lupane, Matabeleland North Province, ZW",Clinic,FALSE,,
Lupaka,27.90361022950,-18.78333000000,"Kenyandavu, Binga, Matabeleland North Province, ZW",Clinic,FALSE,,
Lupane,27.77194023130,-18.93528000000,"Lupane, Matabeleland North Province, ZW",Rural Health Centre,FALSE,,
Mdlankunzi,27.75193977360,-18.49389000000,"Lupane, Matabeleland North Province, ZW",Clinic,FALSE,,
St. Lukes,27.96861076350,-19.10972000000,"Lupane, Matabeleland North Province, ZW",Mission Hospital,FALSE,,
St. Pauls,28.11388969420,-19.02028000000,"kenmaur, Lupane, Matabeleland North Province, ZW",Mission Hospital,FALSE,,
Lupane Prov. Hospital,27.77305000000,-18.93080000000,"Lupane, Matabeleland North Province, ZW",Provincial Hospital,FALSE,,
Fatima,27.41400000000,-18.74072000000,"Lupane, Matabeleland North Province, ZW",Clinic,FALSE,,
Alaska,30.06749916080,-17.37389000000,"Halfway House, Hwange, Matabeleland North Province, ZW",Clinic,FALSE,,
Chikonohono,30.19444084170,-17.39000000000,"Alaska, Makonde, Mashonaland West Province, ZW",Clinic,FALSE,,
Chinhoyi P.H,30.20889091490,-17.36222000000,"Chinhoyi, Makonde, Mashonaland West Province, ZW",Provincial Hospital,FALSE,,
Doma,30.24221992490,-16.75889000000,"Shandori Rd, Chinhoyi, ZW",Clinic,FALSE,,
Godzi,29.52222061160,-17.61778000000,"Doma, Makonde, Mashonaland West Province, ZW",Clinic,FALSE,,
Hombwe,29.77916908260,-17.69417000000,"Kadoma, Mashonaland West Province, ZW",Clinic,FALSE,,
Kamonde,29.35861015320,-17.47306000000,"Zimbara, Makonde, Mashonaland West Province, ZW",Clinic,FALSE,,
Kenzamba,29.60499954220,-17.47306000000,"Msango, Makonde, Mashonaland West Province, ZW",Clinic,FALSE,,
Kosana,30.21389007570,-16.66722000000,"Doma, Makonde, Mashonaland West Province, ZW",Clinic,FALSE,,
Zumbara,29.88138961790,-17.67361000000,"Zimbara, Makonde, Mashonaland West Province, ZW",Clinic,FALSE,,
Matorangera,30.11194038390,-17.56833000000,"Makonde, Mashonaland West Province, ZW",Clinic,FALSE,,
Mhangura,30.16444015500,-16.89194000000,"Mangula, Makonde, Mashonaland West Province, ZW",Private Hospital,FALSE,,
Muitubu,30.05722045900,-16.92889000000,"Mangula, Makonde, Mashonaland West Province, ZW",Clinic,FALSE,,
Mukohwe,29.81082916260,-17.81028000000,"Zvimba, Mashonaland West Province, ZW",Clinic,FALSE,,
Murereka,30.02639007570,-17.27556000000,"Lions Den, Makonde, Mashonaland West Province, ZW",Clinic,FALSE,,
Obva,29.50638961790,-17.53444000000,"Msango, Makonde, Mashonaland West Province, ZW",Clinic,FALSE,,
Ruweni,29.65638923650,-17.68833000000,"Makonde, Mashonaland West Province, ZW",Under Construction,FALSE,,
St. Rupets,29.69277954100,-17.76917000000,"Kadoma, Mashonaland West Province, ZW",Mission Hospital,FALSE,,
Umboe,30.18333053590,-17.04750000000,"Mangula, Makonde, Mashonaland West Province, ZW",Clinic,FALSE,,
Green Valley,30.15505000000,-16.68228000000,"Doma, Makonde, Mashonaland West Province, ZW",Clinic,FALSE,,
Nyagombe,30.25752000000,-17.13926000000,"Zvimba, Mashonaland West Province, ZW",Clinic,FALSE,,
River Ranch,29.99041000000,-16.99737000000,"Makonde, Mashonaland West Province, ZW",Clinic,FALSE,,
Chinhoyi University Clinic,30.20806000000,-17.34913000000,"Chinhoyi, Makonde, Mashonaland West Province, ZW",University clinic,FALSE,,
PSI,30.20319000000,-17.36414000000,"Chinhoyi, Makonde, Mashonaland West Province, ZW",Clinic Private Clinic,FALSE,,
Chinhoyi Prison Clinic,30.19744000000,-17.36109000000,"Chinhoyi, Makonde, Mashonaland West Province, ZW",Clinic,FALSE,,
Chinhoyi Health Center,30.19376000000,-17.36000000000,"Chinhoyi, Makonde, Mashonaland West Province, ZW",Clinic Private Clinic,FALSE,,
Chinhoyi ZRP Camp Clinic,30.17167000000,-17.35684000000,"Chinhoyi, Makonde, Mashonaland West Province, ZW",Clinic,FALSE,,
Premier Medical Centre,30.19105000000,-17.36026000000,"Chinhoyi, Makonde, Mashonaland West Province, ZW",Clinic,FALSE,,
Chitambo,30.19099000000,-17.36027000000,"Chinhoyi, Makonde, Mashonaland West Province, ZW",Clinic,FALSE,,
Anorldine,32.20314025880,-18.23539000000,"Inyati Mine, Makoni, Manicaland Province, ZW",Clinic,FALSE,,
Bamba,32.30622100830,-18.20478000000,"Inyati Mine, Makoni, Manicaland Province, ZW",Rural Health Centre,FALSE,,
Bingaguru,32.38893890380,-18.22244000000,"Inyati Mine, Makoni, Manicaland Province, ZW",Clinic,FALSE,,
Chiduku,31.93474960330,-18.82058000000,"Makonis, Makoni, Manicaland Province, ZW",Clinic,FALSE,,
Chikobvore,32.15671920780,-18.90203000000,"Tsungwesi, Makoni, Manicaland Province, ZW",Rural Health Centre,FALSE,,
Chikore,32.50703048710,-17.72186000000,"Nyanga, Manicaland Province, ZW",Clinic,FALSE,,
Chinhenga,32.50246810910,-18.03619000000,"Nyanga, Manicaland Province, ZW",Rural Health Centre,FALSE,,
Chinyadza,32.02244186400,-18.67194000000,"Makonis, Makoni, Manicaland Province, ZW",Clinic,FALSE,,
Chinyudze,32.20046997070,-18.18653000000,"Inyati Mine, Makoni, Manicaland Province, ZW",Rural Health Centre,FALSE,,
Chiome,32.28916931150,-18.14361000000,"Inyati Mine, Makoni, Manicaland Province, ZW",Clinic,FALSE,,
Dowa,31.80269050600,-18.52369000000,"Makoni, Manicaland Province, ZW",Clinic,FALSE,,
Dumbamwe,32.38531112670,-18.42167000000,"Mutasa, Manicaland Province, ZW",Clinic,FALSE,,
Era Mine,32.27172088620,-18.23656000000,"Inyati Mine, Makoni, Manicaland Province, ZW",Mine Clinic,FALSE,,
Gowakowa,32.33406066890,-18.08644000000,"Sola, Makoni, Manicaland Province, ZW",Rural Health Centre,FALSE,,
Headlands,32.03989028930,-18.28597000000,"Headlands, Makoni, Manicaland Province, ZW",Clinic,FALSE,,
Inyati,32.25489044190,-18.22197000000,"Inyati Mine, Makoni, Manicaland Province, ZW",Clinic,FALSE,,
Katsenga,32.00347137450,-18.72456000000,"Makonis, Makoni, Manicaland Province, ZW",Rural Health Centre,FALSE,,
Makoni,32.38877868650,-18.61997000000,"Rugoyi, Mutasa, Manicaland Province, ZW",Rural Hospital,FALSE,,
Maparura,32.40510940550,-18.00294000000,"Sola, Makoni, Manicaland Province, ZW",Rural Health Centre,FALSE,,
Weya,32.15196990970,-18.04158000000,"Chiendambuya, Makoni, Manicaland Province, ZW",Rural Hospital,FALSE,,
Zambara,31.96780967710,-18.24033000000,"Headlands, Makoni, Manicaland Province, ZW",Clinic,FALSE,,
Masvosva,31.85693931580,-18.70275000000,"Makonis, Makoni, Manicaland Province, ZW",Rural Health Centre,FALSE,,
Matotwe,32.36692047120,-18.52292000000,"Mukani, Makoni, Manicaland Province, ZW",Clinic,FALSE,,
Matsika,31.95266914370,-18.70075000000,"Makonis, Makoni, Manicaland Province, ZW",Clinic,FALSE,,
Maurice Nyagumbo,32.33710861210,-18.67436000000,"Tsungwisi, Mutare, Manicaland Province, ZW",Clinic,FALSE,,
Mavhudzi,32.15613937380,-18.74053000000,"Nyazura, Makoni, Manicaland Province, ZW",Clinic,FALSE,,
Mayo1,32.27336120610,-17.87047000000,"Chikore, Makoni, Manicaland Province, ZW",Rural Health Centre,FALSE,,
Mayo2,32.35171890260,-17.78494000000,"Chikore, Makoni, Manicaland Province, ZW",Rural Health Centre,FALSE,,
Mubvurungwa,31.93436050420,-18.53472000000,"Makoni, Manicaland Province, ZW",Clinic,FALSE,,
Mukamba,32.00271987920,-18.86703000000,"Rukweza, Makoni, Manicaland Province, ZW",Clinic,FALSE,,
Mukuwapasi,32.21847152710,-18.50592000000,"Rusape, Makoni, Manicaland Province, ZW",Clinic,FALSE,,
Nedevedzo,31.87491989140,-18.55028000000,"Makoni, Manicaland Province, ZW",Rural Hospital,FALSE,,
Nyahowe,32.40303039550,-17.93886000000,"Sola, Makoni, Manicaland Province, ZW",Rural Health Centre,FALSE,,
Nyahukwe,32.32231140140,-18.46983000000,"Mukani, Makoni, Manicaland Province, ZW",Rural Health Centre,FALSE,,
Nyamidzi,32.08721923830,-18.93989000000,"Rukweza, Makoni, Manicaland Province, ZW",Clinic,FALSE,,
Nyamukamani,32.17203140260,-18.09111000000,"Chiendambuya, Makoni, Manicaland Province, ZW",Rural Health Centre,FALSE,,
Nyazura,32.17139053340,-18.72089000000,"Nyazura, Makoni, Manicaland Province, ZW",Clinic,FALSE,,
Nyazura,32.22460937500,-18.75678000000,"Nyazura, Makoni, Manicaland Province, ZW",Mission Clinic,FALSE,,
Ringanayi,32.43861007690,-18.55803000000,"Rugoyi, Mutasa, Manicaland Province, ZW",Clinic,FALSE,,
Rukweza,32.08377838130,-18.80450000000,"Rukweza, Makoni, Manicaland Province, ZW",Clinic,FALSE,,
Rusape,32.13636016850,-18.53892000000,"1105 Mutsubvu Road, Rusape, ZW",District Hospital,FALSE,,
St Micheals,32.45042037960,-17.90319000000,"Makoni, Manicaland Province, ZW",Mission Hospital,FALSE,,
St Theresa,31.91918945310,-18.58714000000,"Makoni, Manicaland Province, ZW",Mission Hospital,FALSE,,
Tandi,32.02088928220,-18.56839000000,"Rusape, Makoni, Manicaland Province, ZW",Clinic,FALSE,,
Tariro,32.08393859860,-18.73558000000,"Nyazura, Makoni, Manicaland Province, ZW",Clinic,FALSE,,
Tsanzaguru,32.10678100590,-18.61947000000,"Rusape, Makoni, Manicaland Province, ZW",Clinic,FALSE,,
Vengere,32.11877822880,-18.55675000000,"Rusape, Makoni, Manicaland Province, ZW",Clinic,FALSE,,
Gorubi Springs,32.23431000000,-18.67112000000,"Nyazura, Makoni, Manicaland Province, ZW",Rural Health Centre,FALSE,,
Mavhudzi,32.14423000000,-18.72616000000,"Nyazura, Makoni, Manicaland Province, ZW",Clinic,FALSE,,
Nyamusosa,32.26243000000,-18.00061000000,"Chiendambuya, Makoni, Manicaland Province, ZW",Clinic,FALSE,,
St. Annes,28.33200000000,-21.16960000000,"Matobo, Matabeleland South Province, ZW",Mission Hospital,FALSE,,
Plumtree ZPS,27.81030000000,-20.49160000000,"Plumtree, Bulilimamangwe, Matabeleland South Province, ZW",Prison Clinic,FALSE,,
Bazha,28.33506011960,-20.60611000000,"Npuma, Matobo, Matabeleland South Province, ZW",Clinic,FALSE,,
Beula,28.40613937380,-21.48506000000,"Legion Mine, Matobo, Matabeleland South Province, ZW",Rural Health Centre,FALSE,,
Gulati,28.59021949770,-20.45719000000,"Fort Usher, Matobo, Matabeleland South Province, ZW",Rural Health Centre,FALSE,,
Homestead,28.55385971070,-21.25589000000,"Matobo, Matabeleland South Province, ZW",Rural Health Centre,FALSE,,
Kezi,28.45803070070,-20.91947000000,"Kezi, Matobo, Matabeleland South Province, ZW",Rural Hospital,FALSE,,
Maphisa,28.47435951230,-21.07378000000,"Antelope Mines, Matobo, Matabeleland South Province, ZW",District Hospital,FALSE,,
Matobo,28.72024917600,-20.46828000000,"Fort Usher, Matobo, Matabeleland South Province, ZW",Mission Clinic,FALSE,,
Matobo Rural,28.48785972600,-20.41767000000,"Matobo, Matabeleland South Province, ZW",Rural Hospital,FALSE,,
Mbembeswana,28.25313949580,-21.03622000000,"Matobo, Matabeleland South Province, ZW",Rural Health Centre,FALSE,,
Minda Sec,28.45796966550,-21.06789000000,"Antelope Mines, Matobo, Matabeleland South Province, ZW",Clinic,FALSE,,
Natisa,28.50527954100,-20.69019000000,"Halale, Matobo, Matabeleland South Province, ZW",Rural Health Centre,FALSE,,
Sankonjana,28.70027923580,-21.40547000000,"Matobo, Matabeleland South Province, ZW",Rural Health Centre,FALSE,,
St. Joseph's,28.27392005920,-21.25297000000,"Matobo, Matabeleland South Province, ZW",Rural Hospital,FALSE,,
Tshelanyemba,28.48802948000,-21.35383000000,"Legion Mine, Matobo, Matabeleland South Province, ZW",Mission Hospital,FALSE,,
Border Church,31.34056091310,-18.23686000000,"Waddilove, Marondera, Mashonaland East Province, ZW",Rural Health Centre,FALSE,,
Borrandile,31.54143905640,-18.18464000000,"27 Antwerp Rd, Marondera, ZW",Private Hospital,FALSE,,
Chimbwanda,31.15019035340,-18.40128000000,"Masasa, Marondera, Mashonaland East Province, ZW",Rural Health Centre,FALSE,,
Chiota,31.24049949650,-18.32094000000,"Mahusekwa, Marondera, Mashonaland East Province, ZW",Rural Hospital,FALSE,,
Chiparawe,31.63982963560,-18.00653000000,"Murehwa Road, ZW",Clinic,FALSE,,
Dimbiti,31.78936004640,-18.38519000000,"Wilton, Makoni, Manicaland Province, ZW",Rural Health Centre,FALSE,,
Dombotombo,31.56706047060,-18.18722000000,"Murehwa Road, Marondera, ZW",Clinic,FALSE,,
Grasslands,31.50502967830,-18.18478000000,"Wedza Road, ZW",Clinic,FALSE,,
Igava,31.62410926820,-18.46728000000,"Igava, Marondera, Mashonaland East Province, ZW",Clinic,FALSE,,
Marondera (PH),31.53450012210,-18.20553000000,"Cnr. 3rd, 1st St, Marondera, ZW",Provincial Hospital,FALSE,,
Wenimbe,31.79039001460,-18.23633000000,"Wilton, Makoni, Manicaland Province, ZW",Rural Health Centre,FALSE,,
Masikana,31.68660926820,-18.35392000000,"Wilton, Makoni, Manicaland Province, ZW",Clinic,FALSE,,
Mudzimuirema,31.09005928040,-18.28439000000,"Jirira, Marondera, Mashonaland East Province, ZW",Rural Health Centre,FALSE,,
Nyameni,31.54143905640,-18.20611000000,"Syringa Rd, Marondera, ZW",Clinic,FALSE,,
Dombotombo,31.56606000000,-18.17918000000,"Marondera, Mashonaland East Province, ZW",Clinic,FALSE,,
Lustliegh,31.38554000000,-18.43300000000,"Wedza Road, ZW",Clinic,FALSE,,
Nyembanzvere,31.13047000000,-18.21594000000,"Jirira, Marondera, Mashonaland East Province, ZW",Clinic,FALSE,,
Prison,31.43256000000,-18.18013000000,"Chomwedzi, Marondera, Mashonaland East Province, ZW",Clinic,FALSE,,
ZRP,31.55904000000,-18.18789000000,"Marondera, Mashonaland East Province, ZW",Clinic,FALSE,,
Kushinga Phikelela,31.66990000000,-18.15440000000,"Theydon, Marondera, Mashonaland East Province, ZW",Clinic,FALSE,,
Marondera ,31.59070000000,-18.15660000000,"108 Murehwa Road, Marondera, ZW",Rural Clinic,FALSE,,
Rakodzi ,31.60620000000,-18.18250000000,"Marondera, Mashonaland East Province, ZW",Clinic,FALSE,,
Ridigita ,31.51330000000,-18.37240000000,"Marondera, Mashonaland East Province, ZW",Poly Clinic,FALSE,,
Waddilove ,31.38570000000,-18.25670000000,"Waddilove, Marondera, Mashonaland East Province, ZW",Clinic,FALSE,,
Alvod,30.77088928220,-19.83389000000,"Matoba, Masvingo, Masvingo Province, ZW",Clinic,FALSE,,
Bere,30.47186088560,-20.03367000000,"Mashava, Masvingo, Masvingo Province, ZW",Clinic,FALSE,,
Bondolfi,30.75056076050,-20.28386000000,"Ndadza, Masvingo, Masvingo Province, ZW",Rural Hospital,FALSE,,
Charumbira,30.85638999940,-20.29011000000,"Zimbabwe, Masvingo, Masvingo Province, ZW",Clinic,FALSE,,
Chatikobo,31.15414047240,-20.43461000000,"Masvingo, Masvingo Province, ZW",Clinic,FALSE,,
Gokomere,30.77453041080,-19.95453000000,"Masvingo, Masvingo Province, ZW",Clinic,FALSE,,
Gundura,30.52416992190,-19.87314000000,"Masvingo, Masvingo Province, ZW",Clinic,FALSE,,
Gurajena,30.90313911440,-19.77056000000,"Masvingo, Masvingo Province, ZW",Hospital,FALSE,,
Guwa,31.05475044250,-20.62497000000,"Mucibwa, Masvingo, Masvingo Province, ZW",Clinic,FALSE,,
Lennox,30.50621986390,-20.07467000000,"Mashava, Masvingo, Masvingo Province, ZW",Clinic,FALSE,,
Mapanzure,30.87352943420,-20.40011000000,"Ngomahuru, Masvingo, Masvingo Province, ZW",Clinic,FALSE,,
Zano,31.12188911440,-20.20250000000,"Glenlivet, Masvingo, Masvingo Province, ZW",Clinic,FALSE,,
Zimuto,30.85433006290,-20.06789000000,"Airport Road, Masvingo, ZW",Clinic,FALSE,,
Zimuto,30.85519027710,-19.95311000000,"Masvingo, Masvingo Province, ZW",Mission Hospital,FALSE,,
Zimuto,30.86891937260,-19.85644000000,"Matoba, Masvingo, Masvingo Province, ZW",Clinic,FALSE,,
Masvingo,30.83913993840,-20.07272000000,"NRZ Train Station,, WRGR+H2R, Josiah Tongogara Avenue, Masvingo, ZW",General Hospital,FALSE,,
Mogenester,30.93507957460,-20.32372000000,"Zimbabwe, Masvingo, Masvingo Province, ZW",Mission Hospital,FALSE,,
Mucheke,30.81936073300,-20.08344000000,"Masvingo, Masvingo Province, ZW",Clinic,FALSE,,
Mukosi,30.88978004460,-20.53867000000,"Masvingo, Masvingo Province, ZW",Clinic,FALSE,,
Murinye,31.05377960210,-20.37325000000,"Masvingo, Masvingo Province, ZW",Clinic,FALSE,,
Mushandike,30.71863937380,-20.20614000000,"Masvingo, Masvingo Province, ZW",Clinic,FALSE,,
Musvovi,31.07022094730,-20.70494000000,"Mucibwa, Masvingo, Masvingo Province, ZW",Clinic,FALSE,,
Nemwanwa,30.92044067380,-20.27436000000,"Zimbabwe, Masvingo, Masvingo Province, ZW",Clinic,FALSE,,
Nyajena,31.16732978820,-20.60147000000,"Renco, Masvingo, Masvingo Province, ZW",Rural Hospital,FALSE,,
Nyikavanhu,31.22067070010,-20.85339000000,"Chiredzi, Masvingo Province, ZW",Rural Health Centre,FALSE,,
Renco,31.17053031920,-20.63819000000,"Renco, Zaka, Masvingo Province, ZW",Mine Clinic,FALSE,,
Rujeko,30.83746910100,-20.08433000000,"Masvingo, Masvingo Province, ZW",Clinic,FALSE,,
Rukovo,31.06792068480,-20.26822000000,"Glenlivet, Masvingo, Masvingo Province, ZW",Clinic,FALSE,,
Runyararo,30.82336044310,-20.10292000000,"Masvingo, Masvingo Province, ZW",Clinic,FALSE,,
Shonganiso,31.08547019960,-20.43675000000,"Masvingo, Masvingo Province, ZW",Clinic,FALSE,,
Shumba,30.96919059750,-20.42275000000,"Masvingo, Masvingo Province, ZW",Clinic,FALSE,,
Summerton,30.70318984990,-19.97103000000,"Masvingo, Masvingo Province, ZW",Clinic,FALSE,,
Gaths Mine,30.51238000000,-20.02360000000,"Gaths Mine, Masvingo, Masvingo Province, ZW",Hospital,FALSE,,
ZRP Masvingo,30.84577000000,-20.65350000000,"Masvingo, Masvingo Province, ZW",Clinic,FALSE,,
Rujeko,30.83774000000,-20.08430000000,"Masvingo, Masvingo Province, ZW",Clinic,FALSE,,
Runyararo,30.80991000000,-20.09720000000,"Masvingo, Masvingo Province, ZW",Clinic,FALSE,,
Mucheke,30.81981000000,-20.08317000000,"Masvingo, Masvingo Province, ZW",Poly Clinic,FALSE,,
Stanmore RHC,31.00902000000,-20.04842000000,"Masvingo, Masvingo Province, ZW",Rural Health Centre,FALSE,,
Masvingo Teachers College,30.86269000000,-20.10285000000,"Masvingo, Masvingo Province, ZW",Clinic,FALSE,,
Masvingo Poly Technic,30.83191000000,-20.08477000000,"Masvingo, Masvingo Province, ZW",Clinic,FALSE,,
Ngomahuru,30.72394000000,-20.43699000000,"Ngomahuru, Masvingo, Masvingo Province, ZW",Rural Health Centre,FALSE,,
ZNA Batallion,30.85123000000,-20.04052000000,"Masvingo, Masvingo Province, ZW",Clinic,FALSE,,
Sigangatsha,28.35322000000,-21.39627000000,"Matobo, Matabeleland South Province, ZW",Clinic(Not Open),FALSE,,
Fumugwe,28.25848000000,-20.67242000000,"Npuma, Matobo, Matabeleland South Province, ZW",(New Site),FALSE,,
Hlekweni,28.49899000000,-20.25333000000,"Matapos, Matobo, Matabeleland South Province, ZW",Clinic,FALSE,,
Ekukanyeni,28.67786000000,-20.40312000000,"Fort Usher, Matobo, Matabeleland South Province, ZW",Clinic,FALSE,,
Cyrene ,28.41490000000,-20.33110000000,"Figtree, Matabeleland South Province, ZW",Mission Clinic,FALSE,,
Masiye Camp,28.62910000000,-20.59000000000,"Matobo, Matabeleland South Province, ZW",clinic,FALSE,,
Bare,31.12623023990,-16.87747000000,"Centenary, Mashonaland Central Province, ZW",Clinic,FALSE,,
Belgone Clinic,30.87218093870,-17.52498000000,"Jumbo, Mazowe, Mashonaland Central Province, ZW",Clinic,FALSE,,
Chinehasha,31.19017982480,-16.92892000000,"Mtepatepa, Bindura, Mashonaland Central Province, ZW",Clinic,FALSE,,
Christon Bank,31.00937080380,-17.60950000000,"Mazowe River Road, Christon Bank, ZW",Clinic,FALSE,,
Concession Hosp.,30.94342994690,-17.38715000000,"Concession, Mazowe, Mashonaland Central Province, ZW",District Hospital,FALSE,,
Dambo,31.08111953740,-17.19515000000,"R33J+WC Howard Institute, ZW",Clinic,FALSE,,
Henderson Research,30.97216987610,-17.59243000000,"Christon Bank, Mashonaland Central Province, ZW",Clinic,FALSE,,
Holmeden,30.69062995910,-17.29543000000,"Mazowe, Mashonaland Central Province, ZW",Clinic,FALSE,,
Howard,30.99430084230,-17.56592000000,"Christon Bank, Mashonaland Central Province, ZW",Mission Hospital,FALSE,,
Iron Duke,31.06539916990,-17.44133000000,"Glendale, Mazowe, Mashonaland Central Province, ZW",Clinic,FALSE,,
Jingamvura,31.20145034790,-16.83293000000,"Centenary, Mazowe, Mashonaland Central Province, ZW",Clinic,FALSE,,
Makope,31.06069946290,-17.02938000000,"Nzimbo, Mazowe, Mashonaland Central Province, ZW",Clinic,FALSE,,
Mazowe Citrus Hosp.,31.00945091250,-17.45395000000,"Mazowe, Mashonaland Central Province, ZW",Rural Hospital,FALSE,,
Mazowe Mine,30.92460060120,-17.47368000000,"Jumbo, Mazowe, Mashonaland Central Province, ZW",Clinic,FALSE,,
Mazowe Sec.,30.93087005620,-17.61567000000,"Pearson Settlement, Mashonaland Central Province, ZW",Clinic,FALSE,,
Mukodzongi,31.16431999210,-16.98600000000,"Mazowe, Mashonaland Central Province, ZW",Clinic,FALSE,,
N.E.M.Centre,31.00281906130,-17.36957000000,"Concession Glendale Road, ZW",Clinic,FALSE,,
Nyakudya,31.13680076600,-17.02013000000,"Nzimbo, Mazowe, Mashonaland Central Province, ZW",Clinic,FALSE,,
Nzvimbo,31.05260086060,-17.08070000000,"Nzimbo, Mazowe, Mashonaland Central Province, ZW",Clinic,FALSE,,
Rosa,31.04725074770,-17.13400000000,"Nzimbo, Mazowe, Mashonaland Central Province, ZW",Rural Hospital,FALSE,,
Shutu,31.13912963870,-17.07427000000,"Nzimbo, Mazowe, Mashonaland Central Province, ZW",Clinic,FALSE,,
Stories Mine,30.96113014220,-17.51272000000,"Mazowe, Mashonaland Central Province, ZW",Clinic,FALSE,,
Tsungubvi,31.05647087100,-17.36563000000,"Glendale, Mazowe, Mashonaland Central Province, ZW",Clinic,FALSE,,
Danbury,30.92369000000,-17.64257000000,"Old Mazowe Rd, ZW",Clinic,FALSE,,
Vonabor,31.12155000000,-17.37307000000,"Glendale, Mazowe, Mashonaland Central Province, ZW",Clinic,FALSE,,
Davaar,31.13387000000,-17.27463000000,"Glendale, Mazowe, Mashonaland Central Province, ZW",Clinic,FALSE,,
Shopo,31.19999000000,-17.02617000000,"Bindura, Mashonaland Central Province, ZW",Clinic,FALSE,,
Ardura,31.00105000000,-17.30145000000,"Limbeck, Mazowe, Mashonaland Central Province, ZW",Rural Health Centre,FALSE,,
Cranham,30.82729000000,-17.39259000000,"Concession, Mazowe, Mashonaland Central Province, ZW",Clinic,FALSE,,
Donje,30.95695000000,-16.94920000000,"Mvurwi, Mazowe, Mashonaland Central Province, ZW",Clinic,FALSE,,
Mvurwi Farm Health Scheme,30.85431000000,-17.02942000000,"Mvurwi, Mazowe, Mashonaland Central Province, ZW",Farm Health Clinic,FALSE,,
Mvurwi,30.85500000000,-17.03112000000,"Mvurwi, Mazowe, Mashonaland Central Province, ZW",Hospital,FALSE,,
Forrester,30.95460000000,-17.04880000000,"Mvurwi, Mazowe, Mashonaland Central Province, ZW",Clinic,FALSE,,
Mazoe ,30.92380000000,-17.60310000000,"Pearson Settlement, Mashonaland Central Province, ZW",Clinic,FALSE,,
Montgomery ,30.78300000000,-17.24700000000,"Mazowe, Mashonaland Central Province, ZW",Clinic,FALSE,,
Bonda,30.40714073180,-20.87094000000,"Mwenezi, Midlands Province, ZW",Mission Hospital,FALSE,,
Chabwira,30.23944091800,-20.67058000000,"Mberengwa, Midlands Province, ZW",Clinic,FALSE,,
Chedembeko,29.90756034850,-20.73936000000,"Sabhuku Madhobha, Mberengwa, Midlands Province, ZW",Clinic,FALSE,,
Chiedza,29.68721961980,-20.91722000000,"Mberengwa, Midlands Province, ZW",Clinic,FALSE,,
Chingezi,29.78660964970,-20.72236000000,"Mwanezi, Mberengwa, Midlands Province, ZW",Clinic,FALSE,,
C-Mine,29.86871910100,-20.48608000000,"Mberengwa, Midlands Province, ZW",Private Clinic,FALSE,,
Gwarava,30.06847000120,-20.95372000000,"Mberengwa, Midlands Province, ZW",Rural Health Centre,FALSE,,
Imbahuru,30.10207939150,-20.86708000000,"Mataga Growth Point, Mberengwa, Midlands Province, ZW",Clinic,FALSE,,
Ingezi,30.38619041440,-20.58697000000,"Ingesi, Chivi, Midlands Province, ZW",Clinic,FALSE,,
Jeka,29.93413925170,-20.85536000000,"Mberengwa, Midlands Province, ZW",Rural Hospital,FALSE,,
Kotokwe,29.58897018430,-20.98397000000,"Mberengwa, Midlands Province, ZW",Clinic,FALSE,,
Makuwerere,30.23636054990,-20.98544000000,"Sawa Sawa, Mberengwa, Midlands Province, ZW",Clinic,FALSE,,
Masase,29.66699981690,-20.98667000000,"Mberengwa, Midlands Province, ZW",Mission Hospital,FALSE,,
Vurasha,30.38402938840,-20.93614000000,"Sawa Sawa, Mberengwa, Midlands Province, ZW",Rural Health Centre,FALSE,,
Wanezi,29.73971939090,-20.56978000000,"Mberengwa, Midlands Province, ZW",Clinic,FALSE,,
Mataga,30.19042015080,-20.84119000000,"Mpandashango-Mataga Rd, Mataga Growth Point, ZW",Rural Health Centre,FALSE,,
Matedzi,30.28738975520,-20.80739000000,"Tombs - Matedzi Rd, ZW",Clinic,FALSE,,
Mavorovondo,29.81808090210,-20.92150000000,"Mberengwa, Midlands Province, ZW",Rural Health Centre,FALSE,,
Mazivofa,30.10186004640,-20.75736000000,"Mataga Growth Point, Mberengwa, Midlands Province, ZW",Clinic,FALSE,,
Mberengwa,29.91980934140,-20.48881000000,"Mberengwa, Midlands Province, ZW",District Hospital,FALSE,,
Mnene,30.05381011960,-20.62342000000,"Mnene, Mberengwa, Midlands Province, ZW",Mission Hospital,FALSE,,
Mponjani,30.39047050480,-20.71839000000,"Ngungubane, Chivi, Masvingo Province, ZW",Clinic,FALSE,,
Mposi,30.02206039430,-20.82161000000,"Sabhuku Madhobha, Mberengwa, Midlands Province, ZW",Clinic,FALSE,,
Muketi,30.14031028750,-21.00736000000,"Sawa Sawa, Mberengwa, Midlands Province, ZW",Clinic,FALSE,,
Murongwe,30.25756073000,-20.60161000000,"Ingesi, Chivi, Midlands Province, ZW",Rural Health Centre,FALSE,,
Musume,30.23905944820,-20.92289000000,"Sawa Sawa, Mberengwa, Midlands Province, ZW",Mission Hospital,FALSE,,
Mwenezi,29.70450019840,-20.77317000000,"Mwanezi, Mberengwa, Midlands Province, ZW",Rural Health Centre,FALSE,,
Negobe,30.35491943360,-20.68572000000,"Ngungubane, Chivi, Masvingo Province, ZW",Clinic,FALSE,,
Ngungumbane,30.42119026180,-20.78594000000,"Mwenezi, Midlands Province, ZW",Clinic,FALSE,,
Sandawana,29.93564033510,-20.92094000000,"Gwanda, Midlands Province, ZW",Clinic,FALSE,,
Svita,30.13594055180,-20.58678000000,"Mnene, Mberengwa, Midlands Province, ZW",Clinic,FALSE,,
Buchwa,30.38104000000,-20.60770000000,"Ngungubane, Chivi, Masvingo Province, ZW",Clinic,FALSE,,
Chirunya,30.61864000000,-16.34884000000,"Bakasa, Guruve, Mashonaland Central Province, ZW",Rural Health Centre,FALSE,,
Nyambudzi,30.59150000000,-16.08729000000,"Mushumbi Pools, Guruve, Mashonaland Central Province, ZW",Rural Health Centre,FALSE,,
Mutasa,31.61568000000,-16.42880000000,"Karoi, Mount Darwin, Mashonaland Central Province, ZW",Rural Health Centre,FALSE,,
Bandimba,31.85968000000,-16.36914000000,"Mount Darwin, Mashonaland Central Province, ZW",Rural Health Centre,FALSE,,
ZRP,31.57672000000,-16.77998000000,"Mount Darwin, Mashonaland Central Province, ZW",Clinic Private Clinic,FALSE,,
Bveke,31.78725051880,-16.56939000000,"Mount Darwin, Mashonaland Central Province, ZW",New Not Open,FALSE,,
Chawanda,31.67015075680,-16.61703000000,"Karoi, Mount Darwin, Mashonaland Central Province, ZW",Clinic,FALSE,,
Dotito,31.59021949770,-16.56878000000,"Karoi, Mount Darwin, Mashonaland Central Province, ZW",Clinic,FALSE,,
Kaitano,31.55252075200,-16.31861000000,"Chimbango, Mount Darwin, Mashonaland Central Province, ZW",Clinic,FALSE,,
Kamutsenzere,31.78561019900,-16.38361000000,"Mount Darwin, Mashonaland Central Province, ZW",Clinic,FALSE,,
Karanda,31.83955001830,-16.65555000000,"Nykasikana, Mount Darwin, Mashonaland Central Province, ZW",Mission Hospital,FALSE,,
Mt Darwin,31.58872032170,-16.77578000000,"Mount Darwin, Mashonaland Central Province, ZW",District Hospital,FALSE,,
Mukumbura,31.65189933780,-16.20028000000,"Mukumbura, Mount Darwin, Tete Province, ZW",Clinic,FALSE,,
Mutungagore,31.52272033690,-16.60139000000,"Karoi, Mount Darwin, Mashonaland Central Province, ZW",Clinic,FALSE,,
Nembire,31.50015068050,-16.58956000000,"Karoi, Mount Darwin, Mashonaland Central Province, ZW",Clinic,FALSE,,
Nyamahobobo,31.88368988040,-16.70283000000,"Kudjwara, Mount Darwin, Mashonaland Central Province, ZW",Clinic,FALSE,,
Pachanza,31.77136039730,-16.56711000000,"Mount Darwin, Mashonaland Central Province, ZW",Clinic,FALSE,,
Pfunyanguwo,31.90032958980,-16.57581000000,"Kudjwara, Mount Darwin, Mashonaland Central Province, ZW",Clinic,FALSE,,
Tsakare,31.55611038210,-16.82555000000,"Mount Darwin, Mashonaland Central Province, ZW",Clinic,FALSE,,
Chiburi ,31.33900000000,-16.70340000000,"Mount Darwin, Mashonaland Central Province, ZW", ZPS ,FALSE,,
Matope ,31.66590000000,-16.75970000000,"Mount Darwin, Mashonaland Central Province, ZW",Clinic,FALSE,,
Mt Darwin,31.57610000000,-16.77990000000,"Mount Darwin, Mashonaland Central Province, ZW",Clinic,FALSE,,
Mutasa ,31.61570000000,-16.42870000000,"Karoi, Mount Darwin, Mashonaland Central Province, ZW",Clinic,FALSE,,
Chikwizo,32.78955841060,-17.20656000000,"Makose, Mashonaland East Province, ZW",Clinic,FALSE,,
Chimukoko,32.50730896000,-16.96742000000,"Kotwa, Mudzi, Mashonaland East Province, ZW",Rural Health Centre,FALSE,,
Chingamuka,32.55430984500,-16.86803000000,"Mudzi, Mashonaland East Province, ZW",Rural Health Centre,FALSE,,
Chisvo,32.35824966430,-16.95819000000,"Nyamkoho Twp, Mudzi, Mashonaland East Province, ZW",Clinic,FALSE,,
Chiunye,32.28713989260,-17.00475000000,"Nyamkoho Twp, Mudzi, Mashonaland East Province, ZW",Rural Health Centre,FALSE,,
Dendera,32.72074890140,-16.95756000000,"Kotwa, Mudzi, Mashonaland East Province, ZW",Clinic,FALSE,,
Gozi,32.86700057980,-17.18619000000,"Mashonaland East Province, ZW",Rural Health Centre,FALSE,,
Kapotesa,32.75218963620,-17.01956000000,"Kotwa, Mudzi, Mashonaland East Province, ZW",Rural Health Centre,FALSE,,
Kondo,32.65636062620,-16.90114000000,"Kotwa, Mudzi, Mashonaland East Province, ZW",Rural Health Centre,FALSE,,
Kotwa,32.67282867430,-17.00811000000,"Kotwa, Mudzi, Mashonaland East Province, ZW",Clinic,FALSE,,
Kotwa,32.66936111450,-16.98928000000,"Kotwa, Mudzi, Mashonaland East Province, ZW",District Hospital,FALSE,,
Makaha,32.62403106690,-17.28722000000,"Makaha, Mashonaland East Province, ZW",Rural Health Centre,FALSE,,
Masarakufa,32.57027816770,-17.03969000000,"Kotwa, Mudzi, Mashonaland East Province, ZW",Rural Health Centre,FALSE,,
Masenda,32.25447082520,-17.10814000000,"Nyamkoho Twp, Mudzi, Mashonaland East Province, ZW",Rural Health Centre,FALSE,,
Nyahuku,32.88816833500,-16.81739000000,"Mudzi, Mashonaland East Province, ZW",Clinic,FALSE,,
Nyamanyora,32.50497055050,-16.87269000000,"Mudzi, Mashonaland East Province, ZW",Rural Health Centre,FALSE,,
Nyamapanda,32.86571884160,-16.96828000000,"Nyampanda, Mudzi, Mashonaland East Province, ZW",Clinic,FALSE,,
Nyamatawa,32.65531158450,-17.20389000000,"Makose, Mudzi, Mashonaland East Province, ZW",Clinic,FALSE,,
Nyamukoho,32.31850051880,-17.07097000000,"Nyamkoho Twp, Mudzi, Mashonaland East Province, ZW",Clinic,FALSE,,
Shinga,32.43949890140,-17.00806000000,"Nyamkoho Twp, Mudzi, Mashonaland East Province, ZW",Clinic,FALSE,,
St. Pius,32.80596923830,-16.75703000000,"Mafuto, Mudzi, Mashonaland East Province, ZW",Rural Health Centre,FALSE,,
Suswe,32.40539169310,-17.17456000000,"Suswe, Mudzi, Mashonaland East Province, ZW",Rural Health Centre,FALSE,,
Kotwa ,32.67290000000,-16.99170000000,"Kotwa, Mudzi, Mashonaland East Province, ZW",Clinic,FALSE,,
Mudzi Camp,32.44980000000,-17.11490000000,"Suswe, Mudzi, Mashonaland East Province, ZW",Clinic,FALSE,,
Chitate,31.88652992250,-17.67478000000,"Murehwa, Mashonaland East Province, ZW",Rural Health Centre,FALSE,,
Chitowa,31.86819076540,-17.52417000000,"Zanyika, Murehwa, Mashonaland East Province, ZW",Clinic,FALSE,,
Dandara,31.68605995180,-17.50764000000,"Zanyika, Murehwa, Mashonaland East Province, ZW",Clinic,FALSE,,
Jekwa,32.08956146240,-17.75797000000,"Chikumbakwe, Murehwa, Mashonaland East Province, ZW",Rural Health Centre,FALSE,,
Kadzere,31.73699951170,-17.78822000000,"Murehwa, Mashonaland East Province, ZW",Clinic,FALSE,,
Macheke,31.85560989380,-18.15306000000,"Macheke, Makoni, Mashonaland East Province, ZW",Clinic,FALSE,,
Madamombe,31.65402984620,-17.47419000000,"Murehwa, Mashonaland East Province, ZW",Rural Health Centre,FALSE,,
Waterloo,31.93400001530,-17.88836000000,"Murehwa, Mashonaland East Province, ZW",Clinic,FALSE,,
Munamba,31.59078025820,-17.89122000000,"Musami, Murehwa, Mashonaland East Province, ZW",Rural Health Centre,FALSE,,
Murewa,31.78763961790,-17.65783000000,"Murehwa, Mashonaland East Province, ZW",District Hospital,FALSE,,
Nhowe,31.93446922300,-17.87206000000,"Chikumbakwe, Murehwa, Mashonaland East Province, ZW",Clinic,FALSE,,
Nhowe,31.94075012210,-17.85256000000,"Chikumbakwe, Murehwa, Mashonaland East Province, ZW",Mission Hospital,FALSE,,
Nyamutumbu,31.61743927000,-17.62108000000,"Chemhondoro, Murehwa, Mashonaland East Province, ZW",Clinic,FALSE,,
Shambamuto,31.63931083680,-17.87231000000,"Musami, Murehwa, Mashonaland East Province, ZW",Clinic,FALSE,,
St Pauls Musami,31.58585929870,-17.75058000000,"Musami, Murehwa, Mashonaland East Province, ZW",Mission Hospital,FALSE,,
Wuyuwuyu,31.97012000000,-17.67149000000,"Hoyuyu, Murehwa, Mashonaland East Province, ZW",Clinic,FALSE,,
Welcome Home Liden,31.80101000000,-18.10296000000,"Theydon, Makoni, Mashonaland East Province, ZW",Clinic,FALSE,,
Craiglea,31.82746000000,-17.96305000000,"Murehwa, Mashonaland East Province, ZW",Clinic,FALSE,,
Nehoreka,31.58967000000,-17.76112000000,"Musami, Murehwa, Mashonaland East Province, ZW",Private Clinic,FALSE,,
S T Parirenyatwa,31.73656000000,-17.48069000000,"Zanyika, Murehwa, Mashonaland East Province, ZW",Rural Health Centre,FALSE,,
Ngwerume,31.69831000000,-17.58456000000,"Murehwa, Mashonaland East Province, ZW",Clinic,FALSE,,
Chizanga,31.69828000000,-17.88353000000,"Murehwa, Mashonaland East Province, ZW",Clinic,FALSE,,
Prison,31.78770000000,-17.65589000000,"Murehwa, Mashonaland East Province, ZW",Clinic,FALSE,,
Goso,31.78155000000,-17.55378000000,"Zanyika, Murehwa, Mashonaland East Province, ZW",Clinic,FALSE,,
Chitowa 1,31.86610000000,-17.52340000000,"Zanyika, Murehwa, Mashonaland East Province, ZW",RHC,FALSE,,
Chitowa 2 ,31.91160000000,-17.59880000000,"Murehwa, Mashonaland East Province, ZW",Clinic,FALSE,,
Dombwe ,31.97160000000,-17.76980000000,"Chikumbakwe, Murehwa, Mashonaland East Province, ZW",RHC,FALSE,,
Kadenge ,31.77970000000,-17.88380000000,"Murehwa, Mashonaland East Province, ZW",RHC,FALSE,,
Kambarami ,31.73260000000,-17.62680000000,"Murehwa, Mashonaland East Province, ZW",Clinic,FALSE,,
Matututu ,31.73660000000,-17.48070000000,"Zanyika, Murehwa, Mashonaland East Province, ZW",RHC,FALSE,,
Muchinjike ,31.73460000000,-17.54020000000,"Murehwa, Mashonaland East Province, ZW",RHC,FALSE,,
Murehwa,31.78900000000,-17.65460000000,"Murehwa, Mashonaland East Province, ZW",Clinic,FALSE,,
Murewa ,31.78010000000,-17.64150000000,"Murehwa, Mashonaland East Province, ZW",Poly Clinic,FALSE,,
Virginia Clinic,32.09070000000,-17.85530000000,"Chikumbakwe, Makoni, Mashonaland East Province, ZW",Clinic,FALSE,,
Murewa OPD,31.77900000000,-17.65810000000,"Murehwa, Mashonaland East Province, ZW",Clinic,FALSE,,
Bakorenhema,32.35144042970,-19.30542000000,"Matanda, Mutare, Manicaland Province, ZW",Gvt Clinic,FALSE,,
Berzerly Bridge,32.48928070070,-19.25094000000,"Matanda, Mutare, Manicaland Province, ZW",clinic,FALSE,,
Burma Valley,32.80686187740,-19.20719000000,"Mecararandengo, Mutare, Manicaland Province, ZW",clinic,FALSE,,
Bvumba,32.81993865970,-19.05786000000,"Mutare, Manicaland Province, ZW",Private Clinic,FALSE,,
Bwizi,32.43558120730,-19.35569000000,"Matanda, Mutare, Manicaland Province, ZW",clinic,FALSE,,
Chiadzwa,32.33739089970,-19.61906000000,"Hot Springs, Chimanimani, Manicaland Province, ZW",Rural Health Centre,FALSE,,
Chikanga,32.64107894900,-18.96889000000,"Aerodrome Rd, Mutare, ZW",Clinic,FALSE,,
Chikwariro,32.30678176880,-19.33714000000,"Matanda, Mutare, Manicaland Province, ZW",Mission Hospital,FALSE,,
Chipendeke,32.70405960080,-19.32369000000,"Mutare, Manicaland Province, ZW",Rural Health Centre,FALSE,,
Chipfatsura,32.28535842900,-19.17347000000,"Matanda, Mutare, Manicaland Province, ZW",Clinic,FALSE,,
Chishingwi,32.40555953980,-19.60300000000,"Hot Springs, Chimanimani, Manicaland Province, ZW",Clinic,FALSE,,
Chitaka,32.48403167720,-19.12181000000,"Dangamvura, Mutare, Manicaland Province, ZW",clinic,FALSE,,
Chitakatira,32.68661117550,-19.13406000000,"Rowa, Mutare, Manicaland Province, ZW",Gvt Clinic,FALSE,,
Chitora,32.62313842770,-19.34144000000,"Mutare, Manicaland Province, ZW",Under Construction,FALSE,,
Chiwere,32.25064086910,-19.03914000000,"Buhera Road, ZW",Rural Health Centre,FALSE,,
City Clinic,32.67074966430,-18.98767000000,"2M69+XVJ, Park Rd, Mutare, ZW",Clinic,FALSE,,
Dangamvura,32.60010910030,-19.00678000000,"Dangamvura, Mutare, Manicaland Province, ZW",Clinic,FALSE,,
Dora,32.52222061160,-19.07036000000,"Mutare, Manicaland Province, ZW",clinic,FALSE,,
Fernvalley,32.65113830570,-19.03792000000,"Geraldine Rd, ZW",Clinic,FALSE,,
Florida,32.65243911740,-18.97078000000,"Devonshire Rd, Mutare, ZW",Clinic,FALSE,,
Gutaurare,32.61811065670,-19.37139000000,"Mutare, Manicaland Province, ZW",Rural Health Centre,FALSE,,
Gwindingwi,32.17253112790,-19.25650000000,"Mutare, Manicaland Province, ZW",Rural Health Centre,FALSE,,
Mambwere,32.63513946530,-19.28447000000,"Rowa, Mutare, Manicaland Province, ZW",clinic,FALSE,,
Marange,32.27425003050,-19.25336000000,"Matanda, Mutare, Manicaland Province, ZW",Rural Hospital,FALSE,,
Masasi,32.42430877690,-19.43903000000,"Mutare, Manicaland Province, ZW",clinic,FALSE,,
Zimunya,32.62342071530,-19.10036000000,"Mutare, Manicaland Province, ZW",clinic,FALSE,,
Zumbare,32.15258026120,-19.22053000000,"Mutare, Manicaland Province, ZW",clinic,FALSE,,
Mavhiza,32.23868942260,-19.50536000000,"Mutare, Manicaland Province, ZW",Clinic,FALSE,,
Mt Zuma,32.13581085210,-19.10497000000,"Buhera Road, ZW",Rural Health Centre,FALSE,,
Mukwada,32.35535812380,-19.52181000000,"Mutare, Manicaland Province, ZW",clinic,FALSE,,
Muromo,32.55638885500,-19.38897000000,"Melsetter Junction, Chimanimani, Manicaland Province, ZW",Rural Health Centre,FALSE,,
Mushunje,32.44081115720,-19.16811000000,"Matanda, Mutare, Manicaland Province, ZW",Clinic,FALSE,,
Mutare,32.67047119140,-18.96972000000,"Target Area, Mutare, Manicaland Province, ZW",Provincial Hospital,FALSE,,
Nyagundi,32.36872100830,-19.11756000000,"Odzi, Mutare, Manicaland Province, ZW",Rural Health Centre,FALSE,,
Nyamazura,32.41685867310,-18.88764000000,"Pounsley, Mutare, Manicaland Province, ZW",Rural Health Centre,FALSE,,
Nzvenga,32.37125015260,-19.35089000000,"Matanda, Mutare, Manicaland Province, ZW",clinic,FALSE,,
Odzi,32.38896942140,-18.96922000000,"Odzi, Mutare, Manicaland Province, ZW",Rural Hosp.,FALSE,,
Rowa,32.62435913090,-19.16856000000,"Rowa, Mutare, Manicaland Province, ZW",clinic,FALSE,,
Sakubva,32.65156173710,-18.98944000000,"Sakubva Rd, Mutare, ZW",District Hospital,FALSE,,
St Andrews,32.34072113040,-19.42161000000,"Mutare, Manicaland Province, ZW",Mission Hospital,FALSE,,
Zvipiripiri,32.19102859500,-19.33794000000,"Mutare, Manicaland Province, ZW",Clinic,FALSE,,
Prison Farm,32.57973000000,-18.96491000000,"Mutare, Manicaland Province, ZW",Clinic,FALSE,,
Sakubva Health Centre,32.64739000000,-18.99012000000,"2J6W+4Q5, Musa Rd, Mutare, ZW",Hospital,FALSE,,
St Joseph's,32.62497000000,-18.99814000000,"Mutare, Manicaland Province, ZW",T.B Hospital,FALSE,,
Quaggas Hoek,32.63930000000,-19.00022000000,"12 Chimanimani Rd, Mutare, ZW",Clinic,FALSE,,
St Welburgh,32.71035000000,-19.11650000000,"Mutare, Manicaland Province, ZW",Mission Clinic,FALSE,,
Chitora,32.62321000000,-19.32544000000,"Mutare, Manicaland Province, ZW",Clinic,FALSE,,
Matanda,32.40403000000,-19.24827000000,"Matanda, Mutare, Manicaland Province, ZW",Rural Health Centre,FALSE,,
ARDA Odzi,32.36755000000,-18.97483000000,"Buhera Rd, Odzi, ZW",Clinic,FALSE,,
Vumba,32.81328000000,-19.04207000000,"Mutare, Manicaland Province, ZW",Clinic,FALSE,,
Florida,32.65243911740,-18.97078000000,"Devonshire Rd, Mutare, ZW",Clinic,FALSE,,
Lee Kul,32.28185000000,-18.87699000000,"Pounsley, Mutare, Manicaland Province, ZW",Clinic,FALSE,,
Arbourfoyle,32.96710968020,-18.30217000000,"Honde Valley, Mutasa, Manicaland Province, ZW",Private Clinic,FALSE,,
Bonda,32.60338974000,-18.45428000000,"Sanyatwe, Nyanga, Manicaland Province, ZW",Mission Hospital,FALSE,,
Chavhanga,33.00321960450,-18.23625000000,"Honde Valley, Mutasa, Manicaland Province, ZW",Rural Health Centre,FALSE,,
Chisuko,33.00214004520,-18.38981000000,"Honde Valley, Mutasa, Manicaland Province, ZW",Council Clinic,FALSE,,
Chitombo,32.78974914550,-18.55269000000,"Honde Valley, Mutasa, Manicaland Province, ZW",Council Clinic,FALSE,,
Drenane,32.70674896240,-18.76931000000,"Honde Valley, Mutasa, Manicaland Province, ZW",Private-Border Timbers,FALSE,,
Eastern,32.96813964840,-18.34042000000,"Honde Valley, Mutasa, Manicaland Province, ZW",Private-Tanganda,FALSE,,
Eastern Highlands1,32.91735839840,-18.35033000000,"Honde Valley, Mutasa, Manicaland Province, ZW",Private-Tanganda,FALSE,,
Eastern Highlands5,32.95180892940,-18.35414000000,"Honde Valley, Mutasa, Manicaland Province, ZW",Private-Tanganda,FALSE,,
Fitc,32.62335968020,-18.93539000000,"Mutare, Manicaland Province, ZW",Private-Forestry,FALSE,,
Gatsi,32.81785964970,-18.52333000000,"Honde Valley, Mutasa, Manicaland Province, ZW",Mission Clinic,FALSE,,
Guta,32.65293884280,-18.74136000000,"Watsomba, Mutasa, Manicaland Province, ZW",Council Clinic,FALSE,,
Haparare,32.47261047360,-18.60322000000,"Rugoyi, Mutasa, Manicaland Province, ZW",Council Clinic,FALSE,,
Hauna,32.85197067260,-18.49153000000,"Honde Valley, Mutasa, Manicaland Province, ZW",District Hospital,FALSE,,
Hauna,32.85083007810,-18.50200000000,"Honde Valley, Mutasa, Manicaland Province, ZW",Clinic,FALSE,,
Honde,32.76974868770,-18.60322000000,"Honde Valley, Mutasa, Manicaland Province, ZW",Mission Hospital,FALSE,,
Jombe,32.70233154300,-18.63772000000,"Honde Valley, Mutasa, Manicaland Province, ZW",Gvt Clinic,FALSE,,
Katiyo,33.03453063960,-18.37128000000,"Honde Valley, Mutasa, Manicaland Province, ZW",Private-Tanganda,FALSE,,
Mapara,32.65219116210,-18.78369000000,"Watsomba, Mutasa, Manicaland Province, ZW",Gvt Clinic,FALSE,,
Zindi,32.93635940550,-18.38922000000,"Honde Valley, Mutasa, Manicaland Province, ZW",Clinic,FALSE,,
Zongoro,32.58777999880,-18.78931000000,"Watsomba, Mutasa, Manicaland Province, ZW",Council Clinic,FALSE,,
Moyoweshumba,32.67235946660,-18.67472000000,"Honde Valley, Mutasa, Manicaland Province, ZW",Council Clinic,FALSE,,
Mt Jenya,32.50263977050,-18.75283000000,"Watsomba, Mutasa, Manicaland Province, ZW",Council Clinic,FALSE,,
Mundeya,32.98957824710,-18.42250000000,"Honde Valley, Mutasa, Manicaland Province, ZW",Clinic,FALSE,,
Mupotedzi,32.80147171020,-18.57139000000,"Honde Valley, Mutasa, Manicaland Province, ZW",Gvt Clinic,FALSE,,
Mutasa,32.65393829350,-18.55447000000,"Honde Valley, Mutasa, Manicaland Province, ZW",Council Clinic,FALSE,,
Ngarura,32.87152862550,-18.58803000000,"Honde Valley, Mutasa, Manicaland Province, ZW",Council clinic,FALSE,,
Old Mutare,32.58803176880,-18.90747000000,"Irene, Mutare, Manicaland Province, ZW",Mission Hospital,FALSE,,
Red Wing,32.67213821410,-18.87100000000,"Penalonga, Mutasa, Manicaland Province, ZW",Private-Mine,FALSE,,
Ruda,32.87477874760,-18.48797000000,"Honde Valley, Mutasa, Manicaland Province, ZW",Clinic,FALSE,,
Rupinda,32.85655975340,-18.63775000000,"Honde Valley, Mutasa, Manicaland Province, ZW",Rural Health Centre,FALSE,,
Sadziwa,32.55828094480,-18.50056000000,"Honde Valley, Mutasa, Manicaland Province, ZW",Council Clinic,FALSE,,
Sagambe,33.00286102290,-18.32481000000,"Honde Valley, Mutasa, Manicaland Province, ZW",Council Clinic,FALSE,,
Sahumani,32.82027816770,-18.55569000000,"Honde Valley, Mutasa, Manicaland Province, ZW",Council Clinic,FALSE,,
Sakupwanya,32.65560913090,-18.60747000000,"Honde Valley, Mutasa, Manicaland Province, ZW",Council Clinic,FALSE,,
Samanga,32.75527954100,-18.53369000000,"Honde Valley, Mutasa, Manicaland Province, ZW",Council clinic,FALSE,,
Samaringa,32.78430938720,-18.62308000000,"Honde Valley, Mutasa, Manicaland Province, ZW",Council clinic,FALSE,,
Selbourne,32.65763854980,-18.53556000000,"Honde Valley, Mutasa, Manicaland Province, ZW",Private-Waltle Company,FALSE,,
Sheba,32.80480957030,-18.77103000000,"6RH3+HW Stapleford, ZW",Private-Border Timbers,FALSE,,
Sherukuru,32.53636169430,-18.64078000000,"Honde Valley, Mutasa, Manicaland Province, ZW",Rural Health Centre,FALSE,,
St Augustines,32.65549850460,-18.87431000000,"Penalonga, Mutasa, Manicaland Province, ZW",Mission Clinic,FALSE,,
St Barbaras,32.47352981570,-18.50311000000,"Sanyatwe, Nyanga, Manicaland Province, ZW",Mission Hospitals,FALSE,,
St Peter's Mandeya,32.93996810910,-18.45806000000,"Honde Valley, Mutasa, Manicaland Province, ZW",Mission Hospital,FALSE,,
Stapleford,32.82181167600,-18.74047000000,"7R5C+RP Stapleford, ZW",Private-Forestry,FALSE,,
Triashill,32.47303009030,-18.43531000000,"Sanyatwe, Nyanga, Manicaland Province, ZW",Mission Hospitals,FALSE,,
Tsonzo,32.60324859620,-18.68836000000,"Watsomba, Mutasa, Manicaland Province, ZW",Rural Hospital,FALSE,,
Chinamasa,32.57098000000,-18.57828000000,"Honde Valley, Mutasa, Manicaland Province, ZW",Rural Health Centre,FALSE,,
Premier,32.54691000000,-18.90384000000,"Irene, Mutare, Manicaland Province, ZW",Clinic,FALSE,,
Drennan,32.70662000000,-18.76903000000,"Honde Valley, Mutasa, Manicaland Province, ZW",Clinic,FALSE,,
Dunsinane,32.75301000000,-18.74492000000,"Honde Valley, Mutasa, Manicaland Province, ZW",Clinic,FALSE,,
Imbeza,32.72091000000,-18.91068000000,"Mutare, Manicaland Province, ZW",Clinic,FALSE,,
EHPL 1,32.91599000000,-18.34948000000,"Honde Valley, Mutasa, Manicaland Province, ZW",Clinic,FALSE,,
EHPL 6,32.96527000000,-18.32585000000,"Honde Valley, Mutasa, Manicaland Province, ZW",Clinic,FALSE,,
EHPL 5,32.95193000000,-18.34585000000,"Honde Valley, Mutasa, Manicaland Province, ZW",Clinic,FALSE,,
Nyanga Pines,32.65771000000,-18.53106000000,"Honde Valley, Mutasa, Manicaland Province, ZW",Clinic,FALSE,,
Charewa,32.15361022950,-17.17356000000,"Mutoko, Mashonaland East Province, ZW",Rural Health Centre,FALSE,,
Chindenga,32.10519027710,-17.23619000000,"Mutoko, Mashonaland East Province, ZW",Rural Health Centre,FALSE,,
Hoyuyu 1,32.15555953980,-17.56853000000,"Hoyuyu, Murehwa, Mashonaland East Province, ZW",Rural Health Centre,FALSE,,
Hoyuyu 2,32.25149917600,-17.76861000000,"Makoni, Mashonaland East Province, ZW",Rural Health Centre,FALSE,,
Katsukunya,32.15468978880,-17.40781000000,"Mutoko, Mashonaland East Province, ZW",Rural Health Centre,FALSE,,
Kawewe,32.35289001460,-17.21972000000,"Suswe, Mudzi, Mashonaland East Province, ZW",Rural Health Centre,FALSE,,
Kushinga,32.02027893070,-17.62114000000,"Hoyuyu, Murehwa, Mashonaland East Province, ZW",Rural Health Centre,FALSE,,
Louisa Guidotte,32.38985824580,-17.35572000000,"Mutoko, Mashonaland East Province, ZW",Mission Hospital,FALSE,,
Makosa,32.47161102290,-17.26753000000,"Makosa Business Centre, Mutoko, Mashonaland East Province, ZW",Rural Hospital,FALSE,,
Matedza,32.43708038330,-17.55014000000,"Makoni, Mashonaland East Province, ZW",Rural Health Centre,FALSE,,
Mutemwa Lep.,32.25355911250,-17.41978000000,"Mutoko, Mashonaland East Province, ZW",Clinic,FALSE,,
Mutoko,32.23860931400,-17.42342000000,"Mutoko, Mashonaland East Province, ZW",District Hospital,FALSE,,
Nyamuzizi,32.35602951050,-17.63819000000,"Makoni, Mashonaland East Province, ZW",Rural Health Centre,FALSE,,
Nyamuzuwe,32.25418853760,-17.25403000000,"Mutoko, Mashonaland East Province, ZW",Rural Hospital,FALSE,,
Nzira,32.13711166380,-17.66817000000,"Hoyuyu, Murehwa, Mashonaland East Province, ZW",Rural Health Centre,FALSE,,
Chidye,32.62211000000,-17.45294000000,"Nyanga, Mashonaland East Province, ZW",Rural Health Centre,FALSE,,
Madimutsa,32.31187000000,-17.14878000000,"Nyamkoho Twp, Mudzi, Mashonaland East Province, ZW",Rural Health Centre,FALSE,,
Chikondoma,32.25070000000,-17.39984000000,"Mutoko, Mashonaland East Province, ZW",Clinic,FALSE,,
Kawazva,32.26708000000,-17.17914000000,"Nyamkoho Twp, Mudzi, Mashonaland East Province, ZW",Clinic,FALSE,,
Tony Yeatman,32.27008000000,-17.41193000000,"Mutoko, Mashonaland East Province, ZW",Clinic,FALSE,,
Nyadire Resettlement,31.96282000000,-17.49227000000,"Nyadire, Mutoko, Mashonaland East Province, ZW",Rural Health Centre,FALSE,,
Kapondoro,32.48000000000,-17.37350000000,"Makosa Business Centre, Mutoko, Mashonaland East Province, ZW", RHC,FALSE,,
Kowo ,32.30950000000,-17.25460000000,"Suswe, Mudzi, Mashonaland East Province, ZW",Clinic,FALSE,,
Mother of Peace,32.27000000000,-17.41190000000,"Mutoko, Mashonaland East Province, ZW",Clinic,FALSE,,
Mushimbo,32.39470000000,-17.42820000000,"Mutoko, Mashonaland East Province, ZW", RHC,FALSE,,
Mutoko ,32.21920000000,-17.40880000000,"Mutoko, Mashonaland East Province, ZW",Clinic,FALSE,,
Nyadire ,32.02500000000,-17.42200000000,"Nyadire, Mutoko, Mashonaland East Province, ZW", Hosp,FALSE,,
Nyadiri,31.96270000000,-17.49230000000,"Nyadire, Mutoko, Mashonaland East Province, ZW", RHC,FALSE,,
Chimbudzi,30.50610923770,-20.94306000000,"Neshuro, Chivi, Masvingo Province, ZW",Clinic,FALSE,,
Chirindi,30.18000030520,-21.11611000000,"Mwenezi, Masvingo Province, ZW",Clinic,FALSE,,
Chizumba,30.57250022890,-21.13972000000,"Mwenezi, Masvingo Province, ZW",Clinic,FALSE,,
Dine,30.53861045840,-21.19056000000,"Mwenezi, Masvingo Province, ZW",Clinic,FALSE,,
Lundi,30.78166961670,-20.89750000000,"Runde, Chivi, Masvingo Province, ZW",Clinic,FALSE,,
Maranda,30.31583023070,-21.14583000000,"Mwenezi, Masvingo Province, ZW",Clinic,FALSE,,
Matibi,30.48611068730,-20.75028000000,"Chivi, Masvingo Province, ZW",Mission Hospital,FALSE,,
Mazetese,30.30528068540,-21.04639000000,"Mwenezi, Masvingo Province, ZW",Clinic,FALSE,,
MDC,30.62611007690,-21.36028000000,"Mwenezi, Masvingo Province, ZW",Clinic,FALSE,,
Mulelesi,30.05916976930,-21.21417000000,"Mwenezi, Masvingo Province, ZW",Clinic,FALSE,,
Munyanyi,30.52471923830,-21.30167000000,"Mwenezi, Masvingo Province, ZW",Clinic,FALSE,,
Murove,30.42444038390,-21.05917000000,"Mwenezi, Masvingo Province, ZW",Clinic,FALSE,,
Mushava,30.58389091490,-21.07639000000,"Neshuro, Mwenezi, Masvingo Province, ZW",Clinic,FALSE,,
Mwenezi,30.70000076290,-21.41417000000,"Mwenezi, Masvingo Province, ZW",Clinic,FALSE,,
Nehanda,30.60277938840,-20.82833000000,"Neshuro, Chivi, Masvingo Province, ZW",Clinic,FALSE,,
Neshuro,30.64666938780,-20.94083000000,"Neshuro, Chivi, Masvingo Province, ZW",District Hospital,FALSE,,
Rutenga,30.72944068910,-21.23778000000,"Rutenga, Mwenezi, Masvingo Province, ZW",Clinic,FALSE,,
Rutenga RWS,30.74333000180,-21.25361000000,"Rutenga, Mwenezi, Masvingo Province, ZW",Railways-clinic,FALSE,,
Boterere,30.26423000000,-21.23095000000,"Mwenezi, Masvingo Province, ZW",Rural Health Centre,FALSE,,
Marinda,30.39756000000,-21.20691000000,"Mwenezi, Masvingo Province, ZW",Rural Health Centre,FALSE,,
Petronella,30.89483000000,-20.96429000000,"Runde, Chivi, Masvingo Province, ZW",Rural Health Centre(not operational),FALSE,,
Maryvale,30.81042000000,-21.08266000000,"Chivi, Masvingo Province, ZW",Rural Health Centre(not operating),FALSE,,
Dakamela,28.66666984560,-18.79722000000,"Dagamella, Nkayi, Matabeleland North Province, ZW",Rural Hospital,FALSE,,
Fanison,28.88582992550,-18.91583000000,"Nkayi, Matabeleland North Province, ZW",Rural Health Centre,FALSE,,
Guwe,28.96777915950,-19.21444000000,"Guwe School, Nkayi, Matabeleland North Province, ZW",Rural Health Centre,FALSE,,
Gwelutshena,28.70889091490,-18.66306000000,"Gwelutshena, Nkayi, Matabeleland North Province, ZW",Rural Health Centre,FALSE,,
Zenka,28.77305984500,-19.07000000000,"Mabaye, Nkayi, Matabeleland North Province, ZW",Rural Health Centre,FALSE,,
Zinyangeni,28.98805999760,-19.07778000000,"Nkayi, Matabeleland North Province, ZW",Rural Health Centre,FALSE,,
Mateme,28.95722007750,-18.66917000000,"Nkayi, Matabeleland North Province, ZW",Rural Health Centre,FALSE,,
Mbuma,28.44166946410,-18.94889000000,"Mbuma, Nkayi, Matabeleland North Province, ZW",Mission Hospital,FALSE,,
Nesigwe,28.81167030330,-18.72778000000,"Chief Madhliwa, Nkayi, Matabeleland North Province, ZW",Rural Health Centre,FALSE,,
Ngwaladi,28.37972068790,-18.57667000000,"Nkayi, Matabeleland North Province, ZW",Rural Hospital,FALSE,,
Nkayi,28.89138984680,-19.00056000000,"Nkayi, Matabeleland North Province, ZW",District Hospital,FALSE,,
Sebumane,28.46138954160,-18.67028000000,"Chief Sikobokobo, Nkayi, Matabeleland North Province, ZW",Clinic,FALSE,,
Sesame,28.71249961850,-18.95500000000,"Mabaye, Nkayi, Matabeleland North Province, ZW",Clinic,FALSE,,
Sikobokobo,28.48749923710,-18.78250000000,"Chief Sikobokobo, Nkayi, Matabeleland North Province, ZW",Clinic,FALSE,,
Sivalo,28.35139083860,-18.74306000000,"Chief Sivalo, Nkayi, Matabeleland North Province, ZW",Rural Health Centre,FALSE,,
Avilla,32.78696823120,-17.46947000000,"Nyanga, Manicaland Province, ZW",Mission Hospital,FALSE,,
Chitindo,32.98421859740,-17.79064000000,"Nyanga, Manicaland Province, ZW",Council Clinic,FALSE,,
Chiwarira,31.57185935970,-17.15781000000,"Shamva, Mashonaland Central Province, ZW",Council Clinic,FALSE,,
Dombo,32.43803024290,-18.35139000000,"Nyanga, Manicaland Province, ZW",Rural Health Centre,FALSE,,
Elim,32.78955841060,-17.60311000000,"Nyanga, Manicaland Province, ZW",Mission Hospital,FALSE,,
Erin,32.70222091670,-18.38350000000,"Juliasdale, Nyanga, Manicaland Province, ZW",Forestry-Private,FALSE,,
Fombe,32.99074935910,-17.33472000000,"Fombe, Nyanga, Manicaland Province, ZW",Council Clinic,FALSE,,
Gairezi,32.95471954350,-18.10139000000,"Madziwanzira, Nyanga, Manicaland Province, ZW",Council Clinic,FALSE,,
Gotekote,32.67319107060,-17.71917000000,"Madioma, Nyanga, Manicaland Province, ZW",Rural Health Centre,FALSE,,
Kambudzi,32.86796951290,-17.78936000000,"Madioma, Nyanga, Manicaland Province, ZW",Conucil Not Open,FALSE,,
Matize,32.92385864260,-17.57161000000,"Nyanga, Manicaland Province, ZW",Rural Health Centre,FALSE,,
Mt Mellary,32.73577880860,-17.97469000000,"Nyanga, Manicaland Province, ZW",Mission Hospital,FALSE,,
Nyadowa,32.92171859740,-17.75789000000,"Nyanga, Manicaland Province, ZW",Council Clinic,FALSE,,
Nyafaru,32.93111038210,-18.18917000000,"Honde Valley, Mutasa, Manicaland Province, ZW",Council Clinic,FALSE,,
Nyamaropa,32.95360946660,-17.86250000000,"Nyanga, Manicaland Province, ZW",Council Clinic,FALSE,,
Nyamombe,32.55833053590,-17.75681000000,"Nyanga, Manicaland Province, ZW",Rural Health Centre,FALSE,,
Nyanga,32.75753021240,-18.22828000000,"Nyanga, Manicaland Province, ZW",District Hospital,FALSE,,
Nyangui,32.78535842900,-18.02061000000,"Nyanga, Manicaland Province, ZW",Forestry-Private,FALSE,,
Nyarumvurwe,32.65750122070,-18.22350000000,"Nyanga, Manicaland Province, ZW",Rural Health Centre,FALSE,,
Nyatate,32.67203140260,-18.01797000000,"Nyanga, Manicaland Province, ZW",Council clinic,FALSE,,
Nyautate,32.65502929690,-17.84089000000,"Madioma, Nyanga, Manicaland Province, ZW",Rural Health Centre,FALSE,,
Regina Coeli,32.88499832150,-17.86889000000,"Madioma, Nyanga, Manicaland Province, ZW",Mission Hospital,FALSE,,
Ruchera,32.55397033690,-18.11878000000,"Nyanga, Manicaland Province, ZW",Rural Health Centre,FALSE,,
Samvure,32.97138977050,-17.71872000000,"Nyanga, Manicaland Province, ZW",Council Clinic,FALSE,,
Tombo,32.88388824460,-18.01750000000,"Madziwanzira, Nyanga, Manicaland Province, ZW",Council Clinic,FALSE,,
Mutarazi,32.75299000000,-18.45790000000,"Honde Valley, Mutasa, Manicaland Province, ZW",Clinic,FALSE,,
Claremont,32.70164000000,-18.32787000000,"Juliasdale, Nyanga, Manicaland Province, ZW",Clinic,FALSE,,
Spring Valley,32.54565000000,-18.37110000000,"Sanyatwe, Nyanga, Manicaland Province, ZW",Clinic,FALSE,,
Aberfoyle,32.67350000000,-18.30215000000,"Juliasdale, Nyanga, Manicaland Province, ZW",Clinic,FALSE,,
Bungwe,32.06782150270,-16.56635000000,"Chimhanda, Rushinga, Mashonaland Central Province, ZW",Clinic,FALSE,,
Chimandau,32.56536865230,-16.65597000000,"Rushinga, Mashonaland Central Province, ZW",Clinic,FALSE,,
Chimhanda,32.12905120850,-16.63128000000,"949H+FMM, Chimhanda Rd, Chimhanda, ZW",Clinic,FALSE,,
Mary Mount,32.52962875370,-16.67677000000,"Rushinga, Mashonaland Central Province, ZW",Mission Hospital,FALSE,,
Mazowe,32.27703094480,-16.75513000000,"Rushinga, Mashonaland Central Province, ZW",Clinic,FALSE,,
Mukonde,32.29872894290,-16.61053000000,"Rusambo, Rushinga, Mashonaland Central Province, ZW",Clinic,FALSE,,
Mukosa,32.65610122680,-16.65855000000,"Mudzi, Mashonaland East Province, ZW",Clinic,FALSE,,
Nhawa,32.16561889650,-16.57892000000,"Chimhanda, Rushinga, Mashonaland Central Province, ZW",Clinic,FALSE,,
Nyamatikiti,32.10972976680,-16.73908000000,"Chimhanda, Rushinga, Mashonaland Central Province, ZW",Clinic,FALSE,,
Rusambo,32.18284988400,-16.62985000000,"Rusambo, Rushinga, Mashonaland Central Province, ZW",Clinic,FALSE,,
Rushinga,32.02153015140,-16.63225000000,"Kudjwara, Rushinga, Mashonaland Central Province, ZW",Clinic,FALSE,,
Chimnda,32.12820000000,-16.63830000000,"Chimhanda, Rushinga, Mashonaland Central Province, ZW",Clinic,FALSE,,
Acton Ronolds,31.03853034970,-18.35294000000,"Masasa Resettlement Village One, Marondera, Mashonaland East Province, ZW",Rural Health Centre,FALSE,,
Arbo Acres,30.94105911250,-17.94144000000,"Harare, Harare Province, ZW",Clinic,FALSE,,
Beatrice,30.85577964780,-18.25661000000,"Beatrice, Seke, Mashonaland East Province, ZW",Rural Hospital,FALSE,,
Charakupa,31.33643913270,-18.17086000000,"Chomwedzi, Marondera, Mashonaland East Province, ZW",Clinic,FALSE,,
Chitungwiza,31.07164001460,-18.01744000000,"Chitungwiza, Seke, Mashonaland East Province, ZW",General Hospital,FALSE,,
Derbyshire,31.03632926940,-17.95647000000,"Harare, Harare Province, ZW",Clinic,FALSE,,
Gilston,30.95022010800,-18.02458000000,"Chitungwiza, Seke, Mashonaland East Province, ZW",Clinic,FALSE,,
Jonasi,31.13467025760,-18.05411000000,"Chitungwiza, Seke, Mashonaland East Province, ZW",Clinic,FALSE,,
Kunaka,31.22196960450,-18.07236000000,"Dema, Seke, Mashonaland East Province, ZW",Rural Hospital,FALSE,,
Lanark,30.90024948120,-18.06819000000,"Excelsior, Seke, Mashonaland East Province, ZW",Clinic,FALSE,,
Makanyazingwa,31.40163993840,-18.20086000000,"Seke Road, ZW",Clinic,FALSE,,
Masasa,31.10333061220,-18.41806000000,"Masasa, Marondera, Mashonaland East Province, ZW",Rural Health Centre,FALSE,,
Muda,31.01985931400,-18.29000000000,"Jirira, Marondera, Mashonaland East Province, ZW",Clinic,FALSE,,
Ringa,30.95043945310,-18.48839000000,"Mantlavina, Chikomba, Mashonaland East Province, ZW",Rural Health Centre,FALSE,,
Epworth  ,31.12710000000,-17.87950000000,"Epworth, Harare Province, ZW",Poly Clinic,FALSE,,
Epworth ,31.13950000000,-17.89940000000,"Epworth, Harare Province, ZW",Mission Clinic,FALSE,,
Marirangwe ,30.80360000000,-18.07270000000,"Marirangwe Rd, ZW",Clinic,FALSE,,
Zhakata ,31.20970000000,-18.14570000000,"Ushewokunze, Marondera, Mashonaland East Province, ZW",RHC,FALSE,,
Overspill,31.15650000000,-17.88480000000,"Epworth, Harare Province, ZW",Satellite Clinic,FALSE,,
Bromley,31.32120000000,-18.08010000000,"Bromley, Goromonzi, Mashonaland East Province, ZW",Clinic,FALSE,,
Chakonda,31.60335922240,-17.02592000000,"Shamva Rd, ZW",Clinic,FALSE,,
Chidembo,31.56686019900,-17.08352000000,"Changata, Shamva, Mashonaland Central Province, ZW",Clinic,FALSE,,
Chihuri,31.55051994320,-16.87733000000,"Goora, Shamva, Mashonaland Central Province, ZW",Clinic,FALSE,,
Chindunduma,31.52795028690,-16.97833000000,"Changata, Shamva, Mashonaland Central Province, ZW",Clinic,FALSE,,
Chishapa,31.60021972660,-17.20986000000,"Shamva, Mashonaland Central Province, ZW",Clinic,FALSE,,
Goora,31.51667022710,-16.91667000000,"Goora, Shamva, Mashonaland Central Province, ZW",Clinic,FALSE,,
Madziva Mine,31.65596961980,-17.06192000000,"Makhakhi, Shamva, Mashonaland Central Province, ZW",Clinic,FALSE,,
Madziwa,31.53878021240,-16.92558000000,"Goora, Shamva, Mashonaland Central Province, ZW",Clinic,FALSE,,
Madziwa,31.65827941890,-17.06986000000,"Makhakhi, Shamva, Mashonaland Central Province, ZW",Mine Clinic,FALSE,,
Wadzanai,31.57036018370,-17.30539000000,"Shamva, Mashonaland Central Province, ZW",Clinic,FALSE,,
Shamva,31.57152938840,-17.29208000000,"Shamva, Mashonaland Central Province, ZW",Clinic,FALSE,,
Shamva,31.57016944890,-17.32711000000,"Shamva, Mashonaland Central Province, ZW",District Hospital,FALSE,,
Shamva,31.65769004820,-17.25022000000,"Shamva, Mashonaland Central Province, ZW",Farm Health Clinic,FALSE,,
Shamva Gold Mine,31.56876945500,-17.31627000000,"Shamva, Mashonaland Central Province, ZW",Clinic,FALSE,,
Tafuna,31.51815032960,-17.32889000000,"Shamva-Bindura Rd, ZW",Clinic,FALSE,,
Zvomanyanga,31.66214942930,-16.91072000000,"Zvomanyanga, Shamva, Mashonaland Central Province, ZW",Clinic,FALSE,,
Nyamaruro,31.41414000000,-16.95150000000,"Bradley Institute, Shamva, Mashonaland Central Province, ZW",Rural Health Centre,FALSE,,
Nyamaropa,31.51339000000,-17.04933000000,"Changata, Shamva, Mashonaland Central Province, ZW",Rural Health Centre,FALSE,,
Takawira,31.61624000000,-17.02528000000,"Shamva Rd, ZW",Rural Health Centre,FALSE,,
Madziva Teacher's College,31.65505000000,-17.06193000000,"Makhakhi, Shamva, Mashonaland Central Province, ZW",Rural Health Centre,FALSE,,
Mupfurudzi,31.65780000000,-16.93440000000,"Zvomanyanga, Shamva, Mashonaland Central Province, ZW",Rural Health Centre,FALSE,,
mliti ,31.49090000000,-17.37390000000,"Shamva, Mashonaland Central Province, ZW",Clinic,FALSE,,
chipoli ,31.68410000000,-17.24310000000,"Shamva, Mashonaland Central Province, ZW",Clinic,FALSE,,
Banga,30.26968955990,-19.97475000000,"Masuma, Chivi, Midlands Province, ZW",Clinic,FALSE,,
Chikato,30.30253028870,-19.81733000000,"Shurugwi, Midlands Province, ZW",Rural Health Centre,FALSE,,
Chironde,30.10330963130,-19.67347000000,"Selukwe, Shurugwi, Midlands Province, ZW",Clinic,FALSE,,
Chitora,30.33897018430,-19.57206000000,"Shurugwi, Midlands Province, ZW",Rural Health Centre,FALSE,,
Gundura,30.08336067200,-19.88494000000,"Chikomo, Shurugwi, Midlands Province, ZW",Clinic,FALSE,,
Gwanza,30.38903045650,-19.78753000000,"Chirumhanzu, Midlands Province, ZW",Rural Health Centre,FALSE,,
Hanke,30.16764068600,-19.65592000000,"Marira, Shurugwi, Midlands Province, ZW",Clinic,FALSE,,
Jobolinko,30.28710937500,-19.68503000000,"Shurugwi, Midlands Province, ZW",Clinic,FALSE,,
Marishongwe,30.01932907100,-19.87072000000,"Chikomo, Shurugwi, Midlands Province, ZW",Rural Health Centre,FALSE,,
Zvamabande,30.13594055180,-19.80181000000,"Marira, Shurugwi, Midlands Province, ZW",Rural Hospital,FALSE,,
Mazibisa,30.25642013550,-19.85550000000,"Marira, Shurugwi, Midlands Province, ZW",Clinic,FALSE,,
Nhema,30.22019004820,-19.61906000000,"Shurugwi, Midlands Province, ZW",Clinic,FALSE,,
Pakame,30.04083061220,-19.93808000000,"Chikomo, Shurugwi, Midlands Province, ZW",Clinic,FALSE,,
Rockford,30.30810928340,-19.75194000000,"Rockford Road, ZW",Clinic,FALSE,,
Rusike,30.13622093200,-19.90139000000,"Chuni Road, ZW",Clinic,FALSE,,
Shurugwi,30.00116920470,-19.67286000000,"Selukwe, Shurugwi, Midlands Province, ZW",District Hospital,FALSE,,
Svika,30.25432968140,-19.57464000000,"Shurugwi, Midlands Province, ZW",Clinic,FALSE,,
Tana,30.30574989320,-19.88975000000,"Shurugwi, Midlands Province, ZW",Rural Health Centre,FALSE,,
Tongogara,30.20760917660,-19.72044000000,"Marira, Shurugwi, Midlands Province, ZW",Clinic,FALSE,,
Zvarota,30.22117042540,-19.55650000000,"Shurugwi, Midlands Province, ZW",Rural Health Centre,FALSE,,
Dorset,29.81333000000,-19.95071000000,"Kashambi, Shurugwi, Midlands Province, ZW",Clinic,FALSE,,
Peak Mine,30.01086000000,-19.71792000000,"Selukwe, Shurugwi, Midlands Province, ZW",Clinic,FALSE,,
Chrome Mines,29.99334000000,-19.65205000000,"Shurugwi, Midlands Province, ZW",Hospital,FALSE,,
Ironsides,30.00893000000,-19.67355000000,"Selukwe, Shurugwi, Midlands Province, ZW",Clinic,FALSE,,
Makusha,29.99906000000,-19.67596000000,"Shurugwi, Midlands Province, ZW",Clinic,FALSE,,
Bubude,27.81193923950,-20.10000000000,"Shaba, Tsholotsho, Matabeleland North Province, ZW",Clinic,FALSE,,
Jimila,27.73860931400,-19.49333000000,"Jimira, Lupane, Matabeleland North Province, ZW",Clinic,FALSE,,
Kapane,27.51749992370,-19.26056000000,"Maswi, Tsholotsho, Matabeleland North Province, ZW",Not Open,FALSE,,
Madlamombe,27.50806045530,-19.77528000000,"Nemani School, Tsholotsho, Matabeleland North Province, ZW",Clinic,FALSE,,
Makaza,27.19194030760,-17.94944000000,"Mibizi, Binga, Matabeleland North Province, ZW",Clinic,FALSE,,
Mlagisa,27.66749954220,-19.15111000000,"Bayi Bayi, Matabeleland North Province, ZW",Rural Health centre,FALSE,,
Mtshayeli,27.08860969540,-18.35889000000,"Kamativi, Hwange, Matabeleland North Province, ZW",Clinic,FALSE,,
Nkunzi,27.88861083980,-20.10056000000,"Zuzumba, Tsholotsho, Matabeleland North Province, ZW",Rural Health centre,FALSE,,
Panedziba,27.57139015200,-19.46944000000,"Hangapu, Tsholotsho, Matabeleland North Province, ZW",Clinic,FALSE,,
Pumula,27.09139060970,-19.59306000000,"Pamula, Tsholotsho, Matabeleland North Province, ZW",Mission Hospital,FALSE,,
Sipepa,27.65500068660,-19.28667000000,"Gwai, Tsholotsho, Matabeleland North Province, ZW",Rural Hospital,FALSE,,
Sodaka,27.08416938780,-19.39889000000,"Egagwini, Hwange, Matabeleland North Province, ZW",Rural Health centre,FALSE,,
T. Urban,27.75278091430,-19.76694000000,"Tsholotsho, Matabeleland North Province, ZW",Clinic,FALSE,,
Tsholotsho,27.75527954100,-19.77278000000,"Tsholotsho, Matabeleland North Province, ZW",District Hospital,FALSE,,
Bemba,27.27332000000,-19.45289000000,"Bemba, Tsholotsho, Matabeleland North Province, ZW",Conucil Not Open,FALSE,,
Sikente,27.35356000000,-19.78716000000,"Mgodi Masili, Tsholotsho, Matabeleland North Province, ZW",Clinic,FALSE,,
Chefunye,27.80185000000,-20.09030000000,"Shaba, Tsholotsho, Matabeleland North Province, ZW",Council Clinic(Construction),FALSE,,
Samahuru,27.18993000000,-19.48617000000,"Lupondo, Tsholotsho, Matabeleland North Province, ZW",Clinic,FALSE,,
Makaza,27.64581000000,-19.93546000000,"Gwesi, Tsholotsho, Matabeleland North Province, ZW",Rural Health Centre,FALSE,,
Dlamini,27.40600000000,-19.49990000000,"Dlamini, Tsholotsho, Matabeleland North Province, ZW",council clinic,FALSE,,
Shaba,27.72390000000,-20.04300000000,"Shaba, Tsholotsho, Matabeleland North Province, ZW",council clinic,FALSE,,
Bhekeni,28.80167007450,-20.01194000000,"Ntabazinduna, Umzingwane, Matabeleland North Province, ZW",Rural Health Centre,FALSE,,
Clay Products,28.69499969480,-20.11028000000,"Bulawayo, Bulawayo Province, ZW",Private Clinic,FALSE,,
Fair bridge,28.70000076290,-20.09917000000,"Bulawayo, Bulawayo Province, ZW",Clinic,FALSE,,
Fingo,28.89417076110,-19.96750000000,"Ntabazinduna, Umzingwane, Matabeleland North Province, ZW",Clinic,FALSE,,
Igusi,28.07416915890,-19.66111000000,"Igusi, Umguza, Matabeleland North Province, ZW",Clinic,FALSE,,
Insuza,28.32722091670,-19.49306000000,"Bubi, Matabeleland North Province, ZW",Rural Health centre,FALSE,,
Ntabazinduna,28.84556007390,-19.97944000000,"Ntabazinduna, Umzingwane, Matabeleland North Province, ZW",Clinic,FALSE,,
Nyamandlovu,28.26556015010,-19.85889000000,"Nyamandhlovu, Umguza, Matabeleland North Province, ZW",Hospital,FALSE,,
PMD,28.57666969300,-20.15528000000,"RHVG+RJ7, Mortuary Rd, Bulawayo, ZW",Matebeleland North,FALSE,,
Unicem,28.68499946590,-20.11861000000,"Bulawayo, Bulawayo Province, ZW",Private Clinic,FALSE,,
Redwood,28.41426000000,-19.73884000000,"Umguza, Matabeleland North Province, ZW",Clinic,FALSE,,
Muntu,28.00600000000,-19.91210000000,"Zuzumba, Tsholotsho, Matabeleland North Province, ZW",Clinic,FALSE,,
Mbembesi,28.32890000000,-19.49380000000,"Bubi, Matabeleland North Province, ZW",Rural Health Centre,FALSE,,
T.G Silundika,28.19230000000,-19.94870000000,"Nyamandhlovu, Umguza, Matabeleland North Province, ZW",Rural Health Centre,FALSE,,
St. James ,28.05530000000,-19.95050000000,"Nyamandhlovu, Umguza, Matabeleland North Province, ZW",Mission Clinic,FALSE,,
Muntu,28.00590000000,-19.91200000000,"Zuzumba, Tsholotsho, Matabeleland North Province, ZW",Rural Health Centre,FALSE,,
Khami D Clinic,28.39900000000,-20.06540000000,"Bulawayo, Bulawayo Province, ZW",Prison Clinic,FALSE,,
Khami Medium Clinic,28.39260000000,-20.06170000000,"Bulawayo, Bulawayo Province, ZW",Prison Clinic,FALSE,,
Mlondolozi,28.39530000000,-20.06380000000,"Bulawayo, Bulawayo Province, ZW",Prison Clinic,FALSE,,
Khami Remand ,28.39620000000,-20.06620000000,"Bulawayo, Umguza, Bulawayo Province, ZW",Prison Clinic,FALSE,,
Khami Maximum,28.40280000000,-20.06660000000,"Bulawayo, Bulawayo Province, ZW",Prison Clinic,FALSE,,
Khami Prison Staff clnc,28.40570000000,-20.06883000000,"Bulawayo, Bulawayo Province, ZW",Prison Clinic,FALSE,,
Borera,31.97611045840,-17.02083000000,"Mutawatawa, UMP, Mashonaland East Province, ZW",Clinic,FALSE,,
Chipfunde,31.93416976930,-17.22472000000,"Mutawatawa, UMP, Mashonaland East Province, ZW",Clinic,FALSE,,
Chitimbe,31.78360939030,-17.45139000000,"Nhakiwa, UMP, Mashonaland East Province, ZW",Clinic,FALSE,,
Chitsungo,32.07389068600,-16.94528000000,"Chitsungo, Rushinga, Mashonaland East Province, ZW",Clinic,FALSE,,
Dindi,32.08777999880,-16.88000000000,"Chitsungo, UMP, Mashonaland East Province, ZW",Mission Hospital,FALSE,,
Gaula,32.09917068480,-16.99611000000,"Chitsungo, UMP, Mashonaland East Province, ZW",Clinic(Not Open),FALSE,,
Kafura,32.25278091430,-16.84306000000,"Rushinga, Mashonaland East Province, ZW",Rural Health Centre,FALSE,,
Karimbika,32.01472091670,-17.31306000000,"Nyadire, Mutoko, Mashonaland East Province, ZW",Rural Health Centre,FALSE,,
Katiyo,31.84056091310,-17.22250000000,"Katiyo, UMP, Mashonaland East Province, ZW",Clinic,FALSE,,
Manyika,31.89611053470,-17.36028000000,"Nhakiwa, UMP, Mashonaland East Province, ZW",Clinic,FALSE,,
Maramba,31.98500061040,-17.03667000000,"Mutawatawa, UMP, Mashonaland East Province, ZW",Clinic,FALSE,,
Muskwe,31.97639083860,-17.40333000000,"Nyadire, Mutoko, Mashonaland East Province, ZW",Clinic,FALSE,,
Mutawatawa,31.97389030460,-17.12139000000,"Mutawatawa, UMP, Mashonaland East Province, ZW",District Hosptal,FALSE,,
Nhakiwa,31.80083084110,-17.37111000000,"kraal, UMP, Mashonaland East Province, ZW",Clinic,FALSE,,
Nyakasoro,32.19194030760,-16.90250000000,"Chitsungo, UMP, Mashonaland East Province, ZW",Clinic,FALSE,,
Nyanzou,32.30472183230,-16.78028000000,"Rushinga, Mashonaland East Province, ZW",Clinic,FALSE,,
Nyanzou,32.30472183230,-16.78028000000,"Rushinga, Mashonaland East Province, ZW",Clinic,FALSE,,
Chikuhwa,31.84040000000,-17.22300000000,"Katiyo, UMP, Mashonaland East Province, ZW",RHC,FALSE,,
Dewe  ,32.46410000000,-16.78370000000,"Mudzi, Mashonaland East Province, ZW",Clinic,FALSE,,
Marembera ,31.70670000000,-17.38990000000,"Nhakiwa, UMP, Mashonaland East Province, ZW",RHC,FALSE,,
Mashambanhaka,31.82250000000,-17.27510000000,"Katiyo, UMP, Mashonaland East Province, ZW", Clinic,FALSE,,
Sowa ,32.09930000000,-16.99600000000,"Chitsungo, UMP, Mashonaland East Province, ZW",RHC,FALSE,,
Umzingwane High School,28.94167000000,-20.34218000000,"Mulungwane, Umzingwane, Matabeleland South Province, ZW",School Clinic,FALSE,,
Mbalambala,29.03401000000,-20.45149000000,"Mbalabala, Umzingwane, Matabeleland South Province, ZW",Army Clinic,FALSE,,
Mpisini,29.10956000000,-20.20814000000,"Umzingwane, Matabeleland South Province, ZW",Clinic,FALSE,,
Bota,31.40731048580,-20.62272000000,"Bota, Zaka, Masvingo Province, ZW",Clinic,FALSE,,
Bvukururu,31.43872070310,-20.10544000000,"Sosera, Masvingo, Masvingo Province, ZW",Clinic,FALSE,,
Chinyabako,31.55583000180,-20.30689000000,"Zaka, Masvingo Province, ZW",Clinic,FALSE,,
Chipinda,31.34071922300,-20.06892000000,"Rurgwe, Masvingo, Masvingo Province, ZW",Rural Health Centre,FALSE,,
Chiredzana,31.67089080810,-20.56889000000,"Glendevon, Chiredzi, Masvingo Province, ZW",Clinic,FALSE,,
Fuve,31.61763954160,-20.35083000000,"Zaka, Masvingo Province, ZW",Clinic,FALSE,,
Gumbo,31.40699958800,-20.23847000000,"Manubvu, Zaka, Masvingo Province, ZW",Clinic,FALSE,,
Harava,31.27368927000,-20.40028000000,"Zaka, Masvingo Province, ZW",Rural Health Centre,FALSE,,
Jerera,31.45138931270,-20.42467000000,"Zaka, Masvingo Province, ZW",Satelite Clinic,FALSE,,
Jichidza,31.26786041260,-20.30397000000,"Ndanga, Zaka, Masvingo Province, ZW",Rural Health Centre,FALSE,,
Jichidza,31.22244071960,-20.26978000000,"Ndanga, Zaka, Masvingo Province, ZW",Mission Clinic,FALSE,,
Zibwowa,31.55372047420,-20.45111000000,"Zaka, Masvingo Province, ZW",Clinic,FALSE,,
Zinguwo,31.37375068660,-20.47322000000,"Zaka, Masvingo Province, ZW",Clinic,FALSE,,
Mushaya,31.28597068790,-20.60228000000,"Chiso, Zaka, Masvingo Province, ZW",Clinic,FALSE,,
Musiso,31.43993949890,-20.43994000000,"Zaka, Masvingo Province, ZW",Mission Hospital,FALSE,,
Ndanga,31.32192039490,-20.18517000000,"Ndanga, Zaka, Masvingo Province, ZW",Hospital,FALSE,,
Nyangambu,31.55538940430,-20.27308000000,"Zaka, Masvingo Province, ZW",Clinic,FALSE,,
Siyawareva,31.48619079590,-20.43864000000,"Zaka, Masvingo Province, ZW",Clinic,FALSE,,
Svuvure,31.55732917790,-20.55600000000,"Jerera, Zaka, Masvingo Province, ZW",Rural Health Hospital,FALSE,,
Veza,31.31711006160,-20.38519000000,"Zaka, Masvingo Province, ZW",Clinic,FALSE,,
Mageza,31.16789000000,-20.32740000000,"Zaka, Masvingo Province, ZW",Rural Health Centre,FALSE,,
ARDA Sisi,30.42028045650,-16.89056000000,"Chinex, Zvimba, Mashonaland West Province, ZW",Council Clinic,FALSE,,
Ayrshire,30.43861007690,-17.03944000000,"Raffingora, Zvimba, Mashonaland West Province, ZW",Council Clinic,FALSE,,
Banket,30.39583015440,-17.38333000000,"Banket, Zvimba, Mashonaland West Province, ZW",District Hospital,FALSE,,
Caesal,30.68111038210,-17.27111000000,"Mazowe, Mashonaland Central Province, ZW",Mine Clinic,FALSE,,
Chambadzi,30.37999916080,-17.18056000000,"Zvimba, Mashonaland West Province, ZW",Gold Mine Clinic,FALSE,,
Chirau,30.12417030330,-17.68167000000,"Murombedzi, Zvimba, Mashonaland West Province, ZW",Council Clinic,FALSE,,
Chivhere,30.03055953980,-17.66528000000,"Zimbara, Makonde, Mashonaland West Province, ZW",Gvt Clinic,FALSE,,
Crest Breeders,30.94111061100,-17.94139000000,"Harare, Harare Province, ZW",Council Clinic,FALSE,,
Darwendale,30.54888916020,-17.72028000000,"Darwendale, Zvimba, Mashonaland West Province, ZW",Rural Hospital,FALSE,,
Father Onea,30.38611030580,-17.79944000000,"Kutama, Chegutu, Mashonaland West Province, ZW",Mission Hospital,FALSE,,
Gwebi,30.85832977290,-17.67694000000,"Nyabira, Mashonaland East Province, ZW",Gvt Clinic,FALSE,,
Inkomo,30.71833038330,-17.67083000000,"Nyabira, Mashonaland East Province, ZW",Army Hospital,FALSE,,
Jari,30.03360939030,-17.73194000000,"Chababomera, Chegutu, Mashonaland West Province, ZW",Council Clinic,FALSE,,
Jokwani,30.11556053160,-17.75417000000,"Chababomera, Chegutu, Mashonaland West Province, ZW",Council Clinic(Construction),FALSE,,
Kutama,30.42000007630,-17.73944000000,"Machiroli, Zvimba, Mashonaland West Province, ZW",Council Clinic,FALSE,,
Kuwadzana,30.39472007750,-17.37639000000,"Banket, Zvimba, Mashonaland West Province, ZW",Council Clinic,FALSE,,
ZIMPAM,30.50917053220,-17.84139000000,"Darwendale, Chegutu, Mashonaland West Province, ZW",Private Hospital,FALSE,,
Zowa,30.04972076420,-17.80500000000,"Chababomera, Chegutu, Mashonaland West Province, ZW",Council Clinic,FALSE,,
Masiyarwa,30.32999992370,-17.81111000000,"Kutama, Chegutu, Mashonaland West Province, ZW",Council Clinic,FALSE,,
Mthu,30.93471908570,-17.75806000000,"Mount Hampden Junction, Mashonaland West Province, ZW",Council Clinic,FALSE,,
Mupurubu,30.29083061220,-17.73194000000,"Murombedzi, Zvimba, Mashonaland West Province, ZW",Council Clinic,FALSE,,
Muriel,30.60000038150,-17.24556000000,"Mutorashanga, Zvimba, Mashonaland West Province, ZW",Mine Clinic,FALSE,,
Murombedzi,30.20111083980,-17.70722000000,"Stand 162, Murombedzi, ZW",Private Clinic,FALSE,,
Mutorashanga,30.67638969420,-17.14667000000,"Mutorashanga, Zvimba, Mashonaland West Province, ZW",Council Clinic,FALSE,,
Nyabika,30.81167030330,-17.67361000000,"Nyabira, Mashonaland West Province, ZW",Council Clinic,FALSE,,
Raffingora,30.43055915830,-17.03694000000,"Raffingora, Zvimba, Mashonaland West Province, ZW",Rural Hospital,FALSE,,
Sutton,30.59277915950,-17.40056000000,"Kildonan, Zvimba, Mashonaland West Province, ZW",Mine Clinic,FALSE,,
TRBC,30.33333015440,-17.58389000000,"Trelawney, Zvimba, Mashonaland West Province, ZW",Council Clinic,FALSE,,
Trelawney,30.45889091490,-17.54139000000,"Trelawney, Zvimba, Mashonaland West Province, ZW",Council Clinic,FALSE,,
Vanad,30.71833038330,-17.08694000000,"Mutorashanga, Zvimba, Mashonaland West Province, ZW",Mine Clinic,FALSE,,
Zvimba,30.19889068600,-17.69917000000,"Murombedzi, Zvimba, Mashonaland West Province, ZW",Rural Hospital,FALSE,,
Kemurara,30.11608000000,-17.75380000000,"Chababomera, Chegutu, Mashonaland West Province, ZW",Rural Health Centre,FALSE,,
Mpinga Clinic,30.56607000000,-17.50907000000,"Mpinga, Zvimba, Mashonaland West Province, ZW",Clinic,FALSE,,
Bannockburn,29.87302970890,-20.29022000000,"Bannockburn, Zvishavane, Midlands Province, ZW",Clinic,FALSE,,
Dadaya,29.90311050420,-20.33531000000,"Bannockburn, Zvishavane, Midlands Province, ZW",Mission Hospital,FALSE,,
Gudo,30.21932983400,-20.39072000000,"Gudo, Chivi, Midlands Province, ZW",Clinic,FALSE,,
Lundi,30.01794052120,-20.25819000000,"Zvishavane, Midlands Province, ZW",Rural Hospital,FALSE,,
Mabasa,30.08669090270,-20.15469000000,"Zvishavane, Midlands Province, ZW",Clinic,FALSE,,
Maketo,29.93444061280,-20.20569000000,"Zvishavane, Midlands Province, ZW",Rural Health Centre,FALSE,,
Mapanzure,29.91963958740,-20.08956000000,"Kashambi, Zvishavane, Midlands Province, ZW",Clinic,FALSE,,
Vugwi,30.18968963620,-20.47197000000,"Gudo, Zvishavane, Midlands Province, ZW",Rural Health Centre,FALSE,,
Vukuzenzele,29.87214088440,-20.26669000000,"Bannockburn, Zvishavane, Midlands Province, ZW",Rural Health Centre,FALSE,,
Matenda,30.05652999880,-20.00344000000,"Masuma, Chivi, Midlands Province, ZW",Rural Health Centre,FALSE,,
Mimosa,29.83839035030,-20.33686000000,"Bannockburn, Zvishavane, Midlands Province, ZW",Clinic,FALSE,,
Mtambi,30.28418922420,-20.46786000000,"Gudo, Zvishavane, Midlands Province, ZW",Clinic,FALSE,,
Murowa,30.38694000240,-20.53392000000,"Ingesi, Chivi, Midlands Province, ZW",Clinic,FALSE,,
Zvishavane,30.05238914490,-20.30581000000,"Zvishavane, Midlands Province, ZW",District Hospital,FALSE,,
Kandodo,30.04959000000,-20.31803000000,"Zvishavane, Midlands Province, ZW",Clinic,FALSE,,
Mhondongori,29.79052000000,-20.27637000000,"Bannockburn, Zvishavane, Midlands Province, ZW",clinic,FALSE,,
Mhondongori,29.79052000000,-20.27637000000,"Bannockburn, Zvishavane, Midlands Province, ZW",Clinic,FALSE,,
Sabi Mine,30.13646000000,-20.39601000000,"Gudo, Zvishavane, Midlands Province, ZW",Clinic,FALSE,,
Mandava,30.06003000000,-20.30589000000,"Zvishavane, Midlands Province, ZW",Rural Health Centre,FALSE,,
Highlands,30.06236000000,-20.29630000000,"Zvishavane, Midlands Province, ZW",Clinic,FALSE,,
Weleza,30.11480000000,-20.23495000000,"Zvishavane, Midlands Province, ZW",Rural Health Centre,FALSE,,
Maglas,30.06882000000,-20.31849000000,"Zvishavane, Midlands Province, ZW",Clinic,FALSE,,
Shabanie Mine,30.06206000000,-20.32071000000,"Zvishavane, Midlands Province, ZW",Hospital,FALSE,,
Mpilo,28.57080000000,-20.12740000000,"VHFC+6J4, Hospital Rd, Bulawayo, ZW",Central Hospital,FALSE,,
Northern Surbabs ,28.59060000000,-20.12680000000,"Bulawayo, Bulawayo Province, ZW",clinic,FALSE,,
UBH,28.61680000000,-20.16640000000,"Bulawayo, Bulawayo Province, ZW",Central Hospital,FALSE,,
Premier Hillside ,28.61040000000,-20.18630000000,"Bulawayo, Bulawayo Province, ZW",Hospital,FALSE,,
J.M Nkomo Ekusileni,28.62000000000,-20.18150000000,"Bulawayo, Bulawayo Province, ZW",Hospital,FALSE,,
Ingutsheni,28.57660000000,-20.17970000000,"RH9G+VPP, 23rd Ave, Bulawayo, ZW",Central Hospital,FALSE,,
Dr. Shennan ,28.56740000000,-20.18980000000,"Bulawayo, Bulawayo Province, ZW",Clinic,FALSE,,
Nketa,28.53400000000,-20.20030000000,"Bulawayo, Bulawayo Province, ZW",Clinic,FALSE,,
24-Hr Medical centre,28.52770000000,-20.19590000000,"Nketa 6 Shopping Centre, Bulawayo, ZW",Clinic,FALSE,,
Nkulumane,28.52020000000,-20.18890000000,"Nkulumane Rd, Bulawayo, ZW",Clinic,FALSE,,
Maqhawe,28.50090000000,-20.18250000000,"Rangemore Rd, Bulawayo, ZW",Clinic,FALSE,,
Tshaballa,28.53580000000,-20.17440000000,"Bulawayo, Bulawayo Province, ZW",Clinic,FALSE,,
Magwegwe,28.50840000000,-20.13690000000,"VG75+3G7, Langa Rd, Bulawayo, ZW",Clinic,FALSE,,
Pumula ,28.48030000000,-20.14230000000,"20¬∞06'25. 28¬∞30'32.2""E 9th Road, Bulawayo, ZW",Clinic,FALSE,,
Pumula South,28.47890000000,-20.16220000000,"Bulawayo, Bulawayo Province, ZW",Clinic,FALSE,,
Luveve,28.51180000000,-20.11370000000,"Mbizo Rd, Bulawayo, ZW",Clinic,FALSE,,
Emakhandeni,28.52490000000,-20.11850000000,"Makhosi Rd, Bulawayo, ZW",Clinic,FALSE,,
Cowdray Park,28.50870000000,-20.07980000000,"Bulawayo, Bulawayo Province, ZW",Clinic,FALSE,,
Thembani,28.51930000000,-20.07810000000,"Bulawayo, Bulawayo Province, ZW",Clinic,FALSE,,
Magwegwe North,28.49510000000,-20.12220000000,"North Magwegwe Bus Station, Nthini St, Bulawayo, ZW",Clinic,FALSE,,
Ambrose,28.54360000000,-20.13660000000,"Bulawayo, Bulawayo Province, ZW",Hospital,FALSE,,
Njube,28.53290000000,-20.13450000000,"Njube Main Rd, Bulawayo, ZW",Clinic,FALSE,,
Pelandaba,28.52770000000,-20.14660000000,"VG3H+627, Hyde Park Rd, Bulawayo, ZW",Clinic,FALSE,,
Marondera,28.56580000000,-20.13740000000,"Luveve Rd, Bulawayo, ZW",Clinic,FALSE,,
Entumbane,28.54350000000,-20.12070000000,"Emadibheni Rd, Bulawayo, ZW",Clinic,FALSE,,
Entumbane ,28.54060000000,-20.12830000000,"Bulawayo, Bulawayo Province, ZW",Clinic,FALSE,,
Mzilikazi,28.56960000000,-20.13950000000,"J Poya Rd, Bulawayo, ZW",Clinic,FALSE,,
Martar-Dei,28.59650000000,-20.18280000000,"Chesterton Rd, Bulawayo, ZW",Hospital,FALSE,,
Princess Margaret,28.58980000000,-20.15590000000,"Endelon Flats 12th Avenue &, Samuel Parirenyatwa Rd, Bulawayo, ZW",Clinic,FALSE,,
Thorngrove,28.55590000000,-20.14720000000,"Bulawayo, Bulawayo Province, ZW",Clinic,FALSE,,
E.F Watson,28.54500000000,-20.14330000000,"VG4W+P35, Nkulumane Rd, Bulawayo, ZW",Clinic,FALSE,,
H&SC,28.58080000000,-20.16470000000,"No. 7D Sharons Haven Mall Between 14th and 15th Avenue, Jason Moyo St, Bulawayo, ZW",Clinic,FALSE,,
Mpopoma,28.54220000000,-20.14460000000,"Block 75/2309, 15th Rd, Bulawayo, ZW",Clinic,FALSE,,
Mwenezana,30.625022,-21.3625022,"Mwenezi, Masvingo Province, ZW",Clinic,FALSE,,
Chivi,30.507307,-20.314247,"Nyaningwe Growth Point, Chivi, Masvingo Province, ZW",District Hospital,FALSE,,
Cheshuro,31.035245,-19.843855,"Gutu, Masvingo Province, ZW",Clinic,FALSE,,
Deure II,31.95138,-20.247192,"Bikita, Masvingo Province, ZW",Clinic,FALSE,,
Nyakunhuwa,31.359695,-20.460264,"Zaka, Masvingo Province, ZW",Clinic,FALSE,,
Nemauku,31.367537,-20.281069,"Manubvu, Zaka, Masvingo Province, ZW",Clinic,FALSE,,
Nhema,31.544249,-20.272823,"Manubvu, Zaka, Masvingo Province, ZW",Clinic,FALSE,,
Mutimurefu,31.037316,-20.104089,"Glenlivet, Masvingo, Masvingo Province, ZW",Clinic,FALSE,,
Makurira,30.830665,-20.074458,"Masvingo, Masvingo Province, ZW",Clinic,FALSE,,
Zimuto BC,30.864467,-19.856462,"Matoba, Masvingo, Masvingo Province, ZW",Clinic,FALSE,,
Chimanimani Urban,32.872205,-19.802964,"Chimanimani, Manicaland Province, ZW",Clinic,FALSE,,
Chipinge Town ,32.625347,-20.19111,"Chipinge, Manicaland Province, ZW",Clinic,FALSE,,
Chiriga,32.608623,-20.276047,"Babblespruit, Chipinge, Manicaland Province, ZW",Rural Health Centre,FALSE,,
Muswera,32.605458,-20.334519,"Ivorie, Chipinge, Manicaland Province, ZW",Clinic,FALSE,,
Tuzuka,32.484827,-20.541155,"Chibuwe, Chipinge, Manicaland Province, ZW",Rural Health Centre,FALSE,,
Takwirira,32.232564,-20.876273,"Chisumbanje, Chipinge, Manicaland Province, ZW",Clinic,FALSE,,
Bingaguru,32.377826,-18.210936,"Inyati Mine, Makoni, Manicaland Province, ZW",Rural Health Centre,FALSE,,
Chinyika 2,32.289355,-18.143585,"Inyati Mine, Makoni, Manicaland Province, ZW",Rural Health Centre,FALSE,,
Chinangwe,32.75297,-18.457824,"Honde Valley, Mutasa, Manicaland Province, ZW",Clinic,FALSE,,
Bromley,31.32120000000,-18.08010000000,"Bromley, Goromonzi, Mashonaland East Province, ZW",RHC,FALSE,,
MRDC,31.59070000000,-18.15660000000,"108 Murehwa Road, Marondera, ZW",Mobile Clinic,FALSE,,
NTBRL,28.57290745,-20.1274105,"VHFC+6J4, Hospital Rd, Bulawayo, ZW",,FALSE,,
Thorngrove,28.59705802,-20.1804545,"11 Blake Rd, Bulawayo, ZW",,FALSE,,
Diagnostic Laboratories Services Mater Dei,28.59707948,-20.180525,"11 Blake Rd, Bulawayo, ZW",,FALSE,,
cimas,28.58836271,-20.15620881,"Suite 34, MEDICAL CENTER Cnr 8th &, Josiah Tongogara Rd, Bulawayo, ZW",,FALSE,,
UBH Central Hospital,28.61627896,-20.16530517,"Bulawayo, Bulawayo Province, ZW",Hospital,FALSE,,
Mpilo Central Hospital,28.5698588,-20.12591925,"Bulawayo, Bulawayo Province, ZW",Hospital,FALSE,,
Emakhandeni Clinic,28.52558553,-20.11810477,"Makhosi Rd, Bulawayo, ZW",Clinic,FALSE,,
Magwegwe Clinic,28.5080936,-20.13665607,"Magwegwe Bus Station, Bulawayo, ZW",Clinic,FALSE,,
Nketa Clinic,28.53447542,-20.19987031,"Bulawayo, Bulawayo Province, ZW",Clinic,FALSE,,
Pumula South Clinic,27.09139061,-19.59306,"Pamula, Tsholotsho, Matabeleland North Province, ZW",Clinic,FALSE,,
WILKINS infectious Hospital,31.03041776,-17.81955735,"52JH+JV3, Weale Rd, Harare, ZW",Hospital,FALSE,,
Seke North clinic,31.10525144,-18.01494363,"Chitungwiza, Seke, Mashonaland East Province, ZW",Clinic,FALSE,,
Seke South Clinic,31.07714417,-18.03080486,"X39G+PXM, Chitungwiza Rd, Chitungwiza, ZW",Clinic,FALSE,,
ZRP Support Camp,31.19056909,-17.81099549,"Harare, Harare Province, ZW",,FALSE,,